Account Name,Product Family,Billing Address Line 1,Billing City/State,Billing Country,Billing Zip/Postal Code,Latitude,Longitude,Color
(Permanently Closed) Coast City Medical Group Inc,Accent,"4300 Long Beach Blvd","Long Beach, California",United States,90807,33.7683,-118.1956,#442c5c
13433153 Canada Inc. dba Mens Care Clinic,Accent,"2300 Yonge Street, Unit 1705",Toronto,Canada,M4P 1E4,43.6519,-79.3817,#442c5c
1715424 Ontario Inc.,Accent,4230 Sherwoodtowne Blvd,Mississauga,Canada,L4Z 2G6,43.6,-79.65,#442c5c
2208362 Ontario Inc. O/A Wardenwood Health Centre Inc,Accent,549 Bur Oak Ave.,"Markham, Ontario",Canada,L6C 3E5,43.8833,-79.25,#442c5c
221 Degrees Salon And Spa,Accent,221 Lakeshore Road East,Mississauga,Canada,L5G 1G5,43.6,-79.65,#442c5c
2288940 ONT Inc O/A La Unique Laser Centre by Numi,Accent,10025 Hurontario Street Unit 11,Brampton,Canada,L6Z 0E8,43.6833,-79.7667,#442c5c
2590518 Ontario Inc.,Accent,"9581 Weston Rd, Unit 2","Woodbridge, Ontario",Canada,L4H 3A5,43.7791,-79.5961,#442c5c
2605422 ONT. INC. O/A Lighttouch Med Spa,Accent,"145 Royal Crest Court","Markham, Ontario",Canada,L3R 0A2,43.8833,-79.25,#442c5c
2626872 Ontario Ltd,Accent,5027 Spectrum Way,Mississauga,Canada,L4W 5N6,43.6,-79.65,#442c5c
2695070 Ontario LTD,Accent,18 Wynford Dr,North York,Canada,M3C 3S2,43.7598,-79.4112,#442c5c
360 Medical Weight Specialists,Accent,"2255 Ygnacio Valley Road, Suite N","Walnut Creek, California",United States,94598,37.9064,-122.065,#442c5c
4 Ever Young (Boca Raton),Accent,"5458 Town Center Road, Ste 19","Boca Raton, Florida",United States,33486,26.3686,-80.1,#442c5c
4 Serv Med Spa DBA Flawless Med Spa,Accent,"17940 Farmington Rd, Suite 205","Livonia, Michigan",United States,48152,42.3972,-83.3736,#442c5c
457 Bayfront Aesthetics,Accent,1729 Heritage Trail #904,"Naples, Florida",United States,34112,26.15,-81.8,#442c5c
550 Belle Aesthetic Clinique,Accent,401 Miracle Mile #302,"Coral Gables, Florida",United States,33134,25.75,-80.2711,#442c5c
5th Avenue Plastic Surgery,Accent,526 Southeast 5th Avenue,"Delray Beach, Florida",United States,33483,26.4592,-80.0831,#442c5c
615 Aesthetics LLC,Accent,"615 Bakers Bridge Avenue, Ste 145","Franklin, Tennessee",United States,37067,35.9292,-86.8575,#442c5c
9241-2710 Quebec Inc.,Accent,230 Ave. Dorval,Dorval,Canada,H9S3H3,45.4508,-73.752,#442c5c
A Defined Image Medical Wellness Center,Accent,2176 Oak Road,"Snellville, Georgia",United States,30078,33.8583,-84.0064,#442c5c
A Facial and Body Center,Accent,"Cherryvale Mall, Main Level, Suite 103, 7200 Harrison Ave.","Rockford, Illinois",United States,61112,42.2594,-89.0644,#442c5c
A New You Skin and Body Center,Accent,145 Town Lake Parkway,"Woodstock, Georgia",United States,30188,34.1014,-84.5194,#442c5c
Abbott Heath and Wellness,Accent,3 E. Mainstreet,"Salina, Utah",United States,84654,38.9576,-111.8601,#442c5c
Abby Skin Clinic and FFMS Medical Spa,Accent,2345 Willow Pass Road,"Concord, California",United States,94520,37.9791,-122.0313,#442c5c
Abingdon Family Dentistry,Accent,1 Bel Air S. Pkwy,"Bel Air, Harford County, Maryland",United States,21015,39.5357,-76.3485,#442c5c
About Face Cosmetics LLC,Accent,6800 Montgomery Blvd. NE,"Albuquerque, New Mexico",United States,87109,35.1107,-106.61,#442c5c
About Face Medical Aesthetics PLLC,Accent,64 Portsmouth Avenue,"Stratham, New Hampshire",United States,3885,43.0254,-70.9117,#442c5c
About You Family Medicine- Roswell GA,Accent,2325 Log Cabin Drive SE Suite 108,Atlanta,United States,30339,33.7485,-84.3915,#442c5c
Absolute Aesthetics,Accent,8619 Reseda Boulevard Suite 104,Los Angeles,United States,91324,34.0522,-118.2433,#442c5c
Absolute Wellness Clinic Ps,Accent,465 Rainier Blvd N,"Issaquah, Washington",United States,98027,47.5356,-122.0433,#442c5c
Abundant Family Care,Accent,1501 Hughes Road STE 102,"Grapevine, Texas",United States,76051,32.935,-97.0858,#442c5c
Academy medical aesthetics,Accent,561 academy road,Winnipeg,Canada,R3N 0e4,49.8994,-97.1392,#442c5c
Accent Face and Body,Accent,105 Rockledge Ter,"Haledon, New Jersey",United States,7508,40.937,-74.1889,#442c5c
Access Medspa Rejuvenate,Accent,9470 Annapolis Rd,"Lanham, Maryland",United States,20706,38.9669,-76.8619,#442c5c
AcuCare Total Health,Accent,750 Fletcher Dr,"Elgin, Illinois",United States,60123,42.0406,-88.2551,#442c5c
"Adam, Todd MD",Accent,1015 Medical Center Boulevard Suite 1100,"Webster, Texas",United States,77598,29.5386,-95.1194,#442c5c
Adara Body Sculpting and Anti-Aging Center,Accent,"1924 New Jersey 35","Wall Township, New Jersey",United States,7719,40.1673,-74.0961,#442c5c
Adolescent and Women Medical Center,Accent,320 Montauk Highway,"West Islip, New York",United States,11795,40.715,-73.2978,#442c5c
Adorn Aesthetic and Laser Center,Accent,"101 Lattner ct, suite 100","Morrisville, North Carolina",United States,27560,35.8196,-78.823,#442c5c
Adriaan Kriez,Accent,"Bay # 4, 1224 strachan Raod SE""",Medicine Hat,Canada,T1B 4R2,50.0417,-110.6775,#442c5c
Adriana Rodriguez Education and Skin Care Center LLC,Accent,10201 NW 58th St,"Doral, Florida",United States,33178,25.8081,-80.3533,#442c5c
Adv. Laser Body Care Inst,Accent,3155 Book Road #103,"Naperville, Illinois",United States,60564,41.7481,-88.1656,#442c5c
Advanced Ambulatory Surgical Center,Accent,2333 N. Harlem Ave.,Chicago,United States,60707,41.8832,-87.6324,#442c5c
Advanced Body And Laser Center,Accent,115 N Akers Street,"Visalia, California",United States,93291-5122,36.3301,-119.2989,#442c5c
"Advanced Body Solutions, Inc",Accent,"740 Garden View Court, Suite 207","Encinitas, California",United States,92024-2474,33.0444,-117.2717,#442c5c
Advanced Cardiovascular and Vein Center,Accent,1340 Union University Dr,"Jackson, Tennessee",United States,38305,35.6331,-88.8208,#442c5c
Advanced Dermatology And Cosmetic Surgery,Accent,525 Jamestown Street,Philadelphia,United States,19128,39.95,-75.1667,#442c5c
Advanced Dermatology and Skin Cancer Associates,Accent,7203 Goodman Rd,"Olive Branch, Mississippi",United States,38654,34.9603,-89.8417,#442c5c
Advanced Dermatology and Skin Cancer Center,Accent,"1133 College Ave, Ste E230","Manhattan, Kansas",United States,66502,39.1867,-96.5666,#442c5c
Advanced Dermatology Care,Accent,4480 Centerville Road,"White Bear Lake, Minnesota",United States,55127,45.0847,-93.01,#442c5c
"Advanced Dermatology, LLC",Accent,275 Parkway Drive # 521,"Lincolnshire, Illinois",United States,60069,42.1959,-87.9062,#442c5c
Advanced Hair Aesthetics Inc,Accent,13983 Mango Dr,"Del Mar, California",United States,92014,32.955,-117.2639,#442c5c
Advanced Integrative Medical,Accent,6965 South Union Park Center,"Cottonwood Heights, Utah",United States,84047,40.6163,-111.8105,#442c5c
Advanced Laser Body Care Institute,Accent,3155 Book Road,"Naperville, Illinois",United States,60564,41.7481,-88.1656,#442c5c
Advanced Rejuventation Medical Spa,Accent,425 Locust St.,"Burlington, Ontario",Canada,L7S 1T8,43.325,-79.8,#442c5c
Advanced Skin and Laser Center,Accent,3514 N. Power Rd,"Mesa, Arizona",United States,85207,33.4152,-111.8315,#442c5c
Advanced Skin Fitness,Accent,2928 Oak Lawn Ave,Dallas,United States,75219,32.7758,-96.7967,#442c5c
Advanced Specialty Care for Women,Accent,"16111 N. Brinson St., 110","Nampa, Idaho",United States,83687,43.5747,-116.5636,#442c5c
Advantage Primary Care,Accent,7605 Forest Ave Ste 412,"Richmond, Virginia",United States,23229,37.5408,-77.4339,#442c5c
Adyita Parshad,Accent,"331 Oak Manor Dr, Suite 202","Glen Burnie, Maryland",United States,21061,39.16,-76.6106,#442c5c
Aesthetic FX,Accent,12021 Dallas Parkway Suite 600,"Frisco, Texas",United States,75033-3605,33.1414,-96.8131,#442c5c
Aesthetic Laser Academy Dallas,Accent,"17110 Dallas Parkway",Dallas,United States,75248,32.7758,-96.7967,#442c5c
Aesthetic Partners,Accent,1015 West Indiantown Road,"Jupiter, Florida",United States,33458,26.9261,-80.105,#442c5c
Aesthetic Spa Institute,Accent,5428 O'Donovan Drive,"Baton Rouge, Louisiana",United States,70808,30.4495,-91.0934,#442c5c
Aesthetic Treatment Centers,Accent,720 Goodlette-Frank Road #300,"Naples, Florida",United States,34102,26.15,-81.8,#442c5c
Aesthetica Med LLC,Accent,114 N Elizabeth St,Chicago,United States,60607-1666,41.8832,-87.6324,#442c5c
Aesthetica Med Spa,Accent,2221 Camino Del Rio,San Diego,United States,92108,32.715,-117.1625,#442c5c
Aesthetica Medical Spa,Accent,1618 Judson Rd,"Longview, Texas",United States,75601,32.4946,-94.7423,#442c5c
Aesthetics of Yeu,Accent,500 Lexington Ave,"Chapin, South Carolina",United States,29036,34.1657,-81.349,#442c5c
Ageless Aesthetics By Rebecca,Accent,12205 County Line Road,"Madison, Alabama",United States,35758,34.7151,-86.7396,#442c5c
Ageless OM Medspa,Accent,37300 Dequindre Rd,"Sterling Heights, Michigan",United States,48310,42.5803,-83.0303,#442c5c
Ageless Radiance Medspa,Accent,307-1196 Lansdowne Drive,Coquitlam,Canada,V3E  1J7,49.2839,-122.7919,#442c5c
Ageless Skin And Laser,Accent,11 Parke Place,"Sewell, New Jersey",United States,8080,39.7663,-75.1463,#442c5c
Ageless Skin and Laser Center,Accent,222 E Oak Ridge Dr Suite 1700,"Hagerstown, Maryland",United States,21740-7882,39.6396,-77.7189,#442c5c
AgeWell,Accent,3505 Patterson Drive,"Amarillo, Texas",United States,79109,35.1992,-101.8453,#442c5c
Aglow Dermatology,Accent,"150 East 37th Street",New York City,United States,10016,40.713,-74.0072,#442c5c
AI Hair Transplant Miami,Accent,2100 Ponce de Leon #1010,"Coral Gables, Florida",United States,33134,25.75,-80.2711,#442c5c
"Ajala, Yolanda MD",Accent,"8619 Broadway","Pearland, Texas",United States,77584,29.5544,-95.2958,#442c5c
AJC Medical Aesthetics,Accent,"1611 Jones Franklin Road, STE 105","Raleigh, North Carolina",United States,27606-3376,35.7806,-78.6389,#442c5c
Ajliss Medical Group,Accent,445 S. Associated Rd,"Brea, California",United States,92821,33.9233,-117.8889,#442c5c
Alainn Medical Aesthetics,Accent,"18 North Rd., #2D","Bedford, Massachusetts",United States,1730,42.4906,-71.2767,#442c5c
Alaya Health and Wellness,Accent,1062 E Riverside Dr. suite 203,"St. George, Utah",United States,84790,37.0953,-113.5781,#442c5c
Albert Chan M.D.,Accent,2301 Maple Ave,"South Plainfield, New Jersey",United States,7080,40.5744,-74.4148,#442c5c
Albuquerque Vein and Laser Institute PC,Accent,5110 Masthead st. NE suite C,"Albuquerque, New Mexico",United States,87109,35.1107,-106.61,#442c5c
"ALC - Partner, Inc.",Accent,24555 Hallwood Court,"Farmington Hills, Michigan",United States,48335,42.4853,-83.3769,#442c5c
Alchemy MedSpa and Wellness Center,Accent,"200 Manufacturers Rd","Chattanooga, Tennessee",United States,37405,35.0456,-85.2672,#442c5c
AlecXander Medical Spa,Accent,462 Mid Cities Blvd,"Hurst, Texas",United States,76054,32.8236,-97.1793,#442c5c
Alkhalifa Group- Dr. Dawood,Accent,3990 Valley BLVD,"Walnut, California",United States,91789,34.0333,-117.8667,#442c5c
All About You Solutions,Accent,23 Village Inn Road,"Westminster, Massachusetts",United States,1473,42.5458,-71.9111,#442c5c
All About You Wellness and Aesthetics,Accent,907 S. Main St,"Kalispell, Montana",United States,59901,48.1978,-114.3161,#442c5c
All Care Clinics,Accent,"6805 NE Loop 820 ","North Richland Hills, Texas",United States,76180,32.8556,-97.2181,#442c5c
AllanK and Company dba Hair Partners Institute,Accent,4535 Harding Pike STE 302,"Nashville, Tennessee",United States,37205,36.1667,-86.7833,#442c5c
"Allen, Jennifer MD FAAD",Accent,520 Charter Blvd.,"Macon, Georgia",United States,31210-4870,32.8381,-83.6705,#442c5c
Allenby Dermatology,Accent,6290 Linton Boulevard,"Delray Beach, Florida",United States,33484,26.4592,-80.0831,#442c5c
Alliance Family Dentistry,Accent,8801 Tamiami Trail North,"Naples, Florida",United States,34108,26.15,-81.8,#442c5c
Allure De Vie,Accent,6400 N. Northwest Hwy,Chicago,United States,60631,41.8832,-87.6324,#442c5c
"Allure Med Spa, LLC (CLOSED)",Accent,2128 Jefferson Davis Hwy,"Stafford, Virginia",United States,22554,38.422,-77.4082,#442c5c
Allure Medical Spa - Chip Mok,Accent,4773 Lockwood Drive,"Washington Township, Macomb County, Michigan",United States,48094,42.7525,-83.0322,#442c5c
Alma Inc,Accent,485 Half Day Road,"Buffalo Grove, Illinois",United States,60089,42.1519,-87.9668,#442c5c
Alora Ambiance Spa,Accent,109 Cornelia Street,"Boonton, New Jersey",United States,7005,40.9055,-74.4122,#442c5c
Alpha Lan Medspa,Accent,11800 Northfall Lane,"Alpharetta, Georgia",United States,30009-7976,34.0733,-84.2811,#442c5c
Alpine Plastic Surgery,Accent,5405 S Adams Ave Pkwy,"Ogden, Utah",United States,84405,41.2228,-111.9704,#442c5c
Alshifa Medical Group,Accent,3605 Agneta Court,"Elk Grove, California",United States,95758,38.4383,-121.3819,#442c5c
Alter Ego Health and Beauty Lounge,Accent,3539 10th Avenue West,Vancouver,Canada,V6T 2E9,49.2636,-123.1386,#442c5c
"Alternative Health Care, LLC",Accent,"8788 Ruffian Ln, Suite C","Newburgh, Indiana",United States,47630,37.9467,-87.4036,#442c5c
Alternatives Inc.,Accent,17 Sherington Drive,"Bluffton, South Carolina",United States,29910,32.2372,-80.8606,#442c5c
"Alternity Healthcare, LLC",Accent,"639 Park Rd, Suite 200","West Hartford, Connecticut",United States,6107,41.7678,-72.7539,#442c5c
Amanda Hollingsworth DO,Accent,1700 N Oregon St Ste 530,"El Paso, Texas",United States,79902,31.7903,-106.4233,#442c5c
Amber Bocknek Medicine Professional Corp.,Accent,411 Fairway Garden,"Newmarket, Ontario",Canada,L3X 1B7,44.0602,-79.4558,#442c5c
Amici Aesthetic Med Spa,Accent,355 E. Parkwood Ave,"Friendswood, Texas",United States,77546,29.5285,-95.2,#442c5c
"Amour Medical David G. Alonso, MD",Accent,564 Rio Lindo Ave Suite 100,"Chino, California",United States,95926-1852,34.0178,-117.69,#442c5c
"Amy Chow, MD Rejuvenation Practice",Accent,296 NE Tudor Road,"Lee's Summit, Missouri",United States,64086,38.9225,-94.3742,#442c5c
Anew visage,Accent,108 N. 11th Street,"Morehead City, North Carolina",United States,28557,34.7278,-76.7467,#442c5c
Anita's Salon and Spa,Accent,4 Slipneedle Street,Brampton,Canada,L6S 6L5,43.6833,-79.7667,#442c5c
Ann Long MD,Accent,139 Centre Street Suite 310,New York City,United States,10013,40.713,-74.0072,#442c5c
Ann Micheals,Accent,400 Newport Center Dr.,"Newport Beach, California",United States,92660,33.6167,-117.8975,#442c5c
Anne Maaden Cosmetic and Laser Clinic,Accent,1460 Gordon St. S,Guelph,Canada,N1L 1C8,43.5448,-80.2481,#442c5c
Anne Maaden Cosmetic Laser And Day Spa,Accent,1460 Gordon Street South,Guelph,Canada,N1L 1C8,43.5448,-80.2481,#442c5c
AnneMichelle Hair,Accent,6795 U.S. 9,"Rhinebeck (village), New York",United States,12572,41.9275,-73.9089,#442c5c
Antiaging medical and laser clinic,Accent,2200 W 4th Ave,Vancouver,Canada,V6K 1N8,49.2636,-123.1386,#442c5c
ANU Medspa,Accent,1229 E 33rd St,"Edmond, Oklahoma",United States,73013,35.65,-97.4667,#442c5c
Apex Mens Health Clinic,Accent,7828 Wakeley Plaza,"Omaha, Nebraska",United States,68114,41.25,-96,#442c5c
APOLLO HEALTH PLLC,Accent,5401 32nd Avenue,"Gig Harbor, Washington",United States,98335,47.3351,-122.5828,#442c5c
"Apollo Wellness Group, LLC dba Back to Health",Accent,5005 E Stop 11 Rd,Indianapolis,United States,46237-9447,39.791,-86.148,#442c5c
Applied Med Systems,Accent,5781 Bridge Street,"East Syracuse, New York",United States,13057,43.0644,-76.0703,#442c5c
Ardalan Keshtkar DDS INC,Accent,2104 Heritage Drive,"Roseville, California",United States,95678,38.7525,-121.2894,#442c5c
Ardsley Dental Spa,Accent,"1053 Saw Mill River Rd., #107","Ardsley, New York",United States,10502,41.0086,-73.8412,#442c5c
Arijana Spa Inc.,Accent,237 King St. West Apt #402,"Cambridge, Ontario",Canada,N3H 5L2,43.3583,-80.3139,#442c5c
Arion Laser Centre Inc.,Accent,1065-24th. Street,West Vancouver,Canada,V7V-4H1,49.3382,-123.1681,#442c5c
Arizona Medical and Natural Health Clinic,Accent,34406 N 27th Dr Bldg 2 Ste 108,"Phoenix, Arizona",United States,85085,33.45,-112.0667,#442c5c
"Arkansas Progressive Medicine, PLLC",Accent,"1000 East Matthews Avenue, STE E","Jonesboro, Arkansas",United States,72401,35.8384,-90.7105,#442c5c
Arlani Integrative Medicine,Accent,244 W Vine St 232,"Murray, Utah",United States,84107,40.6525,-111.8933,#442c5c
Arlington Plastic Surgery,Accent,3300 Matlock Road,"Arlington, Texas",United States,76015,32.7356,-97.1071,#442c5c
Arlington Preventative Care Medical,Accent,1800 W Pioneer Pkwy,"Arlington, Texas",United States,76013,32.7356,-97.1071,#442c5c
Aroma Beauty,Accent,2702 W 4th Ave,Vancouver,Canada,V6K 1R1,49.2636,-123.1386,#442c5c
Artisans of Medicine NY,Accent,466 Bay Ridge Ave,Brooklyn,United States,11220,40.6925,-73.991,#442c5c
Artistic Spa,Accent,492 Upper Queen St.,"London, Ontario",Canada,N6C 3T9,42.9837,-81.2497,#442c5c
Asa Medical,Accent,235 E Washington Ave,"Ashburn, Georgia",United States,31714-5224,31.7044,-83.6539,#442c5c
Ashbrook Aesthetics,Accent,"5514 NE 107th Ave, suite 202","Vancouver, Washington",United States,98662,45.6333,-122.6,#442c5c
"Asher, David T., MD",Accent,1110 W. La Palma Avenue # 1,"Anaheim, California",United States,91801,33.8345,-117.9156,#442c5c
Ashley Frer D.C. LTD,Accent,"3221 N. Sheffield, Unit C-1S",Chicago,United States,60657-8510,41.8832,-87.6324,#442c5c
Ashwani Singh,Accent,11528 Jasper Avenue NW,Edmonton,Canada,T5K 0M8,53.5445,-113.4909,#442c5c
Aspen Dermatology,Accent,114 E 800 N,"Spanish Fork, Utah",United States,84660,40.1044,-111.64,#442c5c
Associated Dermatology,Accent,50 S Last Chance Gulch St.,"Helena, Montana",United States,59601,46.5958,-112.027,#442c5c
Athena Salon and Spa,Accent,20229 N 67th Avenue,"Glendale, Arizona",United States,85308,33.5386,-112.1837,#442c5c
Athena Theodosantos,Accent,"2600 Westhall Lane ","Maitland, Florida",United States,32751,28.6271,-81.3591,#442c5c
Atlanta Urogynecology,Accent,Dr. John Miklos,"Alpharetta, Georgia",United States,30005,34.0733,-84.2811,#442c5c
Atlantic Plastic Surgery,Accent,106 Milford St Ste 307,"Salisbury, Maryland",United States,0 3801,38.3656,-75.5992,#442c5c
Attractionz,Accent,4620 N. Flecha Dr.,"Tucson, Arizona",United States,85718,32.2217,-110.9264,#442c5c
Aurora Skin and Laser Clinic,Accent,3566 Sable Ave,"Richmond, British Columbia",Canada,V7E2A4,49.1667,-123.1333,#442c5c
Ava MD,Accent,9915 Santa Monica Blvd,"Beverly Hills, California",United States,90212,34.0803,-118.4047,#442c5c
Avalon Medical Spa,Accent,77 Wolcott Ave,"Dartmouth, Massachusetts",United States,02747-2459,41.6144,-70.9697,#442c5c
Avante Laser and Aesthetics,Accent,7315 Edmonds Street,Burnaby,Canada,V3N-1A7,49.2432,-122.9742,#442c5c
"Avanti Aesthetic Solutions, LLC",Accent,809 West Harwood Road,"Hurst, Texas",United States,76054-6233,32.8236,-97.1793,#442c5c
"Ave Medical Laser Spa, LLC.",Accent,"1201 4th St. ","Sioux City, Iowa",United States,51101-2139,42.4981,-96.3956,#442c5c
Awake Health,Accent,201 S Main St.,"Ellensburg, Washington",United States,98926,46.9971,-120.5451,#442c5c
Awaken Cosmetic and Aesthetic Wellness Spa,Accent,1902 E 53rd St,"Anderson, Indiana",United States,46013,40.1079,-85.6782,#442c5c
B Medical Spa,Accent,3033 5th Avenue Suite 105,San Diego,United States,92103,32.715,-117.1625,#442c5c
"Baban Mahal, DDS",Accent,5280 Douglas Blvd #100,"Granite Bay, California",United States,95746,38.7486,-121.1797,#442c5c
BAILEY COSMETICS,Accent,"9236 Main Street, STE 3C","Woodstock, Georgia",United States,30188,34.1014,-84.5194,#442c5c
"Bala Aesthetics And Medispa, LLC",Accent,"2021-B Emmorton Road","Bel Air, Harford County, Maryland",United States,21015,39.5357,-76.3485,#442c5c
Bamboo Leaf Spa,Accent,510 North 13th Avenue,"Upland, California",United States,91786-4973,34.0999,-117.647,#442c5c
Bare Bold,Accent,31 Mahogany Way SE,Calgary,Canada,T3M 1N4,51.0473,-114.058,#442c5c
Bare Med Spa,Accent,1230 Walnut St.,"Kansas City, Missouri",United States,64106-2116,39.0997,-94.5783,#442c5c
Bauman Medical Hair Transplant and Hair Loss Treatment Center,Accent,1450 S Dixie Hwy,"Boca Raton, Florida",United States,33432,26.3686,-80.1,#442c5c
Bavin’s beauty,Accent,3 Breckonwood St,"Caledon, Ontario",Canada,L7C 4G6,43.7466,-79.8328,#442c5c
Baxt Cosmedical,Accent,Dr. Sherwood Baxt,"Paramus, New Jersey",United States,7652,40.9473,-74.071,#442c5c
Bay Pointe Dermatology,Accent,"3850 Southwest Bird Road, Ste 104","Arcadia, Florida",United States,34269,27.215,-81.859,#442c5c
BE Lifestyle MedSpa,Accent,8322 Bellona Ave.,"Towson, Maryland",United States,21204-2077,39.3931,-76.6094,#442c5c
Be Well Family Care,Accent,"11495 N Pennsylvania St","Carmel, Indiana",United States,46032-5636,39.9667,-86.1,#442c5c
Be Whole Wellness,Accent,"7801 South I-35 E, Suite 301A","Corinth, Texas",United States,76210,33.1542,-97.0653,#442c5c
Beata Styka MD,Accent,12130 S Harlem Ave ,"Palos Heights, Illinois",United States,60463,41.6653,-87.7972,#442c5c
Beaumont Health and Wellness Clinic,Accent,"229 Dowlen Rd., Suite 13B","Beaumont, Texas",United States,77706-1905,30.08,-94.1267,#442c5c
Beautiful U,Accent,495 W Main St,"Lehi, Utah",United States,84043,40.3879,-111.8492,#442c5c
Beautiful You by Ada,Accent,5030 Champion Blvd.,"Boca Raton, Florida",United States,33496,26.3686,-80.1,#442c5c
Beautify at Ashland Medical Specialists,Accent,830 North Ashland Avenue,Chicago,United States,60622,41.8832,-87.6324,#442c5c
Beauty and Health by Liz,Accent,"6600 N Oracle Rd","Tucson, Arizona",United States,85704,32.2217,-110.9264,#442c5c
Beauty and Wellness on Olive,Accent,826 Bellerive Manor Drive,"Creve Coeur, Missouri",United States,63141,38.6672,-90.4425,#442c5c
Beauty Bar Laser Clinic,Accent,675 Charles Street,Toronto,Canada,M4Y 2B2,43.6519,-79.3817,#442c5c
Beauty by Blume,Accent,"14074 Trade Center Dr, STE 226","Fishers, Indiana",United States,46038,39.9561,-86.0128,#442c5c
Beauty Connections,Accent,"3901 Northwest 79th Avenue, Ste 219","Doral, Florida",United States,33166,25.8081,-80.3533,#442c5c
Beauty Loft Med Spa,Accent,116 E Sugarland Hwy,"Clewiston, Florida",United States,33440,26.7493,-80.9469,#442c5c
Beauty Medica,Accent,2616 Westgate Street,Houston,United States,77098-3023,29.7628,-95.3831,#442c5c
"Beauty Redefined, LLC",Accent,2505 Samaritan Drive #401,"San Jose, California",United States,95124,37.3333,-121.9,#442c5c
"Beauty Sculpt Spa, LLC",Accent,1109 Nolana Ave. Suite 302,"McAllen, Texas",United States,78504-3796,26.1967,-98.2357,#442c5c
Beauty Secrets Medic SPA,Accent,11505 Bingham,"El Paso, Texas",United States,79936,31.7903,-106.4233,#442c5c
Beauty Zone Clinic,Accent,7740 West North Ave,"Elmwood Park, Illinois",United States,60707,41.9225,-87.8156,#442c5c
BeautyBorn MedSpa,Accent,2200 East Camelback Road,"Phoenix, Arizona",United States,85016,33.45,-112.0667,#442c5c
Beckerman Women's Health,Accent,"11140 Rockville Pike, Ste 660","Rockville, Maryland",United States,20852,39.0836,-77.1483,#442c5c
Beer Dermatology (WPB),Accent,"1500 North Dixie Highway, Ste 305","West Palm Beach, Florida",United States,33401,26.7144,-80.0549,#442c5c
Behr Laser and Skin Care Center,Accent,"1125 E Spruce Ave, Ste 207","Fresno, California",United States,93720,36.7317,-119.7859,#442c5c
Bell Chiropractic,Accent,4069 E. Galbraith Rd.,Cincinnati,United States,45236,39.1037,-84.5136,#442c5c
Bell Medical Aesthetics,Accent,#3 - 419 Kensington Ave,Estevan,Canada,S4A 2B4,49.1468,-102.9915,#442c5c
Bella Body Image,Accent,6465 S. Yale,"Tulsa, Oklahoma",United States,74136,36.1314,-95.9372,#442c5c
Bella Medica Laser Center,Accent,618 S. Rt. 31 Ste 1,"McHenry, Illinois",United States,60050,42.3392,-88.2817,#442c5c
Bella Rose Medispa,Accent,1395 Liberty St. SE,"Salem, Oregon",United States,97302,44.939,-123.0393,#442c5c
Belladonna Day Spa,Accent,2900 Magazine St,New Orleans,United States,70115,29.9518,-90.0746,#442c5c
Bellair Laser Clinic,Accent,3 McAlpine Street,Toronto,Canada,M5R 3T5,43.6519,-79.3817,#442c5c
Bellaire MedClinic,Accent,7814 Bellaire Boulevard,Houston,United States,77036,29.7628,-95.3831,#442c5c
Bellatudo Skin and Wellness Center,Accent,"12721 Newport Avenue, Suite 2","Tustin, California",United States,92780,33.7397,-117.8136,#442c5c
"Bellezza Laser Aesthetics, PLLC",Accent,"2470 Patterson Road, Suite 8","Grand Junction, Colorado",United States,81505,39.0667,-108.5667,#442c5c
"Bellina / Vanguard Medical, Inc",Accent,9619 N. Hayden Rd #115,"Scottsdale, Arizona",United States,85258,33.5,-111.9333,#442c5c
Belo Skin Care Clinic- CLOSED,Accent,1160 N. Central Ave. Ste. 201,"Glendale, California",United States,91202-3063,34.1481,-118.2464,#442c5c
Benchmark Pulmonary Center,Accent,844 Central Blvd,"Brownsville, Texas",United States,78520,25.9303,-97.4844,#442c5c
Bengtson Center for Aesthetics and Plastic Surgery,Accent,2155 E Paris Ave SE #100,"Grand Rapids, Michigan",United States,49546,42.9655,-85.6702,#442c5c
Beri Esthetique,Accent,3200 Sunset Avenue - Suite 107,"Ocean Township, Monmouth County, New Jersey",United States,7712,40.2544,-74.0319,#442c5c
"Bernstein, Benjamin MD",Accent,18 Hickory Knoll Ct,"Luthersville, Georgia",United States,21093,33.2102,-84.7448,#442c5c
Best Self,Accent,6751 Eagle Ridge Boulevard,"Lakeland, Florida",United States,33813,28.0442,-81.949,#442c5c
Beverly Hills Skin Care,Accent,6501 Foothill Blvd Suite 202,"Sunland-Tujunga, Los Angeles",United States,91042,34.2522,-118.2875,#442c5c
Beyond Aesthetics,Accent,7617 Little River Turnpike #900,"Annandale, Virginia",United States,22003,38.8342,-77.2114,#442c5c
Beyond Beauty Brow Bar,Accent,"16564 Cleveland St","Redmond, Washington",United States,98052,47.6749,-122.124,#442c5c
BFANCY,Accent,34 Glenmanor Way,"Thornhill, Ontario",Canada,L4J 3E5,43.8159,-79.4263,#442c5c
Bi Yu Tang Inc.,Accent,1177 Central Parkway West ,Mississauga,Canada,L5C 4P3,43.6,-79.65,#442c5c
"Bibicheff, Karina MD",Accent,"Vita Ageless Medical Aesthetic","Old Brookville, New York",United States,11545,40.8291,-73.607,#442c5c
Bio International Hair and Skin Clinic BC Limited - Richmond,Accent,5266 Grimmer St,Burnaby,Canada,V5H 2H2,49.2432,-122.9742,#442c5c
Bio International Laser Clinic Langley Inc,Accent,20019 83A Avenue,"Langley, British Columbia",Canada,V2Y 2A7,49.0813,-122.6428,#442c5c
Bio Vital Mens Clinic,Accent,3808 Auburn Boulevard #41,"Sacramento, California",United States,95821,38.5556,-121.4689,#442c5c
BioBalance Health,Accent,851 North Spoede Road Suite 100,"Creve Coeur, Missouri",United States,63141,38.6672,-90.4425,#442c5c
BioEdge Medical,Accent,9327 Fairway View Place,"Rancho Cucamonga, California",United States,91730,34.1233,-117.5794,#442c5c
BioSkin,Accent,P.O. Box 3239,"Sugar Land, Texas",United States,77487,29.5971,-95.621,#442c5c
BioSkin Laser,Accent,105 E 37th Ste 2,New York City,United States,10016,40.713,-74.0072,#442c5c
BioWell,Accent,"218 Rhett Ave SW","Huntsville, Alabama",United States,35801-4535,34.7295,-86.5853,#442c5c
Birmingham Skin and Hair Aesthetics,Accent,751 Chestnut St. STE 102,"Birmingham, Michigan",United States,48009,42.5467,-83.2114,#442c5c
Biz Medspa,Accent,42650 Christy Street #200,"Fremont, California",United States,94538,37.5483,-121.9886,#442c5c
Bladed Inc,Accent,1500 W. Oak St. #500,"Zionsville, Indiana",United States,46077,39.9503,-86.2669,#442c5c
"Blessings By Design, LLC",Accent,"105 Ridgecrest Avenue Street, STE 3B","Nixa, Missouri",United States,65714,37.0453,-93.2989,#442c5c
"Bloch, Steven MD",Accent,1160 Park Avenue W,"Highland Park, Illinois",United States,60035,42.1825,-87.8069,#442c5c
Bloom Med Spa,Accent,5725 Oleander,"Wilmington, North Carolina",United States,28403,34.2233,-77.9122,#442c5c
Blooming Lemon Wellness and Aesthetics,Accent,471 Fremont road #4,"Laramie, Wyoming",United States,82072,41.3167,-105.5833,#442c5c
Blue Water Surgical Center Ltd.,Accent,704 Mara Street Suite 106,"Point Edward, Ontario",Canada,N7V 1X4,42.9931,-82.4083,#442c5c
Body Beautiful,Accent,3303 47th Ave,"Kenosha, Wisconsin",United States,53144,42.5822,-87.8456,#442c5c
"Body Beautiful Laser Medi Spa dba The New Crossroads, LLC",Accent,5200 Washington Ave,"Racine, Wisconsin",United States,53406,42.7261,-87.8058,#442c5c
Body Beautiful Medi-Spa And Salon,Accent,108 East Main Street,"Whiteville, North Carolina",United States,28472,34.33,-78.7044,#442c5c
Body Concepts Health Spa,Accent,"2711 N Loop 1604 W",San Antonio,United States,78258,29.4167,-98.5,#442c5c
Body del Sol,Accent,1648 E Herndon Ave,"Fresno, California",United States,93720,36.7317,-119.7859,#442c5c
Body Essence LLC,Accent,20 Bobby's Way #104,"Washington, Virginia",United States,24401,38.7135,-78.1598,#442c5c
Body Lounge Park Cities,Accent,6805 Hillcrest Ave Suite 208,Dallas,United States,75205,32.7758,-96.7967,#442c5c
Body Sculpting Center,Accent,2255 N. Scottsdale Rd,"Scottsdale, Arizona",United States,85257,33.5,-111.9333,#442c5c
Body Sculpting Center,Accent,1378 Freeport Road  Suite 2A,Pittsburgh,United States,15238,40.4422,-79.995,#442c5c
"Body Trends The Electro Spa, LLC",Accent,8603 S. Western,Oklahoma City,United States,73170,35.4822,-97.535,#442c5c
"Bodysculpt and Refining Equipment, LLC",Accent,930 E Warner Rd,"Chandler, Arizona",United States,85225,33.3023,-111.8401,#442c5c
"Boise Image Enhancement Centre, Inc.",Accent,9382 W. Overland Road,"Boise, Idaho",United States,83709,43.6158,-116.2016,#442c5c
Bonakdar Aesthetics,Accent,"20321 Irvine Avenue, Suite F3","Newport Beach, California",United States,92660,33.6167,-117.8975,#442c5c
Boro Park Med Spa LLC,Accent,5211 15th Ave,Brooklyn,United States,11219-1460,40.6925,-73.991,#442c5c
"Boss, William K., MD",Accent,20 Prospect Avenue # 600,"Hackensack, New Jersey",United States,7601,40.8894,-74.0457,#442c5c
Boston Dermatology and Cosmetic Surgery Center,Accent,Boston Dermatology & Cosmetic Surgery Center,"Brookline, Massachusetts",United States,2445,42.3317,-71.1217,#442c5c
Boteya USA International Inc.,Accent,5 Arctic Ct,"Farmingville, New York",United States,11738,40.8425,-73.0436,#442c5c
"Bottone, Robert M.D.",Accent,156 Cherry Street,"New Canaan, Connecticut",United States,6840,41.1468,-73.4949,#442c5c
Boudreaux Dental Group LLC,Accent,175 Lee Street,"Lumberton, Texas",United States,77657,30.2639,-94.2019,#442c5c
"Bouret, Lissette, M.D.",Accent,"295 Palmas Inn Way, PMB 109","Humacao, Puerto Rico",United States,791,18.1497,-65.8275,#442c5c
"Brent Moelleken, MD",Accent,120 South Spalding Drive #110,"Beverly Hills, California",United States,90212,34.0803,-118.4047,#442c5c
Breslow Center for Plastic Surgery,Accent,1 West Ridgewood Ave.,"Paramus, New Jersey",United States,7652,40.9473,-74.071,#442c5c
Brickell Cosmetic Center and Spa,Accent,1913 Southwest 3rd Avenue,Miami,United States,33129,25.7751,-80.1947,#442c5c
Bridgeport Laser and Wellness Center,Accent,7180 SW Hazelfern Rd,"Tigard, Oregon",United States,97224-7762,45.4264,-122.7662,#442c5c
"Britt-Kimmins, Allison MD",Accent,Chadds Ford Dermatology,"Glen Mills, Pennsylvania",United States,19342,39.9195,-75.4914,#442c5c
"Brodd And Sandmon Laser, LLC. DBA Rejuvenate Medi-Spa",Accent,1411 Boulder Ct.,"Hudson, Wisconsin",United States,54016,44.9792,-92.7571,#442c5c
"Broder, Lawrence MD",Accent,351 Cypress Creek RD #204,"Cedar Park, Texas",United States,78613,30.5067,-97.8303,#442c5c
"Brookridge Internal Medicine Associates, PA",Accent,300 N 3rd St.,"Longview, Texas",United States,75601-6505,32.4946,-94.7423,#442c5c
"Brooks, Don",Accent,2403 N Broadway St. Ste D,"Poteau, Oklahoma",United States,74953,35.0586,-94.63,#442c5c
Bruce Sanderson MD,Accent,"500 S. University, Suite 701","Little Rock, Arkansas",United States,72205,34.7361,-92.3311,#442c5c
Brunswick Internal Medicine Group,Accent,3270 NJ-27 #1300,"Kendall Park, New Jersey",United States,8824,40.4134,-74.5625,#442c5c
Buckhead Plastic Surgery,Accent,183 Mystic Pl NE,Atlanta,United States,30342-2520,33.7485,-84.3915,#442c5c
"Bulan, Erwin M.D.",Accent,75 Main Street,"Millburn, New Jersey",United States,7041,40.7245,-74.3044,#442c5c
Burbank Plastic Surgery Center,Accent,2301 West Alameda Avenue,"Burbank, California",United States,91506,34.1821,-118.3075,#442c5c
Burlington Medical Aesthetics,Accent,"1900 Appleby Line","Burlington, Ontario",Canada,L7L 0B7,43.325,-79.8,#442c5c
Calabasas Dental Spa,Accent,4937 Las Virgenes Rd # 203,"Calabasas, California",United States,91302,34.1512,-118.6498,#442c5c
Calabasas Dermatology Center,Accent,23501 Park Sorrento STE 216,"Calabasas, California",United States,91302,34.1512,-118.6498,#442c5c
Calgary Vein Laser,Accent,515-10333 Southport Road SW,Calgary,Canada,T2W 3X6,51.0473,-114.058,#442c5c
Calidora Skin Clinic,Accent,999 N Northlake Way,Seattle,United States,98103,47.6032,-122.3303,#442c5c
Calidora Skin Clinics,Accent,999 N. Northlake Way,Seattle,United States,98103,47.6032,-122.3303,#442c5c
"Calidora Skin Clinics, Inc - El Segundo",Accent,999 N. Northlake Way,Seattle,United States,98103,47.6032,-122.3303,#442c5c
"Calidora Skin Clinics, Inc - Marina Del Rey",Accent,999 N Northlake Way,Seattle,United States,98103,47.6032,-122.3303,#442c5c
Calm Waters Day Spa,Accent,37 Whitbread Ave,"Bolton, Ontario",Canada,L7E 1L7,43.8972,-79.7381,#442c5c
"Calvert Enterprises, Inc.",Accent,1048 Irvine Avenue,"Newport Beach, California",United States,92660-4602,33.6167,-117.8975,#442c5c
Calvert Rejvenations,Accent,485 Carlisle Drive,"Herndon, Virginia",United States,20170-5602,38.9697,-77.3839,#442c5c
Canmore Medical Clinic,Accent,901 B Main Street,"Canmore, Alberta",Canada,T1W 2B4,51.0837,-115.368,#442c5c
Caravel Health DPC,Accent,"1467 Ford Street","Redlands, California",United States,92373,34.0547,-117.1825,#442c5c
Cardinal Age Management Medicine Institute,Accent,4721 D Sunset Blvd,"Lexington, South Carolina",United States,29072,33.9811,-81.2308,#442c5c
Cardiovascular Institute of the Shoals,Accent,2095 Florence Boulevard,"Florence, Alabama",United States,35630,34.8203,-87.6628,#442c5c
Caren Kalisch RN  -,Accent,12 Greenville Street - Unit 106,"Greenwich, Connecticut",United States,6831,41.0389,-73.6136,#442c5c
"Carlo Honrado, MD",Accent,"2080 Century Park East, Suite 1701",Los Angeles,United States,90067,34.0522,-118.2433,#442c5c
Carole Roose,Accent,303 chemin de la Grande Cote,Rosemère,Canada,J7A 2X5,45.6369,-73.8,#442c5c
Carole Sauignac,Accent,22 Place De Chatenois,"Lorraine, Quebec",Canada,J6Z 4K3,45.6833,-73.7833,#442c5c
Casbah Day Spa,Accent,2970 King George Blvd.,"Surrey, British Columbia",Canada,V4P 1A2,49.1046,-122.8235,#442c5c
Cash Medical Clinic,Accent,3226 W Alberta Road,"Edinburg, Texas",United States,78539,26.3042,-98.1639,#442c5c
Cassileth Mueller Cosmetic Medicine,Accent,"436 N. Bedford Drive, Ste 103","Beverly Hills, California",United States,90210,34.0803,-118.4047,#442c5c
Cassileth Plastic  Surgery,Accent,"436 N Bedford Dr #103,","Beverly Hills, California",United States,90210,34.0803,-118.4047,#442c5c
Cassis Dermatology And Aesthetic Center,Accent,"9301 DAYFLOWER ST, SUITE 100","Prospect, Kentucky",United States,40059,38.3446,-85.5964,#442c5c
Catania Hospitality Group-Cape Codder Resort And Spa,Accent,141 Falmouth Road,"Hyannis, Massachusetts",United States,2601,41.6528,-70.2833,#442c5c
Cedars Sinai Medical Group,Accent,200 N Robertson Blvd STE 202,"Beverly Hills, California",United States,90211,34.0803,-118.4047,#442c5c
Cedars-Sinai Medical Care Foundation,Accent,"8501 Wilshire Blvd., #140","Beverly Hills, California",United States,90211,34.0803,-118.4047,#442c5c
Celestial Rejuvenation,Accent,209 7159 stride Ave,Burnaby,Canada,V3n1t8,49.2432,-122.9742,#442c5c
Center for Dermatology and Laser Surgery,Accent,"9427 SW Barnes Road, Ste 495","Portland, Oregon",United States,97225,45.52,-122.6819,#442c5c
Center for Skin Wellness,Accent,6771 Professional Pkwy W Suite 203,"Sarasota, Florida",United States,34240,27.3372,-82.5353,#442c5c
Center For True Harmony Wellness & Medicine,Accent,2152 S Vineyard STE,"Mesa, Arizona",United States,85210,33.4152,-111.8315,#442c5c
Central Park South Dermatology,Accent,200 Central Park South #108,New York City,United States,10019,40.713,-74.0072,#442c5c
Centre de Sante du Corps et Ame,Accent,192 Fraser,Rivière-du-Loup,Canada,G5R 1C8,47.8378,-69.5391,#442c5c
Centro Clinico,Accent,32 Hine Street Suite 103,"Paterson, New Jersey",United States,7503,40.9147,-74.1628,#442c5c
"Chang, Areia MD",Accent,"5030 Camino De La Siesta, Suite 101",San Diego,United States,92108,32.715,-117.1625,#442c5c
"Charles K Dahlgren, MD Corp",Accent,"1995 Errecart Blvd., Suite 109","Elko, Nevada",United States,89801,40.8333,-115.7667,#442c5c
Charles Medical Group,Accent,"200 Glades Rd","Boca Raton, Florida",United States,33432,26.3686,-80.1,#442c5c
Charleston Medical Spa,Accent,1950 Maybank Highway STE A,"Charleston, South Carolina",United States,29412,32.7831,-79.9344,#442c5c
Chelan Valley Skincare,Accent,131 South Apple Blossom Drive,"Chelan, Washington",United States,98816,47.8428,-120.0214,#442c5c
"Chemical Dependency Treatment Associates, Inc",Accent,805 University Avenue,"Sacramento, California",United States,95825,38.5556,-121.4689,#442c5c
"Chiropractic Wellness Center, LLC",Accent,4301 E 31st,"Tulsa, Oklahoma",United States,74135,36.1314,-95.9372,#442c5c
Chisholm and Smith Medical Wellness Center,Accent,4125 Austin Ave. St A,"Waco, Texas",United States,76710,31.5568,-97.13,#442c5c
"Chiu J. Yuan, M.D.",Accent,475 N. First St.,"San Jose, California",United States,95112,37.3333,-121.9,#442c5c
Chocolat'  Med Spa,Accent,509 7th St.,"Santa Rosa, California",United States,95401,38.4486,-122.7047,#442c5c
"Christopher Nguyen Do, M.D., A Professional Corp.",Accent,1569 Lexann Avenue,"San Jose, California",United States,95121,37.3333,-121.9,#442c5c
Chronic Conditions of SLO,Accent,"628 California Blvd","San Luis Obispo, California",United States,93401,35.2742,-120.6631,#442c5c
"Chrysalis, Inc",Accent,522 Alabama St,"Bristol, Tennessee",United States,37601,36.5691,-82.1975,#442c5c
Ciao Bella Med Spa,Accent,"5575 Frisco Square Blvd","Frisco, Texas",United States,75034-3309,33.1414,-96.8131,#442c5c
Ciao Bella Medical Center and Spa,Accent,175 Jefferson Parkway,"Newnan, Georgia",United States,30263,33.3764,-84.7886,#442c5c
Cinderella Beauty,Accent,406-4603 Kingsway,Burnaby,Canada,V5H 4M4,49.2432,-122.9742,#442c5c
"Cirillo Cosmetic Dermatology Spa, LLC",Accent,648 Broad Acres Rd,"Penn Valley, Pennsylvania",United States,19072,40.0223,-75.2613,#442c5c
CK2 Beauty Skin Care Center Inc.,Accent,5524 7th Ave,Brooklyn,United States,11220,40.6925,-73.991,#442c5c
Clear Sky Medical,Accent,9085 E Mineral Circle,"Centennial, Colorado",United States,84111,39.5964,-104.8439,#442c5c
Cleopatra Lasermed and Massage,Accent,152 Cleopatra Dr,Ottawa,Canada,K2G 5X2,45.4204,-75.6924,#442c5c
Cleveland Health Group,Accent,"6571 Brecksville Rd","Independence, Ohio",United States,44131-4849,41.3819,-81.6408,#442c5c
Clinic of Obstetrics And Gynecology,Accent,"8905 W Lincoln Ave","West Allis, Wisconsin",United States,53227-2468,43.0081,-88.0183,#442c5c
Clinique de dermatlogie esthetique de Montreal,Accent,"2040 Marcel-Laurin Blvd., Suite 260",Montreal,Canada,H4R 1J9,45.5091,-73.5534,#442c5c
Clinique dentaire Raymond,Accent,"1797 Route du Carrefour",Val-des-Monts,Canada,J8N 7M7,45.65,-75.6667,#442c5c
Clinique Dermato Laser,Accent,1265 boul Saint-Jean-Baptiste,Pointe-aux-Trembles,Canada,H1B 4A2,45.6413,-73.49,#442c5c
Clinique Esthederma Laser Inc.,Accent,1 Place Du Commerce,"Verdun, Quebec",Canada,H3E 1A2,45.4619,-73.5671,#442c5c
Clinique of Plastic Surgery,Accent,240 1st. Street Ave. South,"St. Petersburg, Florida",United States,33701-4316,27.7731,-82.64,#442c5c
Clinique Plenitude,Accent,23 Rue Cate,Sherbrooke,Canada,J1J 2N9,45.4,-71.9,#442c5c
"Clinton Plastic Surgery, LLC",Accent,"7191 Cahaba Valley Road, Suite 200","Birmingham, Alabama",United States,35242-6402,33.525,-86.813,#442c5c
Clovis Laser Center,Accent,255 W. Bullard Ave,"Clovis, California",United States,93612-0861,36.8253,-119.7031,#442c5c
Club Medica Aesthetics Inc.,Accent,36 Timberland Drive,"Woodbridge, Ontario",Canada,L4H 1Y1,43.7791,-79.5961,#442c5c
Coastal Aesthetics,Accent,1537 US Route 1,"Cape Neddick, Maine",United States,03902-7432,43.1735,-70.6121,#442c5c
"Coastal Dermatology, P.C.",Accent,55 Willow Street,"Mystic, Connecticut",United States,06355-2636,41.3557,-71.9656,#442c5c
Coastal Esthetics And Wellness,Accent,3421 N. 12th Ave,"Pensacola, Florida",United States,32503-4008,30.4069,-87.2176,#442c5c
Coastal Eye Associates PLLC,Accent,555 E. Medical Center Blvd,"Webster, Texas",United States,77598-4367,29.5386,-95.1194,#442c5c
Colair Beauty Lounge and Medspa,Accent,1440 S Higley Rd,"Gilbert, Arizona",United States,85296,33.35,-111.7892,#442c5c
"Coletta, Nina DPM Podiatry",Accent,8844 W. State Rd. 84,"Davie, Florida",United States,33324,26.0814,-80.2803,#442c5c
Collagen Aesthetics,Accent,110 East Main Street,"Flushing, Michigan",United States,48433,43.0631,-83.8511,#442c5c
Collective Beauty Salon And Spa,Accent,380 E Main St,"Westfield, Indiana",United States,46074-8924,40.0427,-86.1297,#442c5c
Colorado Ophthalmology and Cosmetics,Accent,10099 RidgeGate Pkwy,"Lone Tree, Colorado",United States,80124,39.5489,-104.8925,#442c5c
Colorado West Med Spa,Accent,2530 North 8th Street # 203,"Grand Junction, Colorado",United States,81501,39.0667,-108.5667,#442c5c
Columbus Integrative Family Medicine Center,Accent,453 Waterbury Ct,"Columbus, Ohio",United States,43230,39.9833,-82.9833,#442c5c
Comfort Laser Clinic,Accent,18587 Brookhurst St,"Fountain Valley, California",United States,92708,33.7107,-117.9457,#442c5c
Community Dermatology,Accent,"845 Sir Thomas Ct., Suite 1","Harrisburg, Pennsylvania",United States,17109-4843,40.2697,-76.8756,#442c5c
Compass Cellular Healing,Accent,4525 Harding Pike,"Nashville, Tennessee",United States,37205-2120,36.1667,-86.7833,#442c5c
Complete family Care,Accent,"2500 W 4th St, STE 6","Wilmington, Delaware",United States,19805,39.7458,-75.5467,#442c5c
"Complete Health Care Service, Inc",Accent,315 W. Houston St,"Jasper, Texas",United States,75951,30.9222,-93.9989,#442c5c
Complete Laser Clinic*,Accent,3114 E Burma Rd.,"Nebo, North Carolina",United States,28761,35.7107,-81.9297,#442c5c
Comprehensive Family Medical,Accent,"100 Craig Road, Unit 110","Manalapan Township, New Jersey",United States,7726,40.3062,-74.3755,#442c5c
Comprehensive Family Medicine,Accent,205 Medical Circle,"West Columbia, South Carolina",United States,29169,33.988,-81.0729,#442c5c
Comprehensive Health Center,Accent,41 East 8th Streat,Chicago,United States,60605,41.8832,-87.6324,#442c5c
Concentrek Account Test2,Accent,12345 Somewhere St,"Toledo, Ohio",United States,43604,41.6656,-83.5753,#442c5c
Concorde Medical Group,Accent,316 East 30th Street,New York City,United States,10016,40.713,-74.0072,#442c5c
"Connorabby, LLC",Accent,755 Telshor Blvd. C 202,"Las Cruces, New Mexico",United States,88011,32.3144,-106.7789,#442c5c
"Contour Medical, LLC",Accent,3345 S. Val Vista Road #103,"Gilbert, Arizona",United States,85297-7331,33.35,-111.7892,#442c5c
Corwin Thomas Cardiology,Accent,802 E Farrel Rd.,"Lafayette, Louisiana",United States,70508,30.2213,-92.0188,#442c5c
"Cosmedic Infusion, PC",Accent,Dr. Nicholas Busillo,"Drexel Hill, Pennsylvania",United States,19026,39.9495,-75.3074,#442c5c
Cosmedica,Accent,1 Rue Holiday,Pointe-Claire,Canada,H9R 5N3,45.45,-73.8167,#442c5c
Cosmedx Comfort,Accent,45 Central Ave,"Tenafly, New Jersey",United States,7670,40.9272,-73.9668,#442c5c
Cosmetic and Wellness Associates of Naples,Accent,1250 Pine Ridge Road,"Naples, Florida",United States,34108,26.15,-81.8,#442c5c
"Cosmetic Care Center, LLC",Accent,4100 West 50th Street,"Edina, Minnesota",United States,55424,44.9105,-93.3487,#442c5c
Cosmetic Care Clinic-Brantford,Accent,205-207 Brant Avenue,Brantford,Canada,N3T 3J1,43.1394,-80.2636,#442c5c
Cosmetic Enhancement Center of New England,Accent,1375 Congress Street,"Portland, Maine",United States,4102,43.6592,-70.2565,#442c5c
Cosmetic Health And Laser Center of Opelousas,Accent,P.O. Box 84664,"Baton Rouge, Louisiana",United States,70884,30.4495,-91.0934,#442c5c
Cosmetic Laser Center,Accent,2611 Harrison Street #700,"Wichita Falls, Texas",United States,76308-1361,33.9098,-98.5009,#442c5c
Cosmetic Laser Vein Centre,Accent,1504 - 15th Avenue SW,Calgary,Canada,T3C 0X9,51.0473,-114.058,#442c5c
"Cosmetic Surgery Associates, Inc",Accent,"1063 E. Main Street, #225","Wailuku, Hawaii",United States,96793,20.8919,-156.5022,#442c5c
Couture Dermatology And Plastic Surgery,Accent,2615 Box Canyon Drive,Las Vegas,United States,89128,36.1691,-115.1406,#442c5c
Creations In Skin Care Inc.,Accent,12608 97 Ave,"Surrey, British Columbia",Canada,V3V 2E9,49.1046,-122.8235,#442c5c
"Crowley, McKay B MD",Accent,1450 Thornhill Ln,"Winston-Salem, North Carolina",United States,27106,36.1028,-80.2605,#442c5c
Culture Grooming Lounge,Accent,2419 11th Avenue,"Regina, Saskatchewan",Canada,S4P 0K4,50.4547,-104.6067,#442c5c
"CuraMed, LLC",Accent,"Goldfarb, Richard MD & Falcone Vickie MD","Cherry Hill, New Jersey",United States,8034,39.9046,-74.997,#442c5c
Cypress Medical Clinic,Accent,"12344 Barker Cypress, Suite 150","Cypress, Texas",United States,77429,29.9733,-95.6873,#442c5c
D.R. Laser,Accent,1949 E. Bart St,"Gilbert, Arizona",United States,85295,33.35,-111.7892,#442c5c
Da Vinci Medical Management,Accent,1840 Anderson Mill Rd,"Austell, Georgia",United States,30106,33.8132,-84.6347,#442c5c
Dakouny Internal Medicine,Accent,"3400 Tamiami Trail, Ste 104","Port Charlotte, Florida",United States,33952,26.9819,-82.1011,#442c5c
"Dallas Associated Dermatologists, P.A.",Accent,"5924 Royal Lane, Suite 208",Dallas,United States,75230,32.7758,-96.7967,#442c5c
Dallas Men's Health,Accent,6021 Van Horn Lane,"Frisco, Texas",United States,75034,33.1414,-96.8131,#442c5c
"Dan L. Bennett, MD, P.C.",Accent,4601 W. 109th Ste 340,"Overland Park, Kansas",United States,66211,38.9822,-94.6708,#442c5c
Danesh Dermatology and Laser Surgery,Accent,240 S LA CIENEGA BLVD STE 400,"Beverly Hills, California",United States,90211,34.0803,-118.4047,#442c5c
Daniels Group,Accent,33 Overlook Rd Ste 403,"Summit, New Jersey",United States,7901,40.7156,-74.3647,#442c5c
Danyo and Gillespie Plastic Surgery,Accent,4001  Kennett Pike Ste 234,"Greenville, Delaware",United States,19807,39.775,-75.5967,#442c5c
Dao Medical Group- Dep Aesthetics Institute,Accent,9191 Westminster Avenue Suite 203,"Garden Grove, California",United States,92844,33.7789,-117.9603,#442c5c
Dardur Gynecology,Accent,19150 Kedzie Ave STE 100,"Homewood, Illinois",United States,60430,41.5572,-87.6656,#442c5c
"Darryl W. Hein, MD",Accent,15215 National Ave. Suite 200,"Los Gatos, California",United States,95032,37.2361,-121.9617,#442c5c
"David K. Funt, MD",Accent,19 Irving Place,"Woodmere, New York",United States,11598,40.6361,-73.7194,#442c5c
David W. Spinks,Accent,3350 Fairview St.,"Pasadena, Texas",United States,77504-1904,29.6761,-95.1739,#442c5c
"Davilla, David MD",Accent,12814 Willow Centre Dr.,Houston,United States,77066,29.7628,-95.3831,#442c5c
Dawn Campbell,Accent,7352 New Burns Place,"New Port Richey, Florida",United States,34655,28.2489,-82.7178,#442c5c
De La Mer Salon,Accent,2437 Merrick Road,Bellmore,United States,11710,40.6611,-73.5378,#442c5c
"DEAD - Morphosis, LLC-DEAD",Accent,5353 Almaden Expressway,"San Jose, California",United States,95118,37.3333,-121.9,#442c5c
Deborah Longwill MD,Accent,7700 Southwest 104th Street,"Pinecrest, Florida",United States,33156,25.6667,-80.3,#442c5c
"Deborah Schultz, M.D.",Accent,201 Flamingo Drive,"Apollo Beach, Florida",United States,33572,27.7719,-82.4108,#442c5c
Decatur Internal Medicine and Aesthetics,Accent,2506 Danville Rd SW Suite 101,"Decatur, Alabama",United States,35603,34.6058,-86.9833,#442c5c
Dee Schore,Accent,5319 Willis Ave,Dallas,United States,75206,32.7758,-96.7967,#442c5c
Defying Time Med Spa,Accent,5011 E Interstate 20 Service Rd S,"Willow Park, Texas",United States,76087-3219,32.7539,-97.65,#442c5c
"Deirdre McMullen, M.D.",Accent,3281 Rocky Creek Dr,"Missouri City, Texas",United States,77459,29.5828,-95.5394,#442c5c
Del Mar Medical Cosmetic Centers,Accent,12845 Pt Del Mar Way # 100,"Del Mar, California",United States,92014,32.955,-117.2639,#442c5c
Dennis E. Robinson DO dba Marshfield Family Clinic,Accent,487 Pomme De Terre Dr.,"Marshfield, Missouri",United States,65706-2386,37.3373,-92.9063,#442c5c
Derma Med Advanced Medical Ctr.,Accent,1303 South Linden Rd. #F,"Flint, Michigan",United States,48532,43.0099,-83.6851,#442c5c
Derma Medical Spa Olympia,Accent,3025 Limited Lane NW,"Olympia, Washington",United States,98502,47.0425,-122.8931,#442c5c
Derma Naissance,Accent,Suite 200 116 Rue Principale,"Granby, Quebec",Canada,J2G 2V2,45.3985,-72.7231,#442c5c
Dermace Advanced Skin Care Clinic,Accent,"6633 Highway 7 East, Suite # 303","Markham, Ontario",Canada,L3P 7P2,43.8833,-79.25,#442c5c
DermaContour,Accent,"1181 Hunt Club Rd",Ottawa,Canada,K1V 8S4,45.4204,-75.6924,#442c5c
Dermaferme,Accent,1575 Boulevard de L'Avenir,"Laval, Quebec",Canada,H7S 2N5,45.5833,-73.75,#442c5c
Dermagnify,Accent,"100 Executive Way","Ponte Vedra Beach, Florida",United States,32082,30.2428,-81.3828,#442c5c
Dermalaser Esthetic Mecical Clinic,Accent,79 Sackville Street,Shediac,Canada,E4P 2R1,46.2167,-64.5333,#442c5c
Dermaniche Inc,Accent,"6435 Erin Mills Parkway",Mississauga,Canada,L5N 4H4,43.6,-79.65,#442c5c
Dermaskin,Accent,136 Rue St Louis,"Saint-Eustache, Quebec",Canada,J7R 1Y2,45.5735,-73.8728,#442c5c
Dermatology and Aesthetics of Wicker Park,Accent,"1455 N. Milwaukee Ave, 2nd Floor",Chicago,United States,60622,41.8832,-87.6324,#442c5c
Dermatology and Dermatological Surgery,Accent,5045 US Hwy 130 South # C,"Delran Township, New Jersey",United States,8075,40.013,-74.9474,#442c5c
Dermatology And Laser Surgery in New York,Accent,955 Park Avenue,New York City,United States,10028,40.713,-74.0072,#442c5c
Dermatology Associates of Oxford,Accent,705 Sisk Ave,"Oxford, Mississippi",United States,38655-3413,34.3597,-89.5261,#442c5c
Dermatology Care of Alabama,Accent,4960 Rice Mine Rd Ne,"Tuscaloosa, Alabama",United States,35404,33.2065,-87.5346,#442c5c
Dermatology Institute,Accent,"256 Landis Ave, 3rd Floor","Chula Vista, California",United States,91910-2650,32.6401,-117.084,#442c5c
Dermatology Institute of S Florida,Accent,200 Capri Isles Blvd Ste 7d,"Venice, Florida",United States,34292,27.1,-82.4333,#442c5c
Dermatology Laser Center And Spa,Accent,1605 Redwood Rd,"San Marcos, Texas",United States,78666,29.8821,-97.94,#442c5c
Dermbar Medspa,Accent,85 Declaration Drive,"Chico, California",United States,95973,39.74,-121.8356,#442c5c
Dermelite,Accent,381 Kent Street Suite 508,Ottawa,Canada,K2P 2A8,45.4204,-75.6924,#442c5c
DermFX,Accent,16501 Pacific Coast Hwy,"Sunset Beach, California",United States,90742,33.7163,-118.0695,#442c5c
Desert Bloom Healthcare,Accent,1173 S 250 W,"St. George, Utah",United States,84770,37.0953,-113.5781,#442c5c
"DeShawndranique Gray, OBGYN",Accent,"7999 W. Virginia Drive, Suite C.",Dallas,United States,75237,32.7758,-96.7967,#442c5c
Desirable Skin,Accent,4532 East Lone Mountain Rd. Unit 107,"Cave Creek, Arizona",United States,85331,33.8322,-111.9519,#442c5c
Destino Bella,Accent,755 S. Telshor,"Las Cruces, New Mexico",United States,88011,32.3144,-106.7789,#442c5c
Devine Image Aesthetics,Accent,13132 Newport Avenue STE 200,"Tustin, California",United States,92780,33.7397,-117.8136,#442c5c
Diamond Springs Wellness Center,Accent,210 E Main St,"Midway, Utah",United States,84049,40.5144,-111.4772,#442c5c
Diamond State Primary Care,Accent,1400 Peoples Plaza,"Newark, Delaware",United States,19702,39.6792,-75.7581,#442c5c
Diego G. Allende A Medical Corp,Accent,6234 N First St,"Fresno, California",United States,93711,36.7317,-119.7859,#442c5c
"Divine Beauty Aesthetics, LLC",Accent,1000 White Rock Road,"El Dorado Hills, California",United States,95762,38.7025,-121.0824,#442c5c
Divine IV and Wellness,Accent,2231 E Pecos Rd #4,"Chandler, Arizona",United States,85225,33.3023,-111.8401,#442c5c
Divine Laser Spa,Accent,"55 Dusk Drive",Brampton,Canada,L6Y 5Z6,43.6833,-79.7667,#442c5c
DKLA,Accent,11159 Tampa Ave,"Northridge, Los Angeles",United States,91326,34.2283,-118.5358,#442c5c
DM Studio,Accent,"101 East Expressway 83, STE 180","McAllen, Texas",United States,78501,26.1967,-98.2357,#442c5c
"Dobry, Mary MD",Accent,"4765 Carmel Mountain Road, Suite 201",San Diego,United States,92130,32.715,-117.1625,#442c5c
Dr Beri DDS Pllc,Accent,46169 Westlake Dr.,"Sterling, Virginia",United States,20165,39.0061,-77.4286,#442c5c
Dr Joseph King,Accent,1217 Florida Dr ,"Arlington, Texas",United States,76015-2380,32.7356,-97.1071,#442c5c
Dr Matthew Barker,Accent,1100 N Kimball Ave Suite 130,"Southlake, Texas",United States,76092,32.9467,-97.1453,#442c5c
Dr Thomas Bellavia,Accent,288 Boulevard,"Hasbrouck Heights, New Jersey",United States,7604,40.8628,-74.0752,#442c5c
Dr. Ana Escura de Feltes,Accent,"45 W 132nd St",New York City,United States,10037,40.713,-74.0072,#442c5c
Dr. Claude Resil,Accent,599 Pleasant Street,"Brockton, Massachusetts",United States,2301,42.0833,-71.0189,#442c5c
Dr. Dusan Sajic Medicine Professional Corporation,Accent,107-89 Dawson Road,Guelph,Canada,N1H 1B1,43.5448,-80.2481,#442c5c
Dr. Gary M. Critser D.O.,Accent,1885 E Alluvial Ave Ste. 101,"Fresno, California",United States,93720,36.7317,-119.7859,#442c5c
Dr. Irv's Body Shop,Accent,2144 Lynden,"Highland Park, Illinois",United States,60035,42.1825,-87.8069,#442c5c
"Dr. J.J. Dubec MD, Inc.",Accent,4619 Napier Street,Burnaby,Canada,V5C 3H6,49.2432,-122.9742,#442c5c
Dr. Jacques Charbonneau,Accent,200 Rue Montcalm,Gatineau,Canada,J8Y 3B5,45.491,-75.6592,#442c5c
Dr. Janice Newsome,Accent,4023 River Park Drive,"Washington, Virginia",United States,23435,38.7135,-78.1598,#442c5c
Dr. John Cole,Accent,1070 Powers Place,"Alpharetta, Georgia",United States,30009,34.0733,-84.2811,#442c5c
Dr. John Farella,Accent,666 Lexington Avenue,"Mount Kisco, New York",United States,10549-3638,41.2078,-73.7272,#442c5c
Dr. John McGoff dba Med Spa 121,Accent,"121 Monument Circle",Indianapolis,United States,46204-2921,39.791,-86.148,#442c5c
Dr. Kochert Pain and Health,Accent,3218 Daugherty Dr STE 110,"Lafayette, Indiana",United States,47909,40.4173,-86.8906,#442c5c
Dr. Louis Bucky,Accent,200 West Montgomery Ave.,"Ardmore, Pennsylvania",United States,19003,40.0067,-75.2853,#442c5c
Dr. Louis Iorio,Accent,"5 Professional Circle, Suite # 107","Colts Neck Township, New Jersey",United States,07722-2429,40.2939,-74.1683,#442c5c
Dr. Mark Harter,Accent,237-A Longvue Drive,"Boone, North Carolina",United States,28607,36.204,-81.6694,#442c5c
Dr. Marlene Mash,Accent,545 West Germantown Pike,"Plymouth Meeting, Pennsylvania",United States,19462,40.1086,-75.2825,#442c5c
Dr. May-Ling Jang Lim Inc.,Accent,104-515 Main Street,Vancouver,Canada,V6A 2V1,49.2636,-123.1386,#442c5c
Dr. Mohan Cheema,Accent,158 Lockwood Ave.,"New Rochelle, New York",United States,10801,40.9286,-73.7842,#442c5c
Dr. Pamela Kennedy,Accent,1355 Thomaswood Drive,"Tallahassee, Florida",United States,32308,30.4407,-84.2783,#442c5c
Dr. Paul Glat,Accent,191 Presidential Blvd,"Bala Cynwyd, Pennsylvania",United States,19004,40.0093,-75.2309,#442c5c
Dr. Raja Nalluri,Accent,2100 South Tamiami Trail,"Sarasota, Florida",United States,34239,27.3372,-82.5353,#442c5c
Dr. Ronald Bush,Accent,44300 Monterey Ave.,"Palm Desert, California",United States,92260,33.7289,-116.3825,#442c5c
Dr. Ryan Novak,Accent,,"Burr Ridge, Illinois",United States,60527,41.7531,-87.92,#442c5c
Dr. Sivakumar Nagamuttu Medicine Professional Corporation,Accent,"9889 Markham Rd., Unit 8","Markham, Ontario",Canada,L6E 0B7,43.8833,-79.25,#442c5c
Dr. Solomon M. Yigazu,Accent,"800 Austin Street #269 ","Evanston, Illinois",United States,60202,42.0464,-87.6947,#442c5c
Dr. Stephanie Menes,Accent,6619 forest hill drive suite 30,"Forest Hill, Texas",United States,76140,32.6633,-97.2683,#442c5c
Dr. V. Sharon Jones,Accent,211 East Thompson Street,"Thomaston, Georgia",United States,30286-5411,32.8872,-84.3262,#442c5c
"Dr. Vimal Patel, MD DBA Mashpee Family Medicine",Accent,"5 Industrial Drive","Mashpee, Massachusetts",United States,2649,41.649,-70.4812,#442c5c
Dr. W.E. Furniss,Accent,"4800 NE Stallings Dr","Nacogdoches, Texas",United States,75965,31.6089,-94.6508,#442c5c
Drew Patrick Day Spa,Accent,128 West Main Street,"Bay Shore, New York",United States,11706,40.7297,-73.2536,#442c5c
DuPage Medical Group,Accent,1100 W 31st Street,"Downers Grove, Illinois",United States,60515-5512,41.7947,-88.0169,#442c5c
DVSP Management Inc.,Accent,17 Main St17 Main St,"Robbinsville (CDP), New Jersey",United States,8691,40.2183,-74.628,#442c5c
Dy Dermatology Center,Accent,"at Carillon Square","Glenview, Illinois",United States,60025,42.0794,-87.8156,#442c5c
East Valley Institute of Technology,Accent,1601 W. Main St.,"Mesa, Arizona",United States,85201,33.4152,-111.8315,#442c5c
Edgebrook Dermatology,Accent,1639 N. Alpine,"Rockford, Illinois",United States,61107-1440,42.2594,-89.0644,#442c5c
"Edward Tangchitnob, MD, Inc.",Accent,1135 South Sunset Ave STE 401,"West Covina, California",United States,91790,34.0567,-117.9186,#442c5c
"Edwin Choi, MD",Accent,4560 Beach Blvd. #B,"Buena Park, California",United States,90621,33.8628,-118.0025,#442c5c
EFFLORESSENCE,Accent,1126 boul. de Maisonneuve Est,Montreal,Canada,H2L 1Z5,45.5091,-73.5534,#442c5c
EK Esthétique Kristina,Accent,156 boul. Saint-Anne,Sainte-Anne-des-Plaines,Canada,J0N 1H0,45.7608,-73.8138,#442c5c
El Paso Mens Clinic,Accent,125 W Hague Rd,"El Paso, Texas",United States,79902,31.7903,-106.4233,#442c5c
Electrolysis and Co.,Accent,1420 North Greenfield Road,"Gilbert, Arizona",United States,85234,33.35,-111.7892,#442c5c
Eleganz Medical Spa,Accent,3970 W 24th St. #203,"Yuma, Arizona",United States,85364,32.7223,-114.6209,#442c5c
Elevate Medical Aesthetics and Wellness,Accent,413 Howard St,"Petoskey, Michigan",United States,49770,45.3733,-84.9553,#442c5c
Elite Family Medical Center,Accent,1183 E Foothill Blvd STE 135,"Upland, California",United States,91786,34.0999,-117.647,#442c5c
Elite Health,Accent,4302 Alton Road,"Miami Beach, Florida",United States,33140,25.813,-80.1341,#442c5c
Elite Medical Center,Accent,500 East Remington Dr Suite 20,"Sunnyvale, California",United States,94087,37.3711,-122.0375,#442c5c
Elite Medspa (formerly Beverly Hills Rejuvenation Center),Accent,7001 N Scottsdale Rd #164,"Scottsdale, Arizona",United States,85253,33.5,-111.9333,#442c5c
Elite Plastic Surgery,Accent,10910 Tatum Blvd #100,"Phoenix, Arizona",United States,85028,33.45,-112.0667,#442c5c
Elite Skin Center,Accent,3418 North Tarrant Pkwy,"Fort Worth, Texas",United States,76177,32.7499,-97.3303,#442c5c
Elite Solutions Inc.,Accent,124 Parkinson Crescent,"Orangeville, Ontario",Canada,L9W 6X3,43.9192,-80.0974,#442c5c
"Elkins, James P. MD",Accent,201 S 19th street,"Rogers, Arkansas",United States,72758,36.3294,-94.1414,#442c5c
Elsa's Esthetics,Accent,5000 New Street Unit #6,"Burlington, Ontario",Canada,L7L 1V1,43.325,-79.8,#442c5c
Emily's Medical Spa,Accent,230 Avocado Ave,"El Cajon, California",United States,92020,32.8009,-116.9614,#442c5c
Encompass Wellness and Aesthetics,Accent,910 NW 139th St. PKWY,"Edmond, Oklahoma",United States,73013,35.65,-97.4667,#442c5c
"Endocrine Clinic Of Louisiana, apmc",Accent,PO Box 53386,"Lafayette, Louisiana",United States,70505,30.2213,-92.0188,#442c5c
"Endoscopy Center of the North Shore, LLC",Accent,1732 Central St,"Evanston, Illinois",United States,60201,42.0464,-87.6947,#442c5c
"ENHANCE AESTHETICS & WELLNESS, P.L.L.C",Accent,324 S Main St,"Yuma, Arizona",United States,85364,32.7223,-114.6209,#442c5c
Enhance your Natural Beauty,Accent,1715 S. Morgan Road,Oklahoma City,United States,73128-7005,35.4822,-97.535,#442c5c
Enlighten MedSpa,Accent,4248 Town Center Blvd #4,"Orlando, Florida",United States,32837,28.5383,-81.3789,#442c5c
Enlightened Health Direct,Accent,"5901 South Cooper Street, Suite 101","Arlington, Texas",United States,76017,32.7356,-97.1071,#442c5c
ENT Specialists,Accent,4000 S 700 E Suite 10,Salt Lake City,United States,84107,40.75,-111.8833,#442c5c
EnteBella Medical,Accent,13090 N 94th Dr.,"Peoria, Arizona",United States,85381,33.5825,-112.2386,#442c5c
Envision Cosmetic Surgery,Accent,5417 S Commerce Dr STE 100,"Murray, Utah",United States,84107,40.6525,-111.8933,#442c5c
Envy Aesthetics Inc.,Accent,13158 Tecumseh Rd. East,"Windsor, Ontario",Canada,N8N 3T6,42.3141,-83.0369,#442c5c
Envy Clinic and Spa LLC,Accent,"5040 W US Highway 52, STE D","New Palestine, Indiana",United States,46163,39.7209,-85.8891,#442c5c
Envy Me Medi Spa,Accent,31 King St. Unit 3,Barrie,Canada,L4N 6B5,44.3893,-79.6855,#442c5c
Erikson Family Practice,Accent,1411 N. 1070 E.,"Shelley, Idaho",United States,83274,43.3831,-112.122,#442c5c
Ernest Khoury MD,Accent,5452 Glen Lakes Dr,Dallas,United States,75230,32.7758,-96.7967,#442c5c
Essence Aesthetics and Health,Accent,99 E Bremer Ave,"Waverly, Iowa",United States,50677-3317,42.7257,-92.4756,#442c5c
Essence Skin Clinic,Accent,1640 W Center St,"Rochester, Minnesota",United States,55902,44.0234,-92.463,#442c5c
Essentia Health-Fargo,Accent,1702 South University Drive,"Fargo, North Dakota",United States,58103,46.877,-96.7846,#442c5c
Essential Aesthetics and Laser,Accent,8145 Ardrey Kell Rd,"Charlotte, North Carolina",United States,28277,35.2238,-80.8411,#442c5c
Essential Beauty Med Spa,Accent,26730 Towne Centre Drive #202,"Foothill Ranch, California",United States,92610,33.6885,-117.6643,#442c5c
Esteem Medical Esthetics,Accent,"500 Manning Rd. Suite 4,","Tecumseh, Ontario",Canada,N8N 2L9,42.3167,-82.8862,#442c5c
Esthetica of San Diego,Accent,"12845 Pointe Del Mar Way","Del Mar, California",United States,92014,32.955,-117.2639,#442c5c
Esthetique Jade,Accent,11325 7e Av,"Saint-Georges, Quebec",Canada,G5Y 1J9,46.1202,-70.6732,#442c5c
Eternal Beauty Skin and Laser,Accent,20630 Stevens Creek Blvd,"Cupertino, California",United States,95117,37.3175,-122.0419,#442c5c
Eternity Laser,Accent,9332-127A St,"Surrey, British Columbia",Canada,V3V-6C7,49.1046,-122.8235,#442c5c
Ethos Med spa,Accent,89 Summit Ave,"Summit, New Jersey",United States,7901,40.7156,-74.3647,#442c5c
European Skincare Institute,Accent,6038 Camp Bowie Blvd,"Fort Worth, Texas",United States,76116,32.7499,-97.3303,#442c5c
EuroScape Spa,Accent,102-572 Stewart Ave,Nanaimo,Canada,V9K 1S9,49.1642,-123.9364,#442c5c
"Evan Saunders, MD",Accent,2901 W KK River Pkwy.,Milwaukee,United States,53215-3677,43.05,-87.95,#442c5c
Ever After Laser  Vitality,Accent,22 Meldrum,Kitimat,Canada,V8C 2L3,54,-128.7,#442c5c
Everest Medspa,Accent,1010 W Chester Pike,"Havertown, Pennsylvania",United States,19083,39.9763,-75.3117,#442c5c
Evergreen Laser Inc,Accent,3230 W 95th Street,"Evergreen Park, Illinois",United States,60805-2314,41.7226,-87.7031,#442c5c
Evolve 360 Salon and Medspa,Accent,"8400 Racing Lane, Unit B","Navarre, Florida",United States,32566,30.401,-86.863,#442c5c
Evolve Weight And Age Management,Accent,330 Mayfield Drive Ste C-4,"Franklin, Tennessee",United States,37067,35.9292,-86.8575,#442c5c
Express Med Urgent Care PLLC,Accent,19725 West 12 Mile Rd,"Southfield, Michigan",United States,48076,42.4733,-83.2219,#442c5c
"Eye Clinics of Illinois dba Ophthalmology Consultants of Illinois, SC",Accent,11845 SW Hwy Unit 12,"Palos Heights, Illinois",United States,60463,41.6653,-87.7972,#442c5c
FaceGym - SAKS,Accent,,New York City,United States,10022,40.713,-74.0072,#442c5c
FaceGym LLC - West Hollywood,Accent,8490 Sunset Blvd,"West Hollywood, California",United States,90069,34.0907,-118.3718,#442c5c
FaceGym NOHO - Broadway,Accent,,New York City,United States,10012,40.713,-74.0072,#442c5c
FaceGym Nordstrom,Accent,236 W 58th St,New York City,United States,10019,40.713,-74.0072,#442c5c
FaceGym NYC - 1427 2nd AVE,Accent,1427 2nd Ave,New York City,United States,10021,40.713,-74.0072,#442c5c
Facial Plastic And Laser Surgery,Accent,11326 R - North Trail Dr,"Dunlap, Illinois",United States,61525,40.8608,-89.6781,#442c5c
Facial Plastic Surgery,Accent,1838 Greene Tree Road #370,Baltimore,United States,21208,39.2833,-76.6167,#442c5c
Facial Techniques Ltd,Accent,8140 Walnut Hill Lane # 601,Dallas,United States,75231,32.7758,-96.7967,#442c5c
Family Health Care,Accent,1410 Brickyard Rd,"Chipley, Florida",United States,32428-5966,30.7792,-85.5392,#442c5c
Family Healthcare of Atlanta,Accent,1935 Howell Mill Rd. N.W.,Atlanta,United States,30318,33.7485,-84.3915,#442c5c
Family Laser And Dental,Accent,"7455 Cross County Rd,","North Charleston, South Carolina",United States,29418,32.8853,-80.0169,#442c5c
Family Physician of Columbus,Accent,"6801 River Road, Ste 301","Columbus, Georgia",United States,31904,32.4922,-84.9403,#442c5c
Farghaly Medical PLLC,Accent,3100 US 1 N,"St. Augustine, Florida",United States,32086,29.8947,-81.3144,#442c5c
Fast Clinical Weight Loss,Accent,10234 E Us Highway 36,"Avon, Indiana",United States,46123,39.7631,-86.3878,#442c5c
Fastrac Minor Emergency Clinic,Accent,PO BOX 2317,"Mount Pleasant, Texas",United States,75455,33.1578,-94.97,#442c5c
Fedok Plastic Surgery,Accent,113 E Fern Ave,"Foley, Alabama",United States,36535-2806,30.4056,-87.6815,#442c5c
FIELDS FAMILY CARE,Accent,96 Tara Commons Drive,"Loganville, Georgia",United States,30052,33.8389,-83.8981,#442c5c
Fine Arts Skin and Laser Facial Plastic Surgery,Accent,335 Oxford St,"Dover, Ohio",United States,44622-1970,40.5267,-81.4778,#442c5c
Fit for Life Wellness Center,Accent,8196 N. Delman,"Fresno, California",United States,93711,36.7317,-119.7859,#442c5c
Fit Life MD,Accent,"10103 West Loop 1604N, Suite 105",San Antonio,United States,78254-9716,29.4167,-98.5,#442c5c
Fit Life Med Spa,Accent,990 E Riggs Rd.,"Chandler, Arizona",United States,85249,33.3023,-111.8401,#442c5c
Fitness Together,Accent,"5482 Chamblee Dunwoody Rd.","Dunwoody, Georgia",United States,30338-4142,33.9428,-84.3178,#442c5c
Five springs health and wellness,Accent,246 North Absaroka Street,"Powell, Wyoming",United States,82435,44.7589,-108.7583,#442c5c
Flash Laser Aesthetics,Accent,17401 Ventura Blvd. B9,"Encino, Los Angeles",United States,91316,34.1588,-118.4994,#442c5c
Flawless MedSpa,Accent,271 Main Street,"Stoneham, Massachusetts",United States,2180,42.48,-71.1002,#442c5c
Flawless Salon and Medical Spa,Accent,4655 Harrison Avenue,"Butte, Montana",United States,59701-6966,46.0128,-112.5356,#442c5c
Fleur de peau,Accent,4895 Boul Saint Laurent,Montreal,Canada,H2T 1R6,45.5091,-73.5534,#442c5c
Flor Mayoral MD,Accent,"6705 Red Road, Ste 314","Coral Gables, Florida",United States,33143,25.75,-80.2711,#442c5c
Flower Mound Plastic Surgery,Accent,2560 Central Park Ave Suite 200,"Flower Mound, Texas",United States,75028,33.0317,-97.0789,#442c5c
Foot and Leg Clinic LLC,Accent,1533 Watson Blvd,"Warner Robins, Georgia",United States,31093-3449,32.6292,-83.6129,#442c5c
Foothills Primary aESTHETICS,Accent,13838 S 46th Place Suite 105,"Phoenix, Arizona",United States,85044,33.45,-112.0667,#442c5c
For Her Health SC,Accent,33 W Higgins Rd STE 800,"Barrington, Illinois",United States,60010-9136,42.1536,-88.1319,#442c5c
Fore Viva Medical Clinique,Accent,825 Oak Grove Ave D101,"Menlo Park, California",United States,94025,37.4528,-122.1833,#442c5c
Forever Beauty Medspa Clinic,Accent,47 Jacksonville Dr.,Brampton,Canada,L6P 2Z2,43.6833,-79.7667,#442c5c
Forever Young Medspa,Accent,2510 Warren Ave.,"Cheyenne, Wyoming",United States,82001-3163,41.1402,-104.8188,#442c5c
Fountain of Youth,Accent,6234 North Navarro,"Victoria, Texas",United States,77901,28.8169,-96.9933,#442c5c
"Frank Ryan, A Medical Corporation",Accent,9675 Brigton Way,"Beverly Hills, California",United States,90210-5155,34.0803,-118.4047,#442c5c
Freese Frame,Accent,116 W 4th Street,"Cedar Falls, Iowa",United States,50613,42.5235,-92.4464,#442c5c
Full Spectrum Clinic,Accent,3660 Park Sierra Dr. #110,"Riverside, California",United States,92505,33.9465,-117.3832,#442c5c
"Fully Armored Family Health and Fitness, Inc.",Accent,755 W Carmel Dr STE 150,"Carmel, Indiana",United States,46032,39.9667,-86.1,#442c5c
Future Bright Dermatology,Accent,"185 Canal Street",New York City,United States,10013,40.713,-74.0072,#442c5c
G Antoniak,Accent,308-1919 Riverside Dr.,Ottawa,Canada,K1H 1A2,45.4204,-75.6924,#442c5c
"Garcia, Rutilio M.D.",Accent,25 Medical Park,"Valley, Alabama",United States,36854,32.8114,-85.1779,#442c5c
Gary L Heller and Associates,Accent,7641 66th St N Ste A,"Pinellas Park, Florida",United States,33781,27.8522,-82.7072,#442c5c
Gaston Dumais,Accent,240 Myconos,Dollard-des-Ormeaux,Canada,H9G 2Y3,45.4833,-73.8167,#442c5c
Gemsag medical development inc,Accent,12204 Ventura Blvd,Los Angeles,United States,91604,34.0522,-118.2433,#442c5c
Gentle Touch Aesthetics,Accent,"901 Dover Drive, #122","Newport Beach, California",United States,92660,33.6167,-117.8975,#442c5c
Gentle Touch Skin and Laser Centres,Accent,1096 Queen Street,"Halifax, Nova Scotia",Canada,B3H 2R9,44.6462,-63.5736,#442c5c
"George, Thomas DMD (Deme LLC)",Accent,2200 Arch Street,Philadelphia,United States,19103,39.95,-75.1667,#442c5c
Georgian Medical Aesthetics,Accent,26 James St. Unit 4,"Parry Sound, Ontario",Canada,P2A 1T5,45.3333,-80.0333,#442c5c
Gestion Liber Inc.,Accent,105 boul. Concorde Est,"Laval, Quebec",Canada,H7G 2C1,45.5833,-73.75,#442c5c
"Glass, Cynthia MD",Accent,867I49 Service Rd.,"Sunset, Louisiana",United States,70584,30.4083,-92.0661,#442c5c
"Glasser, Stuart A. M.D.",Accent,916 Green Street,"Greensburg, Pennsylvania",United States,15601-4135,40.2978,-79.5422,#442c5c
Glendale Whole Health,Accent,230 North Maryland Avenue,"Glendale, California",United States,91206,34.1481,-118.2464,#442c5c
Glo Lasers and Med Spa,Accent,"19875 Southwest Freeway, Suite 100","Sugar Land, Texas",United States,77479,29.5971,-95.621,#442c5c
Glo Medical Spa,Accent,901 North Monroe,"Spokane, Washington",United States,99201,47.6589,-117.425,#442c5c
Global Smiles,Accent,1801 Professional Dr,"Sacramento, California",United States,95825,38.5556,-121.4689,#442c5c
Glow! Medical Spa,Accent,6677 West Thunderbird Rd. Bldg D,"Glendale, Arizona",United States,85306,33.5386,-112.1837,#442c5c
GOAT Athletic Spa,Accent,3561 W 11400 S,"South Jordan, Utah",United States,84095,40.5617,-111.9608,#442c5c
Gold Skin Care Center,Accent,2000 Richard Jones Rd.# 220,"Nashville, Tennessee",United States,37215,36.1667,-86.7833,#442c5c
"Goldberg, Kenneth MD",Accent,726 E 12200 S,"Draper, Utah",United States,84020,40.525,-111.8642,#442c5c
"Good Neighbor Family Practice And Geriatrics, PC",Accent,"133-38 41 Road","Flushing, Queens",United States,11355,40.7615,-73.8311,#442c5c
"Goodnight, James, M.D.",Accent,"505 Goffle Rd","Ridgewood, New Jersey",United States,07450-4027,40.9816,-74.1135,#442c5c
"Gordon Dixon, MD",Accent,1441 Parkway Dr,"Blackfoot, Idaho",United States,83221,43.19,-112.3461,#442c5c
Grace Golea DBA Sylk Beauty Laser,Accent,1087 Anna Maria Ave,Innisfil,Canada,L9S 1W2,44.3,-79.5833,#442c5c
Grace Medical Aesthetics,Accent,3501 S Clarkson St,"Englewood, Colorado",United States,80113,39.6494,-104.9889,#442c5c
Granite Bay Cosmetic Surgery,Accent,5220 Douglas Blvd,"Granite Bay, California",United States,95746,38.7486,-121.1797,#442c5c
Graves-Gilbert Clinic,Accent,PO Box 90007,"Bowling Green, Kentucky",United States,42101-9007,36.9817,-86.4444,#442c5c
Greeneville Dermatology PC,Accent,1404 Tusculum Boulevard,"Greeneville, Tennessee",United States,37745,36.1622,-82.8315,#442c5c
"Gregory K. Louie DDS, PC",Accent,520 La Gonda Way,"Danville, California",United States,94526,37.8217,-122,#442c5c
Grube Gynecology,Accent,219 S Balliet St,"Frackville, Pennsylvania",United States,17931,40.7838,-76.2304,#442c5c
Guita Tabassi DO LTD,Accent,6080 S. Fort Apache Rd Ste 110,Las Vegas,United States,89148,36.1691,-115.1406,#442c5c
Gwinnett General Medical,Accent,1180 McKendree Church Road,"Lawrenceville, Georgia",United States,30043-5207,33.9531,-83.9925,#442c5c
Gynecological Solutions,Accent,"349 US Highway #206","Hillsborough Township, New Jersey",United States,8844,40.4977,-74.6705,#442c5c
H2 Laser and Skin,Accent,8440 Rea Rd,"Charlotte, North Carolina",United States,28277,35.2238,-80.8411,#442c5c
"Haber Dermatology, Inc.",Accent,"26949 Chagrin Blvd, STE 300","Beachwood, Ohio",United States,44122-4278,41.4793,-81.4978,#442c5c
Hair A Go-Go,Accent,1000 Dallas Road Suite 104,"Chattanooga, Tennessee",United States,37405,35.0456,-85.2672,#442c5c
Hair Loss Solution,Accent,855 Dieppe Boulevard Unit 5,"Dieppe, New Brunswick",Canada,E1A 8S6,46.0737,-64.7021,#442c5c
Hair Oh Yeah / Amanda Wright (Mandy),Accent,1700 116th Ave NE Ste 100,"Bellevue, Washington",United States,98004,47.6137,-122.1909,#442c5c
Hair Restoration Clinic of Granite Bay,Accent,"8870 Auburn Folsom Road, Suite C","Granite Bay, California",United States,95746,38.7486,-121.1797,#442c5c
"Haley Dermatology, LLC",Accent,202 Rock Creek PKWY,"Fairhope, Alabama",United States,36532,30.5272,-87.903,#442c5c
Hall Plastic Surgery and Rejuvenation Center,Accent,"300 Beardsley Lane, Bldg C, Suite 101","Austin, Texas",United States,78746,30.265,-97.7466,#442c5c
Hamilton Dermatology,Accent,11800 Atlantis Place,"Alpharetta, Georgia",United States,30022,34.0733,-84.2811,#442c5c
"Hanna Facial Cosmetic Surgery, Ltd.",Accent,820 Merrill Woods Rd.,"Hinsdale, Illinois",United States,60521,41.8006,-87.9281,#442c5c
Harold A. Lancer M.D. FAAD A Medical Corp.,Accent,440 N. Rodeo Drive,"Beverly Hills, California",United States,90210-4502,34.0803,-118.4047,#442c5c
Hartley Miltchin,Accent,4430 Bathhurst St. Suite 503,Toronto,Canada,M3H 3S3,43.6519,-79.3817,#442c5c
Hatef Aesthetics,Accent,6200 TN 100,"Nashville, Tennessee",United States,37205-4252,36.1667,-86.7833,#442c5c
Haven Med Spa,Accent,470 Del Norte Avenue,"Yuba City, California",United States,95991,39.1347,-121.6261,#442c5c
Haven Yorkville LLC,Accent,120 E. Countryside Parkway,"Yorkville, Illinois",United States,60560,41.6414,-88.4469,#442c5c
Healing Arts and Aesthetics,Accent,1482 E. Valley Rd #114,"Santa Barbara, California",United States,93108,34.4209,-119.6983,#442c5c
Healing Touch Laser and Spa,Accent,478 Clearmont School Road,"Burnsville, North Carolina",United States,28714,35.9186,-82.2975,#442c5c
Health and Wellness of Carmel LLC,Accent,11900 N Pensylvania St,"Carmel, Indiana",United States,46032-4694,39.9667,-86.1,#442c5c
Health Direction Medical Center S.C.,Accent,1656 W Chicago Ave,Chicago,United States,60622-2224,41.8832,-87.6324,#442c5c
Health Expressions,Accent,1708 Shilling Lane,"Silver Spring, Maryland",United States,20906,38.9977,-77.027,#442c5c
Health First,Accent,16061 Bear Valley Rd #7,"Hesperia, California",United States,92345-1702,34.4274,-117.3148,#442c5c
Health Horizons,Accent,1455 Bells Ferry Road,"Marietta, Georgia",United States,30066,33.9523,-84.5491,#442c5c
Health Horizons,Accent,4801 McMahon Blvd NW,"Albuquerque, New Mexico",United States,87114,35.1107,-106.61,#442c5c
Healthcare For Women,Accent,250 San Jose St,"Salinas, California",United States,93901,36.6778,-121.6556,#442c5c
Heart and Vascular Clinic,Accent,68 Omega Drive Suite D,"Newark, Delaware",United States,19713,39.6792,-75.7581,#442c5c
Heart Care Consultants,Accent,5600 Chestnut Street,Philadelphia,United States,19139,39.95,-75.1667,#442c5c
Heavenwood Medi Spa,Accent,2393 Topsail Road,Conception Bay South,Canada,A1W 2G9,47.5167,-52.9833,#442c5c
"Heba Farag, MD, Inc.",Accent,27725 Santa Margarita Parkway #141,"Mission Viejo, California",United States,92691,33.6128,-117.6561,#442c5c
"Helene Aisenstat, MD",Accent,"13690 U.S. 441","Lady Lake, Florida",United States,32159,28.9292,-81.9308,#442c5c
Heriberto Fernandez MD,Accent,7500 Northwest 25th Street,"Doral, Florida",United States,33122,25.8081,-80.3533,#442c5c
Heritage Beauty Salon,Accent,3665 Heritage Dr.,"Abbotsford, British Columbia",Canada,V2T6X8,49.0546,-122.328,#442c5c
"Heritage Family Dentist, PA",Accent,5110 Heritage Ave,"Colleyville, Texas",United States,76034-5910,32.885,-97.1492,#442c5c
Hermann Wellness,Accent,3040 W. Cypress St. Suite 103,"Tampa, Florida",United States,33609,27.9474,-82.4588,#442c5c
"Hidden Youth Wellness Center, LLC",Accent,2921 BROWN TRAIL,"Bedford, Texas",United States,76021-4205,32.8467,-97.1397,#442c5c
High Desert Skin Center,Accent,15366 11th Street,"Victorville, California",United States,92392-3726,34.5361,-117.2911,#442c5c
"HILLSIDE MEDICAL CLINIC, LLC",Accent,118 N Main St Suite B,"Salem, Utah",United States,84653,40.0506,-111.6725,#442c5c
Hippocrates Health Institute,Accent,1466 Hippocrates Way,"West Palm Beach, Florida",United States,33411,26.7144,-80.0549,#442c5c
Hollywood Dermatology and Cosmetic Surgery Specialists,Accent,"3850 Hollywood Boulevard, Ste 301","Hollywood, Florida",United States,33021,26.0118,-80.1391,#442c5c
Honolulu Elite,Accent,1441 Kapiolani Blvd,Honolulu,United States,96814,21.3099,-157.8582,#442c5c
Honolulu Medspa,Accent,1650 Lilihia St.,Honolulu,United States,96817,21.3099,-157.8582,#442c5c
Honu Nani,Accent,1524 MCHENRY AVE STE 100,"Modesto, California",United States,95350,37.6614,-120.9944,#442c5c
Hootan Zandifar MD,Accent,8920 Wilshire Blvd #604,"Beverly Hills, California",United States,90211-2006,34.0803,-118.4047,#442c5c
Hope Hair Recovery,Accent,10-140 105th St E,Saskatoon,Canada,S7N1Z3,52.1333,-106.6833,#442c5c
HOPE Medical Spa,Accent,Dr. Nadia Chaudhry,"Marlton, New Jersey",United States,8053,39.8914,-74.9221,#442c5c
Horizons Medical Care,Accent,8045 Hwy 72 W,"Madison, Alabama",United States,35758-9564,34.7151,-86.7396,#442c5c
House Calls Regalado LLC,Accent,7251 Brickland Ct,Las Vegas,United States,89117,36.1691,-115.1406,#442c5c
Howard Sobel MD PC,Accent,960 A Park Ave,New York City,United States,10028,40.713,-74.0072,#442c5c
HRT Management Corp,Accent,1130 Victory Boulevard,Staten Island,United States,10301,40.5808,-74.1528,#442c5c
Hudes Concierge Medicine LLC,Accent,5400 Laurel Springs Pkwy Unit 1404,"Suwanee, Georgia",United States,30024,34.0575,-84.0666,#442c5c
"Humberto Varela, MD",Accent,506 Gale Street,"Laredo, Texas",United States,78041-6003,27.5244,-99.4906,#442c5c
Hummingbird MediSpa - Bank Street,Accent,1379 Bank Street,Ottawa,Canada,K1H 8N3,45.4204,-75.6924,#442c5c
Hush Medical Aesthetics,Accent,PO Box 125,"Buckingham, Pennsylvania",United States,18912,40.323,-75.06,#442c5c
IContour Anti Aging Center,Accent,283 Dartmouth Street,Boston,United States,2116,42.3581,-71.0636,#442c5c
Idaho Collective Wellness,Accent,353 W Iowa,"Nampa, Idaho",United States,83686,43.5747,-116.5636,#442c5c
Idaho Health and Hormone,Accent,2667 E Gala Ct,"Meridian, Idaho",United States,83642,43.6142,-116.3989,#442c5c
Idaho Spine and Pain,Accent,1859 S TOPAZ WAY,"Meridian, Idaho",United States,83642,43.6142,-116.3989,#442c5c
Ideally You Weight Loss Center,Accent,4279 Haines Rd,"Hermantown, Minnesota",United States,55811,46.8069,-92.2383,#442c5c
iLashnBrows,Accent,14 W Camelback Rd. Suite B,"Phoenix, Arizona",United States,85013,33.45,-112.0667,#442c5c
ILCO Inc.,Accent,"200, Montcalm, Suite 302",Gatineau,Canada,J8Y 3B5,45.491,-75.6592,#442c5c
Illinois Wellness and Weight Loss Centers,Accent,"9933 South Western Ave., #200",Chicago,United States,60643,41.8832,-87.6324,#442c5c
Illuminate Plastic Surgery,Accent,"2400 Samaritan Drive, Suite #206","San Jose, California",United States,95124,37.3333,-121.9,#442c5c
Illusions Beauty and Wellness Inc.,Accent,39 Munsie Dr.,"Nobleton, Ontario",Canada,L7B 0N8,43.9022,-79.6527,#442c5c
Image Plastic Surgery,Accent,1760 Termino Avenue # 207,"Long Beach, California",United States,90804-2169,33.7683,-118.1956,#442c5c
Imber Medical LLC,Accent,1620 Frederica Rd,"St. Simons, Georgia",United States,31522,31.1369,-81.3954,#442c5c
Impression Medspa,Accent,8230 Boone Blvd,"Vienna, Virginia",United States,22182,38.9035,-77.2628,#442c5c
Indian Wells Family Practice,Accent,2474 Indian Wells Rd,"Alamogordo, New Mexico",United States,88310,32.9004,-105.9605,#442c5c
Infinite Wellness and Aesthetics,Accent,"45 Forest Falls Drive","Yarmouth, Maine",United States,04096-6999,43.8006,-70.1867,#442c5c
"Infinity Med Spa and Infusion Center, LLC",Accent,"1239 Hartford Ave., Ste 1","Johnston, Rhode Island",United States,2919,41.8167,-71.4833,#442c5c
Infinity Medspa,Accent,27019 McBean Pkwy,"Valencia, Santa Clarita, California",United States,91355,34.4545,-118.5712,#442c5c
Infocus Urgent Care,Accent,100 Campus Town Circle,"Ewing Township, New Jersey",United States,8638,40.2627,-74.7983,#442c5c
Ingleside Family Dental,Accent,,"North Charleston, South Carolina",United States,29456,32.8853,-80.0169,#442c5c
"Ingrid E. Trenkle, MD",Accent,124 E Olive Ave,"Redlands, California",United States,92373,34.0547,-117.1825,#442c5c
Injection Gal,Accent,4600 Aberfeldy Rd,"Reno, Nevada",United States,89519-0944,39.5272,-119.8219,#442c5c
Inland Vascular Institute,Accent,801 S. Stevens,"Spokane, Washington",United States,99204,47.6589,-117.425,#442c5c
Innovative Eye Care/Eastside Optical,Accent,PO Box 117,"Renton, Washington",United States,98057,47.4867,-122.1953,#442c5c
Innovative Wellness LLC,Accent,7100 N High St STE 201,"Worthington, Ohio",United States,43085-2370,40.0914,-83.0208,#442c5c
Inspire Med Spa,Accent,9220 Haven Avenue,"Rancho Cucamonga, California",United States,91730,34.1233,-117.5794,#442c5c
Inspire Medical Spa,Accent,"6686 South Highland Drive, STE 108","Cottonwood Heights, Utah",United States,84121,40.6163,-111.8105,#442c5c
INSPIRE WELLNESS AND AESTHETICS,Accent,1825 Georgia 34E,"Newnan, Georgia",United States,30265,33.3764,-84.7886,#442c5c
Inspire-Wave Therapeutics,Accent,"980 Westfall Rd., Ste 110","Rochester, New York",United States,14618,43.1656,-77.6114,#442c5c
Instinct Holistic Medical Spa,Accent,"300 N Willson Ave, Suite 2003","Bozeman, Montana",United States,59715,45.6793,-111.0466,#442c5c
Institut De Beaute,Accent,"1675, Rue Principale""","Sainte-Julie, Quebec",Canada,J3E 1W7,45.5971,-73.3352,#442c5c
Institut Eterna Jouvence Inc.,Accent,400 E Rue Principal,Montreal,Canada,J0P 1Z0,45.5091,-73.5534,#442c5c
Institut Euforia Sur Rive,Accent,19820 Boul Gouin O,"Pierrefonds, Quebec",Canada,H9K 1B4,45.4594,-73.8817,#442c5c
Institut MC Inc.,Accent,8479 Boul. Newman,"LaSalle, Quebec",Canada,H8N 2Y7,45.4283,-73.6483,#442c5c
"Institute for Health and Wellness, LLC",Accent,115 Baker Dr,"Tomball, Texas",United States,77375,30.0972,-95.616,#442c5c
Institute for Wellness,Accent,218 SW Atlanta Avenue,"Stuart, Florida",United States,34994,27.1922,-80.2431,#442c5c
Integral Laser Spa,Accent,428 E. Jefferson Blvd Suite 103,Dallas,United States,75203-5605,32.7758,-96.7967,#442c5c
Integrated Health Center,Accent,2324 Post Road,"Fairfield, Connecticut",United States,6824,41.1758,-73.2719,#442c5c
Integrative Dermatology,Accent,6100 Glades Road,"Boca Raton, Florida",United States,33434,26.3686,-80.1,#442c5c
Integrative Healthcare Center,Accent,300 South State St #5,"Zeeland, Michigan",United States,49464,42.8125,-86.0186,#442c5c
Integrative Medical Solutions,Accent,65 S Saints Blvd,"Edmond, Oklahoma",United States,73034-3051,35.65,-97.4667,#442c5c
Integrative Medicine of Idaho,Accent,"250 Bobwhite Court","Boise, Idaho",United States,83706,43.6158,-116.2016,#442c5c
Integrative Rejuvenation,Accent,4001 E Baseline Rd Suite 104,"Gilbert, Arizona",United States,85234,33.35,-111.7892,#442c5c
Integrative Wellness Center,Accent,1243  E Broad St,"Columbus, Ohio",United States,43205-1404,39.9833,-82.9833,#442c5c
Integrity Medical Physicans,Accent,"1333 3rd Ave S","Naples, Florida",United States,34102-6538,26.15,-81.8,#442c5c
Internal and Family Medicine,Accent,3303 E Baseline Rd STE 203,"Gilbert, Arizona",United States,85234,33.35,-111.7892,#442c5c
International Skin Center,Accent,370 Dairy Rd.,"Kahului, Hawaii",United States,96732,20.888,-156.4679,#442c5c
Intuitive Women's Health,Accent,803 New Road,"Somers Point, New Jersey",United States,8244,39.3161,-74.6068,#442c5c
Iowa Wellness Center,Accent,1395 Jordan Street,"North Liberty, Iowa",United States,52317,41.7411,-91.6076,#442c5c
Ira Fine MD,Accent,10075 Jog Road,"Boynton Beach, Florida",United States,33437,26.5281,-80.0764,#442c5c
Issa Institute For Holistic Health,Accent,128 Thunderbird Dr,"El Paso, Texas",United States,79912,31.7903,-106.4233,#442c5c
Ivey Family Medicine,Accent,"2905 S Walton Blvd, Ste 17","Bentonville, Arkansas",United States,72712,36.3667,-94.2133,#442c5c
J and J Aesthetics,Accent,5323 4th Ave Circle East,"Bradenton, Florida",United States,34208,27.489,-82.5628,#442c5c
J Palacios PLLC,Accent,11148 Robin Park Avenue,Las Vegas,United States,89138,36.1691,-115.1406,#442c5c
Jackie Briles,Accent,511 SW 10th Ave Suite 1305,"Portland, Oregon",United States,97205,45.52,-122.6819,#442c5c
Jade Health,Accent,10730 Ketchum Valley Drive,"Riverview, Florida",United States,33579,27.8735,-82.3201,#442c5c
James Fontaine MD Inc.,Accent,91 Red Cypress Ct,"Danville, California",United States,94506,37.8217,-122,#442c5c
"James Newman, MD,PC",Accent,50 S. San Mateo Drive,"San Mateo, California",United States,94401,37.5472,-122.3144,#442c5c
James Watt Medical Center,Accent,"11331 James Watt Rd, Bldg 100","El Paso, Texas",United States,79936-6410,31.7903,-106.4233,#442c5c
Jann M. Reyes,Accent,"5330 Alpha Road, Suite 100",Dallas,United States,75240,32.7758,-96.7967,#442c5c
"Jason Emer, MD P.C.",Accent,9201 W. Sunset Blvd. Suite 414,"West Hollywood, California",United States,90069,34.0907,-118.3718,#442c5c
"Javier Alonso M.D., Ph.D., P.A.",Accent,"TVV Medispa","Corpus Christi, Texas",United States,78411,27.7428,-97.4019,#442c5c
Jennz Day Spa,Accent,"300 South Main Street, Suite 106","Weatherford, Texas",United States,76086,32.7575,-97.8145,#442c5c
"Jeong, Eric MD",Accent,21050 Golden Springs Dr #115,"Diamond Bar, California",United States,91789,34.0017,-117.8208,#442c5c
JJ Miracle Plastic Surgery,Accent,"1245 W Huntington Dr, Ste 212,","Arcadia, California",United States,91007,34.1328,-118.0364,#442c5c
John D Williams,Accent,608 S Hester St.,"Stillwater, Oklahoma",United States,74074-4516,36.1102,-97.0586,#442c5c
"Johnson, Franklin MD",Accent,90 Main Street,"Mineola, New York",United States,11501-4035,40.7472,-73.6381,#442c5c
Jose Gutauskas,Accent,107-770 Broadview Avenue,Ottawa,Canada,K2A 3Z3,45.4204,-75.6924,#442c5c
Joseph A. Russo Cosmetic and Surgery Center,Accent,"575 Boylston St., 2nd FL","Newton, Massachusetts",United States,2459,42.3369,-71.2097,#442c5c
JOSIANIZ LTD. o/a DermAce Advanced SkinCare Clinic,Accent,6633 Hwy 7 East #303,"Markham, Ontario",Canada,L3P 7P2,43.8833,-79.25,#442c5c
JP Aesthetics,Accent,3183 Wilshire Blvd Ste 182A,Los Angeles,United States,90010,34.0522,-118.2433,#442c5c
Judes Medical Center LTD,Accent,10506 S. Roberts Rd.,"Palos Hills, Illinois",United States,60465-1934,41.6992,-87.8264,#442c5c
Juva Skin and Laser Center,Accent,60 East 56th St,New York City,United States,10022,40.713,-74.0072,#442c5c
Juvy Derm Skin Care,Accent,5401 Temple Dr NE,Calgary,Canada,T1Y 3R7,51.0473,-114.058,#442c5c
"K Brown Aesthetics, LLC",Accent,42 Steeple Run Way,"Savannah, Georgia",United States,31405,32.0167,-81.1167,#442c5c
Kaceli Dental Aesthetics,Accent,1400 Centre St Ste 102,"Newton, Massachusetts",United States,2459,42.3369,-71.2097,#442c5c
Kalologie Brentwood,Accent,11924 San Vicente Blvd.,Los Angeles,United States,90049,34.0522,-118.2433,#442c5c
Kalologie Thousand Oaks,Accent,2200 E Thousand Oaks Blvd,"Thousand Oaks, California",United States,91362,34.1894,-118.875,#442c5c
KAO Institute,Accent,"900 Wilshire Blvd., Suite 100","Santa Monica, California",United States,90401,34.0219,-118.4814,#442c5c
Kaplan Cosmetic Surgery,Accent,Dr. Barry Kaplan,"Winter Park, Florida",United States,32789,28.6002,-81.3388,#442c5c
Karen Mayer,Accent,#2-389 Collett Road.,Kelowna,Canada,V1W 3A3,49.8801,-119.4436,#442c5c
Karyn Grossman MD,Accent,2001 Santa Monica Blvd #1250W,"Santa Monica, California",United States,90404-2050,34.0219,-118.4814,#442c5c
"Keller, Gregory MD",Accent,221 West Pueblo St.,"Santa Barbara, California",United States,93105-6809,34.4209,-119.6983,#442c5c
"Kelly Boulden, MD PLLC",Accent,1565 West Magnolia Ave,"Fort Worth, Texas",United States,76104,32.7499,-97.3303,#442c5c
"Kelsom Clinic, PA",Accent,1202 West Pioneer Dr,"Irving, Texas",United States,75061,32.8117,-96.9508,#442c5c
Key Laser Institute for Aesthethic Medicine,Accent,9555 S.W. Barnes Rd.,"Portland, Oregon",United States,97225,45.52,-122.6819,#442c5c
Kimberly Kim,Accent,9001 Golf Road,"Des Plaines, Illinois",United States,60016,42.0339,-87.8997,#442c5c
Kimberly's Total Image,Accent,5 Sharon's PL,"Dartmouth, Nova Scotia",Canada,B2W 3V1,44.6715,-63.5714,#442c5c
King Concierge Medicine,Accent,"4425 Jamboree Road, #120","Newport Beach, California",United States,92660,33.6167,-117.8975,#442c5c
Kolla Sai S MD,Accent,135 Bloomfield Avenue,"Bloomfield, New Jersey",United States,7003,40.8091,-74.1872,#442c5c
"Kovak Medical Services, Inc. DBA Midwest Dermatologic Laser And Vein Centre",Accent,"1200 S. York Road, Ste 4180","Elmhurst, Illinois",United States,60126,41.9021,-87.94,#442c5c
KP Aesthetics,Accent,4675A W Chester Pike,"Newtown Township, Delaware County, Pennsylvania",United States,19073,39.9868,-75.3991,#442c5c
Krauss Dermatology,Accent,1 Washington St,"Wellesley, Massachusetts",United States,2481,42.2964,-71.2931,#442c5c
"Kulick, Marina M.D.",Accent,703 South Pinellas Ave.,"Tarpon Springs, Florida",United States,34689-3709,28.1462,-82.7566,#442c5c
Kuraoka Clinic,Accent,"1640 Powers Ferry Road","Marietta, Georgia",United States,30067,33.9523,-84.5491,#442c5c
La Bella Spa,Accent,3505 N. Courtenay Parkway,"Merritt Island, Florida",United States,32953,28.3543,-80.7002,#442c5c
La Belle Chique,Accent,2800 Niles Rd,"St. Joseph, Michigan",United States,49085,42.0981,-86.4842,#442c5c
La Laser and Skin Center,Accent,10884 Santa Monica Blvd 3rd Floor,Los Angeles,United States,90025,34.0522,-118.2433,#442c5c
LA Laser Niagara,Accent,4190 Kalar Road,"Niagara Falls, Ontario",Canada,L2H 1S8,43.1167,-79.0667,#442c5c
La Mesa Medical Hair Restoration,Accent,5565 Grossmont Center Drive STE 461,"La Mesa, California",United States,91942,32.7714,-117.0228,#442c5c
La Quinta MedSpa,Accent,"72780 Country Club Drive","Rancho Mirage, California",United States,92270,33.7692,-116.4211,#442c5c
Lakeview Family Health Care PC,Accent,2090 N. Smoketree Ave.,"Lake Havasu City, Arizona",United States,86403,34.49,-114.3089,#442c5c
Lam Facial Plastic Surgery Center Inc dba Lumaire Laser Center,Accent,6101 Chapel Hill Blvd. Suite 202,"Plano, Texas",United States,75093,33.0197,-96.6992,#442c5c
Lang Family Medicine,Accent,289 Lonesome Dove Trail,"Hurst, Texas",United States,76054,32.8236,-97.1793,#442c5c
"Larry S. Moy, MD, Inc. / Ocean skin and vein institute",Accent,1101 Sepulveda Blvd.,"Manhattan Beach, California",United States,90266-5962,33.8851,-118.4097,#442c5c
Larson Family Medicine and Medical Aesthetics,Accent,"16122 8th Avenue SW, Suite E5","Burien, Washington",United States,98166,47.4683,-122.3456,#442c5c
Laser Aesthetics,Accent,2180 Itabashi Way,"Burlington, Ontario",Canada,L7M 5A5,43.325,-79.8,#442c5c
Laser and Anti-Aging Center of South Jersey,Accent,Dr. Nadia Chaudhry,"Marlton, New Jersey",United States,8053,39.8914,-74.9221,#442c5c
"Laser and Skin Surgery Center of Indiana, PC",Accent,13400 N Meridian,"Carmel, Indiana",United States,46032,39.9667,-86.1,#442c5c
Laser and Wellness Center,Accent,222 NE park Plaza Drive,"Vancouver, Washington",United States,98607,45.6333,-122.6,#442c5c
Laser Away,Accent,875 Dakota Street,Winnipeg,Canada,R2M 5S5,49.8994,-97.1392,#442c5c
Laser Bar,Accent,535 Bryne Dr. C3,Barrie,Canada,L4N 9P6,44.3893,-79.6855,#442c5c
Laser Center of Carson Valley,Accent,"1524 US Hwy 395, Ste 2","Gardnerville, Nevada",United States,89410-5233,38.9408,-119.7436,#442c5c
Laser Center of Milford,Accent,232 Boston Post Road,"Milford, Connecticut",United States,6460,41.2243,-73.0576,#442c5c
Laser Cosmetica,Accent,71 Nassau St,New York City,United States,10038,40.713,-74.0072,#442c5c
Laser Derm Clinic,Accent,227 Sunset Dr.,"Brownsville, Texas",United States,78520-7313,25.9303,-97.4844,#442c5c
Laser Ely,Accent,758 place de l'Alouette,Saint-Lin–Laurentides,Canada,J5M 0J4,45.85,-73.7667,#442c5c
Laser Esthtica,Accent,1650 Lead Hill Blvd.,"Roseville, California",United States,95661,38.7525,-121.2894,#442c5c
Laser Institute for Dermatology,Accent,2021 Santa Monica Blvd.,"Santa Monica, California",United States,90404,34.0219,-118.4814,#442c5c
Laser Light Skin Clinic,Accent,15316 N May Ave,"Edmond, Oklahoma",United States,73013,35.65,-97.4667,#442c5c
Laser Med Solutions,Accent,,"Scottsdale, Arizona",United States,85253,33.5,-111.9333,#442c5c
"Laser Skin And Vein Center of Virginia, P.C.",Accent,933 First Colonial Road,"Washington, Virginia",United States,23454,38.7135,-78.1598,#442c5c
Laserlicious Inc,Accent,,Brampton,Canada,M9R 2Y8,43.6833,-79.7667,#442c5c
Lavoro Laser,Accent,43 Quail Court,"Walnut Creek, California",United States,94596,37.9064,-122.065,#442c5c
"Lawrence Desjarlais, MD PC",Accent,2000 Curtis Rd,"Adrian, Michigan",United States,49221,41.8975,-84.0372,#442c5c
"Lawrence Osman, M.D.",Accent,18546 Roscoe Blvd. #306,"Northridge, Los Angeles",United States,91324,34.2283,-118.5358,#442c5c
LazerDoc,Accent,2531 S 4th St,"Leavenworth, Kansas",United States,66048,39.3275,-94.919,#442c5c
Lazur La Vie,Accent,267 A Main Street,"Nyack, New York",United States,10960,41.0925,-73.9225,#442c5c
"Levy, Barbara S., MD",Accent,34503 9th Avenue # 330,"Federal Way, Washington",United States,98003-8726,47.3152,-122.3347,#442c5c
Leyla Derysavi-Jorfian,Accent,365 Eglinton Ave West,Toronto,Canada,M5N 1A3,43.6519,-79.3817,#442c5c
Liebman Wellness Center,Accent,100 Old Marlton Pike West,"Evesham Township, New Jersey",United States,8053,39.8567,-74.9008,#442c5c
LifeHope Healing Med Spa,Accent,"3333 Old Milton Pkwy, Ste 100","Alpharetta, Georgia",United States,30005,34.0733,-84.2811,#442c5c
LifePath LLC,Accent,3300 Holcomb Bridge Road Ste 226ko,"Peachtree Corners, Georgia",United States,30092,33.9756,-84.2178,#442c5c
LifeSpan Center for Integrative Medicine,Accent,13911 Ridgedale Drive #395,"Minnetonka, Minnesota",United States,55305,44.9133,-93.5033,#442c5c
Lifetime Family and Urgent Care,Accent,5801 Argerian Drive,"Wesley Chapel, Florida",United States,33545,28.1814,-82.3512,#442c5c
Lifetime Fitness,Accent,2902 Corporate Place,"Chanhassen, Minnesota",United States,55317-4560,44.863,-93.5401,#442c5c
LightTouch Laser Clinic,Accent,90 Reynolds Street,"Oakville, Ontario",Canada,L6J 3K2,43.45,-79.6833,#442c5c
Lighttouch USA Hold Co LLC,Accent,163 East Morse Blvd. Suite: 105,"Winter Park, Florida",United States,32789,28.6002,-81.3388,#442c5c
Ligia Teisan DBA Empire Spa,Accent,8 Lisa Street Apt. 707,Brampton,Canada,L6T 4S6,43.6833,-79.7667,#442c5c
"Linda D Chiu, MD Inc.",Accent,407 Uluniu St. # 212,"Kailua, Hawaii",United States,96734-2537,21.3975,-157.7394,#442c5c
Linda Marie's Beauty Clinic,Accent,69 King Street West,"Stoney Creek, Ontario",Canada,L8G 1H9,43.2213,-79.7401,#442c5c
Linda Woodson Dermatology,Accent,2800 N Tenaya Way Ste 203,Las Vegas,United States,89128,36.1691,-115.1406,#442c5c
Lipogenex LLC,Accent,1893 E. Loma Vista Dr,"Tempe, Arizona",United States,85282,33.4294,-111.9431,#442c5c
LIPOSUCTION INSTITUTE,Accent,1 S. 365 Summit Ave,"Oakbrook Terrace, Illinois",United States,60181,41.8536,-87.9683,#442c5c
"Lisa D. Tucker, MD, PA",Accent,2510 N. 12th Ave,"Pensacola, Florida",United States,32503,30.4069,-87.2176,#442c5c
Lite Touch Medical Spa Virginia (CLOSED),Accent,"4211 Pleasant Valley Road, Suite 200","Chantilly, Virginia",United States,20151,38.875,-77.4025,#442c5c
Lite Touch NY Inc.,Accent,Mark Greenspan,New York City,United States,10005,40.713,-74.0072,#442c5c
LiveLight Clinic,Accent,"9650 Commerce Dr","Carmel, Indiana",United States,46032,39.9667,-86.1,#442c5c
LL Blossoms Cosmetic Clinic,Accent,3808 Union Street 3i,"Flushing, Queens",United States,11354,40.7615,-73.8311,#442c5c
Lloyd Dermatology And Laser Center,Accent,8060 Market Street,"Youngstown, Ohio",United States,44512-6241,41.1,-80.65,#442c5c
Lloydminster Laser And Vein Clinic,Accent,5120-46th Street,Lloydminster,Canada,T9V 2P7,53.2783,-110.005,#442c5c
Locust Grove Family Medicine,Accent,3778 Georgia 42,"Locust Grove, Georgia",United States,30248,33.3434,-84.1068,#442c5c
Look Younger MD,Accent,2610 W. HORIZON RIDGE PKWY SUITE 100,"Henderson, Nevada",United States,89052,36.0292,-115.0253,#442c5c
Looking Good™ Cosmetic Skin Centre,Accent,113-501 Bethel Drive,Sherwood Park,Canada,T8H 0N2,53.5197,-113.3074,#442c5c
Los Gatos Laser and Skin Care,Accent,"15055 Los Gatos Blvd., Suite 250","Los Gatos, California",United States,95032-2025,37.2361,-121.9617,#442c5c
Lotus Family Wellness and Aesthetics,Accent,1240 Highway 138 Southwest,"Riverdale, Georgia",United States,30296,33.5726,-84.4125,#442c5c
Louis P. Coates,Accent,5915 Murphy Rd,"Sachse, Texas",United States,75048,32.9764,-96.5861,#442c5c
Louise Bourget,Accent,1850 Vanier Boulevard Suite 101,"Bathurst, New Brunswick",Canada,E2A 7B7,47.6186,-65.6497,#442c5c
Louisiana Medical Clinic,Accent,"10466 Airline Highway, Suite C","Baton Rouge, Louisiana",United States,70816,30.4495,-91.0934,#442c5c
LTGKTB,Accent,124 South Morgan Street,"Tampa, Florida",United States,33602,27.9474,-82.4588,#442c5c
Lubna Ahmad,Accent,1005 Job Crescent,"Milton, Ontario",Canada,L9T 8v6,43.5135,-79.8828,#442c5c
Luminary MD,Accent,"62 Corporate Park, #245","Irvine, California",United States,92606,33.6694,-117.8231,#442c5c
Luminous Laser and Med Spa,Accent,2609 Arthur St. East,Thunder Bay,Canada,P7E 5P1,48.3822,-89.2461,#442c5c
Lundy Creative Enterprises dba Radiant Restoration RX,Accent,"7330 Fern Avenue, Suite 1103","Shreveport, Louisiana",United States,71105,32.5147,-93.7472,#442c5c
"Lush Investments, Inc.",Accent,2928 Oak Lawn Avenue,Dallas,United States,75219-4131,32.7758,-96.7967,#442c5c
Luxx Med Spa,Accent,41 E 300 N,"Spanish Fork, Utah",United States,84660-1882,40.1044,-111.64,#442c5c
Lynn Mortimore,Accent,2 Dacotach Ave.,Ottawa,Canada,M5J 2E5,45.4204,-75.6924,#442c5c
M Beauty By Tess,Accent,9888 Carroll Centre Road Ste 101,San Diego,United States,92126,32.715,-117.1625,#442c5c
M.T. Derme S.A.,Accent,435 St Helene,Longueuil,Canada,J4K 3R3,45.5338,-73.5152,#442c5c
MacDonald Healthcare,Accent,6515 W Clearwater Ave Ste 330,"Kennewick, Washington",United States,99336,46.2026,-119.117,#442c5c
Madsen Medical spa,Accent,19011 W. Valley Hwy Suite A-103,"Kent, Washington",United States,98032,47.3828,-122.2269,#442c5c
Magnolia Skin Care Clinic,Accent,9939 Magnolia Ave,"Riverside, California",United States,92503,33.9465,-117.3832,#442c5c
Maine Laser Skincare,Accent,438 U.S. 1,"Scarborough, Maine",United States,4074,43.5781,-70.3217,#442c5c
Majestic Aesthetics and Wellness,Accent,4076 Quail Ridge Drive,"Kimberly, Idaho",United States,83341-4009,42.5331,-114.3639,#442c5c
Man Kwan Beauty Center,Accent,8787 Woodbine Ave. Unit 120,"Markham, Ontario",Canada,L3R 9S2,43.8833,-79.25,#442c5c
Mane Solution,Accent,415 New Karner Rd,"Albany, New York",United States,12205,42.6525,-73.7572,#442c5c
Manhattan Beauty Project by Dr. Pantazopoulos,Accent,31546 Railroad Canyon Rd,"Canyon Lake, California",United States,92587,33.6747,-117.2539,#442c5c
Mantra Health and Wellness,Accent,2222 West Orangeburg Avenue STE A2,"Modesto, California",United States,95355,37.6614,-120.9944,#442c5c
Maplewood Aesthetics,Accent,"1955 Springfield Ave.","Maplewood, New Jersey",United States,7040,40.7327,-74.2711,#442c5c
Marc Malek MD Plastic Surgery,Accent,"8438 East Shea Blvd.","Scottsdale, Arizona",United States,85260,33.5,-111.9333,#442c5c
"Maria Teresa Agner MD, Inc",Accent,410 32nd St.,"Newport Beach, California",United States,92663,33.6167,-117.8975,#442c5c
Mariano Busso PA,Accent,3006 Aviation Avenue,Miami,United States,33133,25.7751,-80.1947,#442c5c
Marilyn Pelias Cosmetic Surgery and Lifestyle Center,Accent,311 Octavia Street,New Orleans,United States,70115,29.9518,-90.0746,#442c5c
Marino Health and Wellness,Accent,50 Nashua Road,"Londonderry, New Hampshire",United States,03053-3422,42.865,-71.3739,#442c5c
Mark Sofonio,Accent,71885 California 111,"Rancho Mirage, California",United States,92270,33.7692,-116.4211,#442c5c
Marla M. Klein MD LLC dba Klein Dematology And Associates,Accent,9495 SW Locust St.,"Portland, Oregon",United States,97223,45.52,-122.6819,#442c5c
Maryland Plastic Surgery,Accent,7704 Quaterfield Rd.,"Glen Burnie, Maryland",United States,21061,39.16,-76.6106,#442c5c
"Maui Cosmetic Laser and Medical Spa, LLC",Accent,40 Kupaoa St b 101,"Makawao, Hawaii",United States,96768,20.8536,-156.3169,#442c5c
Maven Medical Arts,Accent,12448 S Fort St Suite C-100,"Draper, Utah",United States,84020,40.525,-111.8642,#442c5c
MaVie Med Spa,Accent,2825 East Mall Drive,"St. George, Utah",United States,84790,37.0953,-113.5781,#442c5c
M-Care Healthcare,Accent,"731 North McLean Boulevard, STE 100","Wichita, Kansas",United States,67203,37.6889,-97.3361,#442c5c
McIntosh Trail Family Practice,Accent,747 South Hill Street,"Griffin, Georgia",United States,30224,33.2444,-84.2639,#442c5c
MD Beauty Labs,Accent,"1411 North Flagler Drive, Ste 9000","West Palm Beach, Florida",United States,33401,26.7144,-80.0549,#442c5c
MD Cosmedx,Accent,1220 Ashley Circle,"Bowling Green, Kentucky",United States,42104,36.9817,-86.4444,#442c5c
MD IMages c/o Sandra Lee Richardson,Accent,956 Wyckshire Court,"Whitsett, North Carolina",United States,27377-9222,36.0797,-79.5667,#442c5c
MD TLC,Accent,25 Walnut,"Wellesley, Massachusetts",United States,2481,42.2964,-71.2931,#442c5c
Meade Medical Clinic SC,Accent,134 Hospital Drive,"Watertown, Wisconsin",United States,53098,43.2,-88.7167,#442c5c
Med Aesthetics,Accent,"12721 Newport Ave","Tustin, California",United States,92780,33.7397,-117.8136,#442c5c
Med Aesthetics Miami,Accent,2601 SW 37th Avenue #906,Miami,United States,33133,25.7751,-80.1947,#442c5c
Medcom Health Systems,Accent,Dr. Illyas Rajput,"Pleasantville, New Jersey",United States,8232,39.3919,-74.5224,#442c5c
Medi Spa Clinic on Main,Accent,6038 Main Street,"Stouffville, Ontario",Canada,L4A 1B8,43.9667,-79.25,#442c5c
Medical Aesthetics of Menlo Park,Accent,"885 Oak Grove Ave.","Menlo Park, California",United States,94025,37.4528,-122.1833,#442c5c
Medical Colleagues of Texas LLP.,Accent,"21700 Kingsland Blvd., Ste 202","Katy, Texas",United States,77450,29.7949,-95.8165,#442c5c
Medical Skin Therapeutics,Accent,"4801 Dorsey Hall Drive","Ellicott City, Maryland",United States,21042,39.2681,-76.7989,#442c5c
Medimorphosis Physician Assisted Weight And Loss LLC,Accent,149 Ave At the Common,"Shrewsbury, New Jersey",United States,7702,40.3261,-74.0597,#442c5c
Mediscape Clinic,Accent,11535 Tea Tree LN,"Frankfort, Illinois",United States,60423,41.4981,-87.8494,#442c5c
Mega Bite Dental,Accent,6325 N Topanga Canyon Blvd,"Woodland Hills, Los Angeles",United States,91367,34.1676,-118.6045,#442c5c
Mehrnoush Sohrabirad,Accent,3364 cutler crescent sw,Edmonton,Canada,T6w2n4,53.5445,-113.4909,#442c5c
Melissa Med Spa,Accent,"2615 Sentinel Way, STE 300","Melissa, Texas",United States,75454,33.2836,-96.5719,#442c5c
Men's Den Inc.,Accent,939 E Dupont Rd,"Fort Wayne, Indiana",United States,46825-1551,41.0775,-85.1375,#442c5c
Meridian Medical Aesthetics,Accent,3648 N Centerpoint Way Ste 120,"Meridian, Idaho",United States,83646,43.6142,-116.3989,#442c5c
Metamorphos Skin Care,Accent,4275 Connelly Circle N.E.,"Bemidji, Minnesota",United States,56601-5277,47.4736,-94.8803,#442c5c
Metropolitan Day Spa,Accent,3417 West 7th. Street,"Fort Worth, Texas",United States,76107,32.7499,-97.3303,#442c5c
MetropolitanMD,Accent,2350 Ravine Way,"Glenview, Illinois",United States,60025,42.0794,-87.8156,#442c5c
"MI Skin Dermatology, Isaac, Melda, M.D., P.C.",Accent,1133 21st Street NW,"Washington, Virginia",United States,20036,38.7135,-78.1598,#442c5c
Miami Beach Comprehensive Wellness Center,Accent,333 West 41st,Miami,United States,33140,25.7751,-80.1947,#442c5c
Miami Dermatology and Laser Institute,Accent,"7800 Southwest 87th Street, Ste B200",Miami,United States,33183,25.7751,-80.1947,#442c5c
Michael Couris MD Inc.,Accent,3969 4th Ave.,San Diego,United States,92103,32.715,-117.1625,#442c5c
Michael Kan MD,Accent,1390 S Winchester Blvd,"San Jose, California",United States,95128,37.3333,-121.9,#442c5c
"Michelle Place, MD",Accent,919 San Ramon Valley Blvd Ste 255,"Danville, California",United States,94526,37.8217,-122,#442c5c
Midelfort Clinic-Mayo Health System,Accent,1221 Whipple Street,"Eau Claire, Wisconsin",United States,54703,44.8126,-91.4994,#442c5c
Midnight Sun General Medicine,Accent,"91-3633 Kauluakoko Street, #406",Honolulu,United States,96706,21.3099,-157.8582,#442c5c
Midtown Medical Laser Center,Accent,301-39 23 St West,Saskatoon,Canada,S7K 0H6,52.1333,-106.6833,#442c5c
"Midwest Medical Aesthetics Center, P.A.",Accent,"11213 Nall Ave., #140","Leawood, Kansas",United States,66211,38.9124,-94.6267,#442c5c
Mikel Lo MD,Accent,5940 N La Cholla Blvd,"Tucson, Arizona",United States,85741,32.2217,-110.9264,#442c5c
"Milgraum, Sandy, M.D.",Accent,81 Brunswick Woods Drive,"East Brunswick, New Jersey",United States,8816,40.4262,-74.4182,#442c5c
Milton K Wong PC,Accent,8321 Fullmoon Maple Ave,Las Vegas,United States,89117,36.1691,-115.1406,#442c5c
Mimms Functional Rehabilitation PC,Accent,6447 South East Street,Indianapolis,United States,46227,39.791,-86.148,#442c5c
"MindBodySpirit Care, Inc",Accent,12952 North Dale Mabry Highway,"Tampa, Florida",United States,33618,27.9474,-82.4588,#442c5c
Mint Laser Clinic and Skin Care,Accent,2310 A Bloor Street West,Toronto,Canada,M6S 1P2,43.6519,-79.3817,#442c5c
Mirzai Plastic Surgery,Accent,1907 S Beretania St.,Honolulu,United States,96826-1301,21.3099,-157.8582,#442c5c
Mission Medical Skin and Laser Clinic,Accent,,"Mission, British Columbia",Canada,V2V 1A5,49.1344,-122.2999,#442c5c
MLC Laser Rentals Inc,Accent,160 Cidermill Ave,Vaughan,Canada,L4K 4K5,43.8333,-79.5,#442c5c
MODERN INTERNAL MEDICINE,Accent,575 Pharr Road Northeast #550971,Atlanta,United States,30355,33.7485,-84.3915,#442c5c
Modern Medical Spa,Accent,5422 Alpha Road,Dallas,United States,75240-4506,32.7758,-96.7967,#442c5c
Moitoso Dental,Accent,3015 Bobcat Village Center,"North Port, Florida",United States,34288,27.0661,-82.1719,#442c5c
Mona Rane MD Chartered,Accent,109 East 11th Street,"Liberal, Kansas",United States,67901,37.0433,-100.9281,#442c5c
Mona Spa,Accent,7180 SW Hazel Fern Rd,"Tigard, Oregon",United States,97224,45.4264,-122.7662,#442c5c
"Montano, Pedro MD",Accent,1200 Central Blvd Suite 4A,"Brownsville, Texas",United States,78521,25.9303,-97.4844,#442c5c
Montreal Cosmetic Dermatology Clinic,Accent,"2040, boul. Marcel-Laurin","Saint-Laurent, Quebec",Canada,H4R 1J9,45.517,-73.667,#442c5c
Monzer Yazji M.D. and Associates,Accent,502 S Closner Blvd,"Edinburg, Texas",United States,78539-4660,26.3042,-98.1639,#442c5c
Moore Care LLC,Accent,507 NE 12th St.,"Moore, Oklahoma",United States,73160-5807,35.3389,-97.4875,#442c5c
Morris Westfried MD,Accent,7508 15th Avenue,Brooklyn,United States,11228,40.6925,-73.991,#442c5c
"Morton, Kathleen PA-C",Accent,1229 East 33rd street,"Edmond, Oklahoma",United States,73013,35.65,-97.4667,#442c5c
Mosaic Spa and Laser,Accent,108-19 Riedel Street,Fort McMurray,Canada,T9H 5P8,56.7264,-111.3803,#442c5c
Motykie Med Spa,Accent,9201 W. Sunset Blvd. GF-1,"West Hollywood, California",United States,90069-3701,34.0907,-118.3718,#442c5c
Mount Pleasant Neck and Back,Accent,1037 Anna Knapp Blvd Suite A,"Mount Pleasant, South Carolina",United States,29464,32.7904,-79.8765,#442c5c
"Mountain View Dermatology, Ltd.",Accent,"Mountain View Dermatology, Ltd.","Tucson, Arizona",United States,85712,32.2217,-110.9264,#442c5c
Mylissa Medical Boutique,Accent,1441 S Congress Ave,"Delray Beach, Florida",United States,33445-6380,26.4592,-80.0831,#442c5c
MyMD Select - Tyler,Accent,2385 Oak Alley,"Tyler, Texas",United States,75703-5892,32.35,-95.3,#442c5c
Myriad Medical Aesthetics,Accent,6239 E. Brown Rd,"Mesa, Arizona",United States,85206,33.4152,-111.8315,#442c5c
Mystic Island Pediatrics,Accent,Dr. Lee & Dr. Humphreys,"Little Egg Harbor Township, New Jersey",United States,8087,39.6322,-74.336,#442c5c
Naaz Malek PA-C,Accent,"3904 Rawlins St.",Dallas,United States,75219-3668,32.7758,-96.7967,#442c5c
"Naila M Goldenberg, MD",Accent,969 Reading Rd Ste N,"Mason, Ohio",United States,45040,39.3581,-84.3119,#442c5c
"Naina Sachdev, MD",Accent,450 N Bedford Dr 208,"Beverly Hills, California",United States,90210,34.0803,-118.4047,#442c5c
Nancie Fox,Accent,2015 Dennis Lane,"Santa Rosa, California",United States,95403,38.4486,-122.7047,#442c5c
Nancy Joseph,Accent,1762 16th Sideroad,"King City, Ontario",Canada,L7B 1L2,43.9301,-79.5219,#442c5c
Nancy Pyram-Bernard MD,Accent,"6971 West Sunrise Boulevard, Ste 102","Plantation, Florida",United States,33313,26.1283,-80.2424,#442c5c
"Nanda, Rakesh",Accent,751 Northwest Blvd Suite #200-2,"Columbus, Ohio",United States,43212,39.9833,-82.9833,#442c5c
Naperville Internist,Accent,1190 S Naper Blvd,"Naperville, Illinois",United States,60540,41.7481,-88.1656,#442c5c
Nassif MD,Accent,120 S. Spalding Dr. STE 315,"Beverly Hills, California",United States,90212,34.0803,-118.4047,#442c5c
"Natasha Sandy, MD",Accent,8890 Centre Park Dr #300,"Columbia, Maryland",United States,21045,39.2175,-76.8687,#442c5c
Natural Beauty Medspa,Accent,"710 N. Dearborn St",Chicago,United States,60654,41.8832,-87.6324,#442c5c
Natural Foundations,Accent,"4450 Capitola Rd., Suite 105","Capitola, California",United States,95010,36.9764,-121.9547,#442c5c
Natural Look Medical Spa,Accent,11512 Lake Mead Ave.,"Jacksonville, Florida",United States,32256,30.3369,-81.6614,#442c5c
Naturally Balanced,Accent,2680 South Val Vista Drive,"Gilbert, Arizona",United States,85295,33.35,-111.7892,#442c5c
Nature Derma,Accent,180 Willowdale Ave,Toronto,Canada,M2N 4Y9,43.6519,-79.3817,#442c5c
Nevada Family Care and Wellness Center,Accent,"861 Coronado Center Drive, Suite 220","Henderson, Nevada",United States,89052,36.0292,-115.0253,#442c5c
New England Aesthetics & Medical Spa,Accent,711 West Center Street,"West Bridgewater, Massachusetts",United States,2379,42.0189,-71.0083,#442c5c
New England Cosmetic Surgery,Accent,86 Baker Ave. Extension,"Concord, Massachusetts",United States,1742,42.4603,-71.3494,#442c5c
New England Stem Cell Institute - Dr. Paul Tortland,Accent,59 Sycamore Street,"Glastonbury, Connecticut",United States,6033,41.6869,-72.5447,#442c5c
New Faces and Figures Group,Accent,7475-2 E. Arapahoe Rd.,"Centennial, Colorado",United States,80112,39.5964,-104.8439,#442c5c
New Freedom Family Medicine LLC,Accent,127 East 4th Street,"Hermann, Missouri",United States,65041,38.6992,-91.4392,#442c5c
New Health,Accent,2219 SW 29th St,"Topeka, Kansas",United States,66611,39.0558,-95.6894,#442c5c
New Hope Medical Spa LLC,Accent,3840 Peachtree Industrial Blvd.,"Duluth, Georgia",United States,30096,34.0031,-84.1456,#442c5c
New image /Comprehensive Primary Care,Accent,7455 W Washington Ave,Las Vegas,United States,89128,36.1691,-115.1406,#442c5c
New Mexico Cosmetic Lasering,Accent,159 Mescalero Tr.,"Ruidoso, New Mexico",United States,88345,33.3322,-105.6749,#442c5c
New York Center for Innovative Medicine,Accent,634 Park Ave,"Huntington, New York",United States,11743,40.8778,-73.4136,#442c5c
New York Fertility Services,Accent,16 E. 40th St. 2nd Floor,New York City,United States,10016,40.713,-74.0072,#442c5c
New York Laser Vision,Accent,"2464 Coney Island Avenue, 3rd Floor",Brooklyn,United States,11223,40.6925,-73.991,#442c5c
New You Med Spa,Accent,3 Parke Place Blvd,"Washington Township, Gloucester County, New Jersey",United States,8080,39.7484,-75.0691,#442c5c
NewCare MD,Accent,"120 Fountain Blvd. ","Madison, Mississippi",United States,39110,32.4606,-90.1118,#442c5c
Newnan Family Medicine,Accent,51 HOSPITAL ROAD,"Newnan, Georgia",United States,30263,33.3764,-84.7886,#442c5c
Next Health,Accent,44121 Harry Byrd Highway - Suite 115,"Ashburn, Virginia",United States,20147,39.0436,-77.4875,#442c5c
NFC Technologies INC,Accent,680-1600 A St. Martin EST,"Laval, Quebec",Canada,H7G 4R8,45.5833,-73.75,#442c5c
Nicole Frontera Beauty,Accent,104-02 Rockaway Beach Boulevard,"Rockaway Park, Queens",United States,11694,40.5786,-73.841,#442c5c
NJW Ltd. dba Dermascape,Accent,11407 W. Oklahoma Ave,"West Allis, Wisconsin",United States,53227,43.0081,-88.0183,#442c5c
"North Coast Center for Aesthetic Surgery, Inc.",Accent,351 Santa Fe Drive # 103,"Encinitas, California",United States,92024-5137,33.0444,-117.2717,#442c5c
North Cypress Family Practice and Laser Center,Accent,11700 FM 1960 W,Houston,United States,77065,29.7628,-95.3831,#442c5c
North Dallas Dermatology,Accent,9301 North Central Expressway,Dallas,United States,75231,32.7758,-96.7967,#442c5c
Northbrook Rejuvination Clinic,Accent,666 Dundee Rd. #804,"Northbrook, Illinois",United States,60062,42.1292,-87.8408,#442c5c
Northcoast Laser Cosmetics,Accent,9500 Mentor Ave.,"Mentor, Ohio",United States,44060-8716,41.6911,-81.3419,#442c5c
Northern Allure Aesthetics,Accent,"1200 Crest View Drive, Unit 4","Hudson, Wisconsin",United States,54016,44.9792,-92.7571,#442c5c
Northshore Rejuvenation,Accent,"2306 Front Street ","Slidell, Louisiana",United States,70458-3664,30.2792,-89.7778,#442c5c
Novaderm Cosmetic Clinic,Accent,102-505 Queen Street,Spruce Grove,Canada,T7X 2V2,53.5517,-113.8975,#442c5c
Novela PLLC,Accent,6790 Finamore Circle,"Lake Worth Beach, Florida",United States,33467,26.6197,-80.0586,#442c5c
Nu Image,Accent,2631 28th Avenue,"Regina, Saskatchewan",Canada,S4S 6X3,50.4547,-104.6067,#442c5c
Nu Image Laser,Accent,7295 NE Highland Rd,"Otis, Oregon",United States,97368-9617,45.0217,-123.9399,#442c5c
Nuance Medical Aesthetics,Accent,628 Northeast 81st Street Suite 15,"Vancouver, Washington",United States,98665,45.6333,-122.6,#442c5c
Nume Aesthetics,Accent,10564 5th Ave NE Suite 401,Seattle,United States,98125,47.6032,-122.3303,#442c5c
"Nuvell Clinics, LLC",Accent,"8700 E. Via De Ventura","Scottsdale, Arizona",United States,85258,33.5,-111.9333,#442c5c
Nuvida Medical Aesthetics and Wellness,Accent,341 S 500 E,"American Fork, Utah",United States,84003,40.3768,-111.7959,#442c5c
NuYou Beauty,Accent,320 Middletown Blvd Suite 303,"Langhorne, Pennsylvania",United States,19047,40.1768,-74.917,#442c5c
Oak Hills Family Practice and Med Spa,Accent,2756 Elkton Trail,"Tyler, Texas",United States,75703-0723,32.35,-95.3,#442c5c
Oasis Day Spa,Accent,3200 SE 164th #218,"Vancouver, Washington",United States,98683,45.6333,-122.6,#442c5c
Oasis Esthetics,Accent,"6965 Piazza Grande Avenue, Ste 218","Orlando, Florida",United States,32835,28.5383,-81.3789,#442c5c
Oasis Med Spa,Accent,151 W Galvani Dr,"Meridian, Idaho",United States,83642,43.6142,-116.3989,#442c5c
Oasis Spa  Laser,Accent,175 Stone Road West,Guelph,Canada,NIG 5L4,43.5448,-80.2481,#442c5c
Ogden Clinic,Accent,4650 Harrison Blvd,"Ogden, Utah",United States,84403,41.2228,-111.9704,#442c5c
Ohio Rejuv and Laser Center,Accent,580 Office Pkwy Suite 110,"Westerville, Ohio",United States,43082-8645,40.1236,-82.9214,#442c5c
Olmeda Aesthetics LLC,Accent,5682 Rustic Manor,"Brownsville, Texas",United States,78526,25.9303,-97.4844,#442c5c
Olympic Day Spa,Accent,332 E. 8th Street,"Port Angeles, Washington",United States,98362,48.1131,-123.4408,#442c5c
One Point Six Aesthetix,Accent,500 Soquel Avenue Ste B,"Santa Cruz, California",United States,95062,36.9721,-122.0263,#442c5c
Onyx Medical Spa,Accent,706 N College Rd STE D,"Twin Falls, Idaho",United States,83301,42.5632,-114.4603,#442c5c
Opal Aesthetics and Wellness,Accent,206 W Mercer St,"Dripping Springs, Texas",United States,78620,30.1919,-98.0853,#442c5c
Optimal Womens Care,Accent,3203 W Tampa Blvd,"Tampa, Florida",United States,33607,27.9474,-82.4588,#442c5c
Ora Beauty Inc.,Accent,10211 Keele St,"Maple, Ontario",Canada,L6A 4R7,43.8539,-79.5131,#442c5c
Ora Medispa / The Spa Club Hamilton,Accent,8 King St East,"Stoney Creek, Ontario",Canada,L8G 1J8,43.2213,-79.7401,#442c5c
Orange Dermatology,Accent,1506 E. Chapman Ave.,"Orange, California",United States,92866,33.8031,-117.8325,#442c5c
Orava Optimal Health,Accent,4365 E Pecos Rd. #122,"Gilbert, Arizona",United States,85295,33.35,-111.7892,#442c5c
Orleans Dermatology And Laser,Accent,3 Namskaket Road,"Orleans, Massachusetts",United States,2653,41.7897,-69.9903,#442c5c
"Ornstein, Sharon MD",Accent,10 Medical Parkway #101,Dallas,United States,75234,32.7758,-96.7967,#442c5c
Ottawa Skin Clinic,Accent,2 Beechwood Ave. Unit 101,Ottawa,Canada,K1L 8L9,45.4204,-75.6924,#442c5c
Pacific Coast Aesthetics,Accent,28 Seascape Village,"Aptos, California",United States,95003,36.9799,-121.9085,#442c5c
"Padgett, Jeanette MD",Accent,13901 Mcauley Blvd #301,Oklahoma City,United States,73134,35.4822,-97.535,#442c5c
Palmetto Medicine and Aesthetics,Accent,148 waterloo street sw suite 3,"Aiken, South Carolina",United States,29801,33.5639,-81.7162,#442c5c
Panache Beauty Salon and Spa,Accent,11240 Creditview Rd. Unit B2,Brampton,Canada,L7A 0G1,43.6833,-79.7667,#442c5c
"Papillon Wellness & Longevity, PLLC",Accent,14725 W Mountain View Blvd,"Surprise, Arizona",United States,85374,33.6292,-112.3678,#442c5c
Paramount DaySpa Salon And Boutique,Accent,702 2nd Ave. North,Saskatoon,Canada,S7K 2E1,52.1333,-106.6833,#442c5c
"Pareja, Augusto MD",Accent,619 N northwest Hwy,"Park Ridge, Illinois",United States,60068,42.0119,-87.8417,#442c5c
"Paris Cliniqe, Slimming And Beauty Boutique LTD.",Accent,102-1668 West Broadway,Vancouver,Canada,V6J 1X6,49.2636,-123.1386,#442c5c
Park City Medesthetix,Accent,1441 W Ute Blvd #160,"Park City, Utah",United States,84098-7637,40.6594,-111.4997,#442c5c
Peninsula Dermatology Associates,Accent,106 Milford St Ste 301,"Salisbury, Maryland",United States,21804,38.3656,-75.5992,#442c5c
Pennington Med Spa,Accent,"1721 Ebenezer Rd","Rock Hill, South Carolina",United States,29732,34.9381,-81.0261,#442c5c
Penobscot Medical Aesthetics,Accent,608 Main Rd N,"Hampden, Maine",United States,4444,44.7531,-68.8283,#442c5c
Perfectly Bare Laser,Accent,4710 N Habana Ave Suite 405,"Tampa, Florida",United States,33614,27.9474,-82.4588,#442c5c
"Permanently Perfect Cosmetics, LLC",Accent,14651 S. Sooner Road,"Edmond, Oklahoma",United States,73034-9095,35.65,-97.4667,#442c5c
Petals Laser Lounge,Accent,"62 William Street, 6th Floor",New York City,United States,10005,40.713,-74.0072,#442c5c
Petty Medical Clinic,Accent,"3201 South Market St, STE105","Rogers, Arkansas",United States,72758,36.3294,-94.1414,#442c5c
Photoderma Clinque du corps,Accent,"20  Boul, Des Chateau bur 105","Blainville, Quebec",Canada,J7B 1Z8,45.6667,-73.8833,#442c5c
Phresh Spa,Accent,1190 Thurlow Street,Vancouver,Canada,VGE 1X3,49.2636,-123.1386,#442c5c
Physicians Care,Accent,Dr. William Meadows,"Chattanooga, Tennessee",United States,37421-1892,35.0456,-85.2672,#442c5c
Physicians Choice Laser Center of Jupiter,Accent,"600 Heritage Drive, Ste 100","Jupiter, Florida",United States,33458,26.9261,-80.105,#442c5c
Physicians Laser,Accent,3104 SUNSET BLVD SUITE 3C,"Rocklin, California",United States,95677,38.7923,-121.2398,#442c5c
Pierre Crouse,Accent,3223 - 17th Avenue SW,Calgary,Canada,T3E 7R8,51.0473,-114.058,#442c5c
Pinnacle Dermatology,Accent,738 W Northwest HWY,"Barrington, Illinois",United States,60010,42.1536,-88.1319,#442c5c
PINNACLE PREVENTATIVE HEALTH LLC,Accent,968 Chambers Street Suite 5,"South Ogden, Utah",United States,84403,41.1747,-111.9575,#442c5c
Pinner Clinic,Accent,32 River Street,"Peak, South Carolina",United States,29122,34.2372,-81.3258,#442c5c
Pino's Salon and Spa,Accent,70 Victoria Street North,"Kitchener, Ontario",Canada,N2H 5C1,43.4498,-80.4891,#442c5c
"Piracha, Nisar MD",Accent,11 Dunwoody Park,Atlanta,United States,30338,33.7485,-84.3915,#442c5c
Plainsboro Princeton Medical Associates,Accent,666 Plainsboro Road,"Plainsboro Township, New Jersey",United States,8536,40.3341,-74.5946,#442c5c
Plantation Wellness Center,Accent,"201 North University Drive, Ste 113","Plantation, Florida",United States,33324,26.1283,-80.2424,#442c5c
Plastic Surgery and Skincare PLLC,Accent,521 Park Ave,New York City,United States,10065,40.713,-74.0072,#442c5c
Plastic Surgery Arts and Spa,Accent,1886 West Auburn Rd.,"Rochester Hills, Michigan",United States,48309-3865,42.6581,-83.1497,#442c5c
Plastic Surgery Center of New Jersey,Accent,"Pyo, Daniel M.D.","Morristown, New Jersey",United States,7960,40.7966,-74.4773,#442c5c
Plastic Surgery Specialists,Accent,350 Bon Air Rd,"Greenbrae, California",United States,94904,37.948,-122.5252,#442c5c
Plastic Surgery Specialists,Accent,P.O BOX 372,"Kimberton, Pennsylvania",United States,19442,40.13,-75.5759,#442c5c
"Plastic Surgery Specialists, PC",Accent,2525 N 8th St,"Grand Junction, Colorado",United States,81503,39.0667,-108.5667,#442c5c
"Platinum Medical and Esthetics, LLC",Accent,7749 Silver Maple Lane,"Colorado Springs, Colorado",United States,80920-2202,38.8352,-104.8198,#442c5c
Platinum Medical Spa,Accent,6 Journey #145,"Aliso Viejo, California",United States,92656,33.575,-117.7256,#442c5c
Point Lumineux,Accent,2206 Jo An Drive #4,"Sarasota, Florida",United States,34231,27.3372,-82.5353,#442c5c
Pointe Medical,Accent,1996 Kingsley Avenue,"Orange Park, Florida",United States,32073-4442,30.1686,-81.7086,#442c5c
Poly Beaute Group,Accent,"550 Hwy 7 E","Richmond Hill, Ontario",Canada,L4B 3Z4,43.8849,-79.4304,#442c5c
Porter Premier Aesthetics,Accent,"1515 Nasa Blvd","Melbourne, Florida",United States,32901,28.0799,-80.6035,#442c5c
"Porter, Jennifer P MD",Accent,"7201 Wisconsin Ave, Suite #515","Bethesda, Maryland",United States,20814,38.9847,-77.1131,#442c5c
Portland Spa and Boutique,Accent,"0315 SW Montgomery Street, #390","Parkland, Washington",United States,97201-5183,47.1394,-122.4346,#442c5c
posch /Mclane Medical,Accent,140 Gateway Circle #6,"Jacksonville, Florida",United States,32259,30.3369,-81.6614,#442c5c
Posh Salon and Med Spa,Accent,250 Crummer Ln,"Reno, Nevada",United States,89502,39.5272,-119.8219,#442c5c
Premier Healthcare of California,Accent,405 South Street Suite F,"Redding, California",United States,96001,40.5833,-122.3667,#442c5c
"Premier Laser Partners, LLC",Accent,7506 Mt. Vernon Drive,"Colleyville, Texas",United States,76034,32.885,-97.1492,#442c5c
"Premier Laser Partners, LLC",Accent,688 Old Orchard Rd,"Brentwood, Tennessee",United States,37027-5194,35.9982,-86.7926,#442c5c
Premier Medical Associates,Accent,1580 Santa Barbara Blvd,"The Villages, Florida",United States,32159,28.9029,-81.9887,#442c5c
Premier Medical Health and Wellness,Accent,680 Route 33 E,"East Windsor, New Jersey",United States,8520,40.2589,-74.5328,#442c5c
Premier Plastic Surgery,Accent,316 S. Eldorado St. #100,"San Mateo, California",United States,94401,37.5472,-122.3144,#442c5c
Pristine Naturopathic Medicine,Accent,2469 North Country Club Road,"Tucson, Arizona",United States,85716,32.2217,-110.9264,#442c5c
Professional Skin Care,Accent,670 Goyeau St,"Windsor, Ontario",Canada,N9A 1H4,42.3141,-83.0369,#442c5c
Profila santé beauté,Accent,248 boul. Labelle,Rosemère,Canada,J7A2H4,45.6369,-73.8,#442c5c
Progressive Gynecology,Accent,2603 Dekalb Pike,"East Norriton Township, Montgomery County, Pennsylvania",United States,19401,40.1502,-75.3409,#442c5c
Prysm Total Body Solutions,Accent,6-830 Rowntree Dairy Road,"Woodbridge, Ontario",Canada,L4L 5V2,43.7791,-79.5961,#442c5c
Pura Vida,Accent,"800 5th Avenue South, Ste 201","Naples, Florida",United States,34102,26.15,-81.8,#442c5c
Pure Beauty Med Spa,Accent,17414 Ventura Boulevard,Los Angeles,United States,91316,34.0522,-118.2433,#442c5c
Pure Skin Dermatology,Accent,"7932 W Sand Lake Rd, Ste 206","Orlando, Florida",United States,32819,28.5383,-81.3789,#442c5c
Purity Medical Spa,Accent,117 15th Ave SE,"Puyallup, Washington",United States,98372,47.1758,-122.2936,#442c5c
Pushpa's Aesthetics,Accent,3343 Bloor Street West,Toronto,Canada,M8X 1E9,43.6519,-79.3817,#442c5c
PVC Family Practice,Accent,3334 Broadway Blvd #422,"Garland, Texas",United States,75043-1575,32.9072,-96.6353,#442c5c
Quad Cities Medical Aesthetics,Accent,390 S Hwy 69 Suite 102,"Dewey–Humboldt, Arizona",United States,86327,34.5325,-112.2525,#442c5c
Qvita Health and Wellness,Accent,"2734 Windguard Circle, Suite 101","Wesley Chapel, Florida",United States,33544,28.1814,-82.3512,#442c5c
Radiance Medspa,Accent,296 Main St,"Exton, Pennsylvania",United States,19341,40.033,-75.6315,#442c5c
"Radiant Health, LLC dba Skinovative Tucson Mall, LLC",Accent,"4500 N Oracle, Suite 429","Tucson, Arizona",United States,85705,32.2217,-110.9264,#442c5c
Radiant Skin Dermatology and Laser,Accent,"116 Central Park South, Suite 7",New York City,United States,10019,40.713,-74.0072,#442c5c
Raines Family Medicine,Accent,190 Independent Drive,"Rainbow City, Alabama",United States,35906,33.944,-86.0615,#442c5c
"Rampolla, Carla",Accent,142 Calle E Parque,"San Juan, Puerto Rico",United States,911,18.4515,-66.0695,#442c5c
Rancho OBGYN,Accent,25395 Hancock Avenue,"Murrieta, California",United States,92562,33.5598,-117.2208,#442c5c
Randali Centre -  Alice Cohen,Accent,2207 Oregon Pike,"Lancaster, Pennsylvania",United States,17601,40.0394,-76.3071,#442c5c
Ranjana Thakur,Accent,10056 140 Street,"Surrey, British Columbia",Canada,V3T 4M7,49.1046,-122.8235,#442c5c
Raoof M.D. Inc.,Accent,16133 Ventura Boulevard # 340,"Encino, Los Angeles",United States,91436-2428,34.1588,-118.4994,#442c5c
Raya Medspa,Accent,19 Main Street,"Amesbury, Massachusetts",United States,1913,42.8565,-70.9335,#442c5c
Real Med Spa,Accent,5725 Oleander Drive,"Wilmington, North Carolina",United States,28403,34.2233,-77.9122,#442c5c
Rebecca Snyder Medi Spa,Accent,132 W. Main St.,"Medford, Oregon",United States,97501,42.3319,-122.8619,#442c5c
Red Bamboo Medi Spa,Accent,2339 Campbell Road,"Clearwater, Florida",United States,33765,27.9736,-82.7642,#442c5c
Redefining Health Medical PC,Accent,55 Bryant Ave,"Roslyn, New York",United States,11576,40.8,-73.65,#442c5c
Reflections Medspa and Wellness Center,Accent,"2808 Palumbo Dr, Ste 200","Lexington, Kentucky",United States,40509,38.0297,-84.4947,#442c5c
Reforma Dermatology,Accent,1023 Forest Hill Road,Staten Island,United States,10314,40.5808,-74.1528,#442c5c
Refresh Aesthetics,Accent,70 North 200 East,"Roosevelt, Utah",United States,84066,40.3021,-109.9952,#442c5c
Refresh Life Wellness,Accent,"2711 Murfreesboro Rd, Ste 201","Antioch, Tennessee",United States,37013,36.06,-86.6722,#442c5c
Regancy Medical Center,Accent,200 Fox Glenn,"Barrington, Illinois",United States,60010,42.1536,-88.1319,#442c5c
Regen Laser Inc,Accent,7735 West 92nd Avenue,"Westminster, Colorado",United States,80021,39.8361,-105.0372,#442c5c
Regenerative Health Institute P.C.,Accent,"20 Executive Dr","Carmel, Indiana",United States,46032-2988,39.9667,-86.1,#442c5c
Regenesis MD,Accent,8020 Creedmoor Rd,"Raleigh, North Carolina",United States,27613,35.7806,-78.6389,#442c5c
Regenesis Stem Cell,Accent,"4601 Whitesburg Dr. ","Huntsville, Alabama",United States,35802,34.7295,-86.5853,#442c5c
Regina Hill MD,Accent,805 Columbia Road,"Westlake, Ohio",United States,44145-1461,41.4544,-81.9286,#442c5c
Reign Spa LLC,Accent,930 FM 359,"Richmond, Texas",United States,77406,29.5808,-95.7631,#442c5c
Rejuv Maxx,Accent,1324 se 17th st,"Fort Lauderdale, Florida",United States,33316,26.1242,-80.1436,#442c5c
Rejuva Medi-Spa,Accent,11932 Sheldon Rd,"Tampa, Florida",United States,33626,27.9474,-82.4588,#442c5c
Rejuve Medspa,Accent,"14410 Big Basin Way","Saratoga, California",United States,95070,37.2681,-122.0195,#442c5c
RejuveCare Clinic,Accent,7473 Grooms Road,"Missoula, Montana",United States,59808-9798,46.8625,-114.0117,#442c5c
Rejuvenation Med Clinic,Accent,151 Willow Farm Lane,"Aurora, Ontario",Canada,L4G 6K5,44,-79.4667,#442c5c
Rejuvenessence Medi Spa,Accent,2940 Oak Stream Dr.,"De Pere, Wisconsin",United States,54115,44.4461,-88.0742,#442c5c
Re-Medispa,Accent,5128 N Harlem Ave,"Harwood Heights, Illinois",United States,60706,41.9665,-87.8026,#442c5c
Renaissance Clinique,Accent,2325 Ulmerton Rd. Suite #27,"Clearwater, Florida",United States,33762,27.9736,-82.7642,#442c5c
Reneux Med & Day Spa,Accent,"401 Kamakee Street, #202",Honolulu,United States,96814,21.3099,-157.8582,#442c5c
Renew Hair Loss Center,Accent,373 E 800 S,"Orem, Utah",United States,84097,40.2969,-111.6945,#442c5c
"Renew Medical Aesthetics, PLLC",Accent,200 Lafayette Rd Ste 4,"North Hampton, New Hampshire",United States,3862,42.9725,-70.8297,#442c5c
Renew Total Body Wellness Center,Accent,3798 E. Fulton Ave.,"Decatur, Illinois",United States,62521-8802,39.8517,-88.9442,#442c5c
Renew Wellness Center,Accent,210 Century Square Blvd,"Sugar Land, Texas",United States,77478-3796,29.5971,-95.621,#442c5c
Renew You Aesthetics and Wellness LLC,Accent,127 Mills Street,"Greer, South Carolina",United States,29651,34.9303,-82.225,#442c5c
ReNew You by Nurse Stephanie Inc.,Accent,7298 Mentor Avenue,"Mentor, Ohio",United States,44060,41.6911,-81.3419,#442c5c
Renewal Aesthetics,Accent,6686 Highland Dr,"Cottonwood Heights, Utah",United States,84121,40.6163,-111.8105,#442c5c
Renu,Accent,5943 Spring Garden Road,"Halifax, Nova Scotia",Canada,B3H 1Y4,44.6462,-63.5736,#442c5c
Renu Laser and Skin Care,Accent,8606 S Lewis Way,"Littleton, Colorado",United States,80127,39.5997,-105.0108,#442c5c
ReNu Medical Spa,Accent,2425 Bradshaw Way,"Pittsburg, Kansas",United States,66762-8756,37.4111,-94.7048,#442c5c
Renual Medspa,Accent,4377 N Kings Hwy Suite 113,"Myrtle Beach, South Carolina",United States,29577,33.7167,-78.8833,#442c5c
Renuvia Medical Center,Accent,5411 Grand Blvd Ste 107,"New Port Richey, Florida",United States,34652,28.2489,-82.7178,#442c5c
Reston Dermatology And Cosmetic Center,Accent,"1830 Town Center Drive, Suite 410","Reston, Virginia",United States,20190,38.9544,-77.3464,#442c5c
"Restoration Wellness, LLC",Accent,1014 Harkrider St Suite A&B,"Conway, Arkansas",United States,72032,35.0872,-92.4533,#442c5c
Restore Hair Loss and Scalp Clinic,Accent,10014 102nd Avenue,Grande Prairie,Canada,T8V 0Z7,55.1708,-118.7947,#442c5c
Restore You,Accent,1520 N. 205th Street  Suite 101,"Elkhorn, Omaha, Nebraska",United States,68022,41.4368,-96.3962,#442c5c
"Reuben J. Elovitz, MD",Accent,"Private Health Dallas",Dallas,United States,75225,32.7758,-96.7967,#442c5c
Reve Aesthetics Med Spa,Accent,3610 Old Atlanta Road,"Suwanee, Georgia",United States,30024,34.0575,-84.0666,#442c5c
Reveal Med Spa,Accent,1934 Old Gallows Road,"Vienna, Virginia",United States,22182,38.9035,-77.2628,#442c5c
Reviva Medical Laser and Vein Clinic,Accent,250-5791 No. Three Road,"Richmond, British Columbia",Canada,V6X 2C9,49.1667,-123.1333,#442c5c
Revive Aesthetics and Wellness,Accent,2147 Health Drive SW,"Wyoming, Michigan",United States,49519,42.9134,-85.6954,#442c5c
Revive Laser Center,Accent,793 Browns Church Road,"Jackson, Tennessee",United States,38305,35.6331,-88.8208,#442c5c
Revive MD Medical Group,Accent,4251 S Higuera St Suite 600,"San Luis Obispo, California",United States,93401-7738,35.2742,-120.6631,#442c5c
"Revive Total Wellness, LLC",Accent,2270 Teton Plaza,"Idaho Falls, Idaho",United States,83404,43.5,-112.0333,#442c5c
Revivify Med Spa,Accent,"3560, Delaware street, Suite 107","Beaumont, Texas",United States,77706,30.08,-94.1267,#442c5c
Revolution Medical Aesthetics PLLC,Accent,"1106 South Pine Street, STE C","Cabot, Arkansas",United States,72023,34.9728,-92.0222,#442c5c
Rewind Cosmetic Dermatology,Accent,10446 E Jomax Rd. Suite 115,"Scottsdale, Arizona",United States,85262,33.5,-111.9333,#442c5c
Reynolds Plastic Surgery,Accent,5550 Painted Mirage Rd. Ste 217,Las Vegas,United States,89149-4620,36.1691,-115.1406,#442c5c
Rheumatology Center of NJ,Accent,56 Union Ave.,"Somerville, New Jersey",United States,8876,40.5698,-74.6077,#442c5c
RichBich Clinic,Accent,127 East 56th Street,New York City,United States,10022,40.713,-74.0072,#442c5c
Richmond Medical Spa Club,Accent,6611 No 2 Rd,"Richmond, British Columbia",Canada,v2c3l5,49.1667,-123.1333,#442c5c
Ridgeland Medical Clinic,Accent,"587 U.S. 51, STE L","Ridgeland, Mississippi",United States,39157,32.4189,-90.125,#442c5c
Ridgeline Medical,Accent,2470 Jafer Court,"Idaho Falls, Idaho",United States,83404,43.5,-112.0333,#442c5c
Rinnovare Institute,Accent,317 NORTH CENTRAL EXPRESSWAY,"Allen, Texas",United States,75013,33.1042,-96.6717,#442c5c
Rio Medical,Accent,265 Washington St,"Hudson, Massachusetts",United States,1749,42.3912,-71.5681,#442c5c
"Riversong Plastic Surgery, PC",Accent,21 Highland Ave.# 3-4A,"Newburyport, Massachusetts",United States,01950-3873,42.8097,-70.8767,#442c5c
RN Esthetics And Laser Co. Inc.,Accent,40 Salem Street  - Bldg # 3,"Lynnfield, Massachusetts",United States,1940,42.5389,-71.0486,#442c5c
Robert Anderson,Accent,"800 12th Avenue,","Fort Worth, Texas",United States,76104-2519,32.7499,-97.3303,#442c5c
"Robert Eisenberg, M.D.",Accent,700 Front Street,San Diego,United States,92101,32.715,-117.1625,#442c5c
Rockwall Rapid Care,Accent,2313 Ridge Rd,"Rockwall, Texas",United States,75087-5141,32.9311,-96.4586,#442c5c
Romeo Jacques,Accent,"179, Avenue Mercier""",Rouyn-Noranda,Canada,J9X4X4,48.2333,-79.0167,#442c5c
Ronald S. Perlman Center for Plastic Surgery,Accent,5215 Loughboro Road,"Washington, Virginia",United States,20016,38.7135,-78.1598,#442c5c
"Ronan, Arthur J MD",Accent,1568 Lake Lansing Rd.,"Lansing, Michigan",United States,48912,42.7336,-84.5539,#442c5c
Root Medical,Accent,266 W 100 N STE 2,"Vernal, Utah",United States,84078,40.4556,-109.538,#442c5c
Rosewood College,Accent,"#280, 3670-63 Ave NE",Calgary,Canada,T3J 0S4,51.0473,-114.058,#442c5c
"Round Valley Laser, Inc. (Accent Med Spa)",Accent,4730 S. Fort Apache Road,Las Vegas,United States,89147-7959,36.1691,-115.1406,#442c5c
Roya Rakhshani MD,Accent,186 East 16th Street,"Costa Mesa, California",United States,92627,33.6639,-117.9048,#442c5c
Royal Aesthetics Laser Clinic and Wellness Retreat,Accent,11613 Spring Cypress Rd.,"Tomball, Texas",United States,77377-8919,30.0972,-95.616,#442c5c
Royalty Wellness Spa,Accent,"618 Oakleaf Office Ln, STE 200","Memphis, Tennessee",United States,38117,35.1174,-89.9711,#442c5c
Rumson Wellness,Accent,112 Avenue of Two Rivers,"Rumson, New Jersey",United States,07760-1802,40.3762,-74.0099,#442c5c
Ruth Markovic,Accent,9833 Techumseh Road East,"Windsor, Ontario",Canada,N8R 1A5,42.3141,-83.0369,#442c5c
Rutland Medical Associates,Accent,205-285 Aurora Crescent,Kelowna,Canada,V1X 7N6,49.8801,-119.4436,#442c5c
Rx Skin Clinic,Accent,11042 E Cannon Dr,"Scottsdale, Arizona",United States,85259,33.5,-111.9333,#442c5c
Sacramento Bariatric Medical Associates,Accent,5769 Green Back Ln,"Sacramento, California",United States,95841-2013,38.5556,-121.4689,#442c5c
Sacramento Medspa,Accent,233 Dragonfly Circle,"Sacramento, California",United States,95825,38.5556,-121.4689,#442c5c
Safe and Gentle tattoo Removal,Accent,"1806 New Jersey 35 South, Suite 209B","Oakhurst, New Jersey",United States,7755,40.2615,-74.0266,#442c5c
SageMed,Accent,12600 SE 38th Street,"Bellevue, Washington",United States,98006,47.6137,-122.1909,#442c5c
Saints Eurpoean Skin Care Clinic,Accent,55 Asheville Highway,"Sylva, North Carolina",United States,28779,35.3742,-83.2178,#442c5c
Salon Dolce Vita And Spa,Accent,1 Hurontario Street,Mississauga,Canada,L5G 1E5,43.6,-79.65,#442c5c
Salt and Sweat Wellness,Accent,14c Rye Ridge Plaza,"Rye Brook, New York",United States,10573,41.0188,-73.6813,#442c5c
Sanctuary Medical Aesthetic Center,Accent,"4800 North Federal Highway, Ste C101","Boca Raton, Florida",United States,33431,26.3686,-80.1,#442c5c
Sandra Goranson,Accent,200-110 Point MacKay Crescent NW,Calgary,Canada,T3R 5R4,51.0473,-114.058,#442c5c
Sante Spa Calgary,Accent,508 24th Avenue SW,Calgary,Canada,T2S 0K4,51.0473,-114.058,#442c5c
Sarah Baldoni Aesthetic Medicine,Accent,105 S Cedar St suite F,"Summerville, South Carolina",United States,29483,33.0198,-80.1776,#442c5c
Sarah Todd Aesthetics,Accent,"200 West Side Square, STE 725","Huntsville, Alabama",United States,35801,34.7295,-86.5853,#442c5c
"Sarah Yamaguchi, MD",Accent,1127 Wilshire Boulevard # 1202,Los Angeles,United States,90017,34.0522,-118.2433,#442c5c
"Sarkis, Arbella MD",Accent,16400 Lark Avenue Suite 150,"Los Gatos, California",United States,95032,37.2361,-121.9617,#442c5c
SavvyDerm Skin Clinic,Accent,32782 Cedar Drive Suite 2,"Millville, Delaware",United States,19967,38.5475,-75.1128,#442c5c
"Schaner, Patrick MD",Accent,18707 Hardy Oak Blvd Suite 445,San Antonio,United States,78258,29.4167,-98.5,#442c5c
Scruples Salon And Spa,Accent,32 Highvalley Circle,Brampton,Canada,L6P 2C7,43.6833,-79.7667,#442c5c
Sculpt Cosmedics,Accent,701 Avenue U,Brooklyn,United States,11223,40.6925,-73.991,#442c5c
SD Medical Arts,Accent,833 Northern Blvd #230,"Great Neck, New York",United States,11021,40.8006,-73.7294,#442c5c
Sechoir Medspa,Accent,2674D Avenir Place,"Vienna, Virginia",United States,22180,38.9035,-77.2628,#442c5c
Secret Room Med Spa,Accent,591 Charter Oaks Ct,"Conroe, Texas",United States,77302,30.3161,-95.4589,#442c5c
Serenity Health Care Center,Accent,1708 Paramount Ct,"Waukesha, Wisconsin",United States,53186,43.0117,-88.2317,#442c5c
Serenity Spa and Laser Centre LTD,Accent,617 First Street West,High River,Canada,T1V 1M4,50.5808,-113.8744,#442c5c
Sereno Sante,Accent,360 Dardanelli Lane Ste 2G,"Los Gatos, California",United States,95032,37.2361,-121.9617,#442c5c
Serrao Rejuvenation Center,Accent,"2905 McRae Ave","Orlando, Florida",United States,32803,28.5383,-81.3789,#442c5c
Seven at River Prairie,Accent,1470 Rivers Edge Trail,"Altoona, Wisconsin",United States,54720-2755,44.8042,-91.4422,#442c5c
Shanti Medical Spa,Accent,1625 North St,Philadelphia,United States,19130,39.95,-75.1667,#442c5c
Share Med Spa,Accent,4011 Richmond Ave,Houston,United States,77027,29.7628,-95.3831,#442c5c
Shaw Clinic for Plastic Surgery,Accent,Dr. Kevin Shaw,"Boca Raton, Florida",United States,33486,26.3686,-80.1,#442c5c
"Shawnee Chiropractic Clinic, P.A.",Accent,21640 Midland Dr.,"Shawnee, Kansas",United States,66218,39.0128,-94.7658,#442c5c
"Sheets Family Practice, P.C. Inc.",Accent,123 S McKinley Ave,"Rensselaer, Indiana",United States,47978-2949,40.9365,-87.1507,#442c5c
"Shelley Glover, MD",Accent,1725 East Highway 50,"Clermont, Florida",United States,34711-5188,28.5475,-81.7494,#442c5c
"Sherri Peace, M.D., Inc.",Accent,8930 S Sepulveda Blvd suit 104,Los Angeles,United States,90045,34.0522,-118.2433,#442c5c
Shino Bay Cosmetic Dermatology,Accent,350 East Las Olas Boulevard,"Fort Lauderdale, Florida",United States,33301,26.1242,-80.1436,#442c5c
Sidney Health Center,Accent,"304 S Ellery Ave.","Fairview, Montana",United States,59221,47.8517,-104.0486,#442c5c
"Sienna Labs, Inc.",Accent,3210 Merryfield Row,San Diego,United States,92121,32.715,-117.1625,#442c5c
"Sienna Pacifica, LLC",Accent,3405 Stanford Ave,Dallas,United States,75225,32.7758,-96.7967,#442c5c
Signature Med Spa,Accent,"400 Park Drive South","Great Falls, Montana",United States,59405,47.5036,-111.2864,#442c5c
Signature Skin Care,Accent,"LeCour Office Park, 1300 East Ninth, Suite 7","Edmond, Oklahoma",United States,73034,35.65,-97.4667,#442c5c
"Silbret, Lisa M.D.",Accent,26 Plaza 9,"Manalapan Township, New Jersey",United States,07726-3010,40.3062,-74.3755,#442c5c
Silhouette Elegance,Accent,6655 Boul Pierre-Bertrand,Quebec City,Canada,G2K 1M1,46.8142,-71.2074,#442c5c
Silk Laser Centre,Accent,"Windsor Health Centre, 400 Building","Windsor, Ontario",Canada,N8X 5A6,42.3141,-83.0369,#442c5c
Silver Spring Laser Wellness Center,Accent,160 Silver Hill Way NW,Calgary,Canada,T3B 4K8,51.0473,-114.058,#442c5c
"Simhaee, Jacob M.D.",Accent,1201 Northern Blvd.,"Manhasset, New York",United States,11030,40.7928,-73.6933,#442c5c
Simmons-O'Brien and Orlinsky,Accent,"8320 Bellona Ave, Suite 20","Towson, Maryland",United States,21204,39.3931,-76.6094,#442c5c
Simone Kagan - Dermace,Accent,12 Frontier Drive,"Richmond Hill, Ontario",Canada,L4C 0M2,43.8849,-79.4304,#442c5c
Simple Wellness,Accent,"4811 Bob Billings Pkwy, Lawrence, KS 66049","Lawrence, Kansas",United States,66049,38.9717,-95.2353,#442c5c
Simply Skin Laser Medispa,Accent,65-45 Otto Road,New York City,United States,11385,40.713,-74.0072,#442c5c
Sioux Valley Family Health,Accent,115 E. Maple St.,"Cherokee, Iowa",United States,51012 ​,42.75,-95.55,#442c5c
Siouxland Adult Medicine,Accent,1605 Douglas St.,"Sioux City, Iowa",United States,51105,42.4981,-96.3956,#442c5c
Siti Medical Clinic Inc.,Accent,1951 4th Avenue #101,San Diego,United States,92101,32.715,-117.1625,#442c5c
SK Laser Hair Skin Care Centre,Accent,"110-1804 McOrmond Drive, ",Saskatoon,Canada,S7S 0A6,52.1333,-106.6833,#442c5c
Skin and Aesthetic Surgery of Manhattan,Accent,120 East 56th Street,New York City,United States,10022,40.713,-74.0072,#442c5c
Skin and Allergy Center,Accent,"3098 Campbell Station Pkwy, Ste 201","Spring Hill, Tennessee",United States,37174,35.7525,-86.9139,#442c5c
Skin and Body Refinery LLC,Accent,"4125 Austin Ave, Suite A","Waco, Texas",United States,76710,31.5568,-97.13,#442c5c
Skin Artisans at Edina Plastic Surgery,Accent,6525 France Avenue South,"Edina, Minnesota",United States,55435,44.9105,-93.3487,#442c5c
Skin Blossom Professionals Inc.,Accent,103-814 W 15th St,North Vancouver,Canada,V7P 1M6,49.3167,-123.0667,#442c5c
Skin by Design Inc.  DBA: Skinovative - Closed,Accent,540 Plaza Dr,"Folsom, California",United States,95670-4785,38.6722,-121.1578,#442c5c
Skin Cancer Associates,Accent,7800 Southwest 87th Avenue,Miami,United States,33173,25.7751,-80.1947,#442c5c
"Skin Care Center, The-Glenview",Accent,2551 Compass Road,"Glenview, Illinois",United States,60026,42.0794,-87.8156,#442c5c
Skin Care Institute,Accent,2112 E. 47th St,"Tulsa, Oklahoma",United States,74105,36.1314,-95.9372,#442c5c
"Skin Care Laser Center, LLC",Accent,979 Tommy Munro Drive,"Biloxi, Mississippi",United States,39532,30.4119,-88.9278,#442c5c
Skin Care Montana,Accent,1905 W College St,"Bozeman, Montana",United States,59718,45.6793,-111.0466,#442c5c
Skin Deep Health And Wellness,Accent,6344 North 13th Place,"Phoenix, Arizona",United States,85014-1423,33.45,-112.0667,#442c5c
Skin Deep Medical Spa,Accent,1160 Park Ave West,"Highland Park, Illinois",United States,60035,42.1825,-87.8069,#442c5c
Skin Deep Medical Spa 2,Accent,1160 Park Ave W,"Highland Park, Illinois",United States,60035,42.1825,-87.8069,#442c5c
Skin Deep Rejuvenation Center,Accent,8 Old Bloomfield Pike Suite 400,"Bardstown, Kentucky",United States,40004-2086,37.8156,-85.4631,#442c5c
Skin Laser And Surgery Spec,Accent,Skin & Laser Surg. Spec,"Hackensack, New Jersey",United States,7601,40.8894,-74.0457,#442c5c
"Skin M.D., P.A.",Accent,8820 Martin Drive,"North Richland Hills, Texas",United States,76182,32.8556,-97.2181,#442c5c
Skin Remedy and Body,Accent,3723 E Thousand Oaks Blvd,"Thousand Oaks, California",United States,91362,34.1894,-118.875,#442c5c
Skin Secrets,Accent,943 Chiquita Boulevard South,"Cape Coral, Florida",United States,33991,26.6397,-81.9825,#442c5c
Skin Spirit LLC,Accent,701 Emerson St.,"Palo Alto, California",United States,94301,37.4292,-122.1381,#442c5c
Skinatomy Laser Clinic,Accent,279 Queen Street South,Mississauga,Canada,L5M 1L9,43.6,-79.65,#442c5c
Skincare Inc,Accent,6268 South 900 East,Salt Lake City,United States,84121,40.75,-111.8833,#442c5c
SkinCredible,Accent,919 Conestoga Rd,"Rosemont, Pennsylvania",United States,19010-1353,40.0282,-75.3233,#442c5c
Skinfluence LTD,Accent,2009 43rd Ave SW,Calgary,Canada,T2T 2N3,51.0473,-114.058,#442c5c
SkinLueur,Accent,5924 104 St NW,Edmonton,Canada,T6H 2K3,53.5445,-113.4909,#442c5c
SkinMed Clinic Inc.,Accent,9200 Bathurst Street,"Thornhill, Ontario",Canada,L4J 8W1,43.8159,-79.4263,#442c5c
Skinovative,Accent,5135 W Alabama,Houston,United States,77056,29.7628,-95.3831,#442c5c
Skinovative Kierland,Accent,"15215 N. Kierland Blvd., #109","Scottsdale, Arizona",United States,85254,33.5,-111.9333,#442c5c
Skinovative Phoenix,Accent,1529 W. Loma Lance,"Phoenix, Arizona",United States,85021,33.45,-112.0667,#442c5c
Skintopia,Accent,122 South Market Blvd,"Chehalis, Washington",United States,98532,46.66,-122.9633,#442c5c
SkinWorks,Accent,904 SW 38th st,"Lawton, Oklahoma",United States,73505-7021,34.6064,-98.3968,#442c5c
Sky Skulpt Ltd,Accent,7077 E. Mariilyn Rd Bldg 3 Ste 125,"Scottsdale, Arizona",United States,85254,33.5,-111.9333,#442c5c
Skylex Advanced Surgical,Accent,"1301 20th St, suite 440","Santa Monica, California",United States,90404,34.0219,-118.4814,#442c5c
Sleek Med Spa (Braintree),Accent,301 Yamato Road,"Boca Raton, Florida",United States,33431,26.3686,-80.1,#442c5c
Sleek Med Spa (Burlington),Accent,75 Middlesex Turnpike,"Burlington, Massachusetts",United States,1803,42.5047,-71.1961,#442c5c
Sleek Med Spa (Natick),Accent,1245 Worchester Street,"Natick, Massachusetts",United States,1760,42.2838,-71.3473,#442c5c
Sleek Med Spa Boston,Accent,"301 Yamato Road, Ste 2121","Boca Raton, Florida",United States,33431,26.3686,-80.1,#442c5c
Slim and Glow,Accent,679 Montgomery Street,"Jersey City, New Jersey",United States,7306,40.714,-74.071,#442c5c
Slimming Med Spa,Accent,16101 Ventura Blvd #343,"Encino, Los Angeles",United States,91436,34.1588,-118.4994,#442c5c
SmarterSkin Dermatology,Accent,225 Broadway,New York City,United States,10007,40.713,-74.0072,#442c5c
SMDC Health System - Duluth,Accent,407 E 3rd Street,"Duluth, Minnesota",United States,55805-1950,46.8,-92.1,#442c5c
Smile Arizona Dentistry,Accent,4726 E Calle Del Medio,"Phoenix, Arizona",United States,85018,33.45,-112.0667,#442c5c
Smith Evers MD,Accent,7640 Highway 70 South,"Nashville, Tennessee",United States,37221,36.1667,-86.7833,#442c5c
"Smooth Body Contours dba Central Florida Health and Rehab Clinic, LLC",Accent,3975 S. Orange Blossom Trail Suite 105,"Orlando, Florida",United States,32839,28.5383,-81.3789,#442c5c
Smooth Your Bod,Accent,1912 North Damen Ave,Chicago,United States,60647,41.8832,-87.6324,#442c5c
"Snyder, Steven B., M.D., P.A.",Accent,10220 S Dolfield Rd Ste 110,"Owings Mills, Maryland",United States,21117-3660,39.4122,-76.7931,#442c5c
Solaris Dentistry And Spa,Accent,"4917 S Alma School Road, Suite 1","Chandler, Arizona",United States,85248,33.3023,-111.8401,#442c5c
"Solcara Health, Ageless RX",Accent,180 Wingo Way Suite 106,"Mount Pleasant, South Carolina",United States,29464,32.7904,-79.8765,#442c5c
Sole Med Spa,Accent,1489 Kennedy Road,"Tifton, Georgia",United States,31794-4159,31.4633,-83.51,#442c5c
Soleil Medical Spa,Accent,7887 SW Capitol Hwy,"Portland, Oregon",United States,97219-2479,45.52,-122.6819,#442c5c
Soloshine Institute of Master Aesthetics And Health Inc.,Accent,1720 Hope Rd,North Vancouver,Canada,V7P 1X3,49.3167,-123.0667,#442c5c
Sona Charlotte,Accent,"10710 Sikes Pl, Ste 120","Charlotte, North Carolina",United States,28277-8182,35.2238,-80.8411,#442c5c
Sona Med Spa - Dallas,Accent,"1235 S. Main Street, Suite 150","Grapevine, Texas",United States,76051-7547,32.935,-97.0858,#442c5c
Sona Med Spa - Fort worth,Accent,2421 W. 7th Street #205,"Fort Worth, Texas",United States,76107,32.7499,-97.3303,#442c5c
Sona Med Spa - Frisco,Accent,"1235 S. Main Street, Suite 150","Grapevine, Texas",United States,76051-7547,32.935,-97.0858,#442c5c
Sona Med Spa - Glenn Allen,Accent,10710 Sikes Place,"Charlotte, North Carolina",United States,28277-8182,35.2238,-80.8411,#442c5c
Sona Med Spa - Midlothian,Accent,"10710 Sikes Place, Suite # 120","Charlotte, North Carolina",United States,28277,35.2238,-80.8411,#442c5c
Sona Med Spa - Oakbrook North,Accent,1200 Harger Road # 330,"Oak Brook, Illinois",United States,60523,41.8329,-87.9287,#442c5c
"Sona Med Spa Brentwood, TN",Accent,"10710 Sikes Pl., Ste 120","Charlotte, North Carolina",United States,28277-8182,35.2238,-80.8411,#442c5c
Sona Med Spa- Houston,Accent,5955 Carnegie Blvd,"Charlotte, North Carolina",United States,28209,35.2238,-80.8411,#442c5c
Sona Med Spa Raleigh*,Accent,9104 Falls of Neuse Rd. Suite 310,"Raleigh, North Carolina",United States,27615,35.7806,-78.6389,#442c5c
Sona Med Spa San Mateo,Accent,1510 Fashion Island Blvd Ste 100,"San Mateo, California",United States,94404,37.5472,-122.3144,#442c5c
Sona Med Spa- Sugarland TX,Accent,"10710 Sikes Pl., Ste 120","Charlotte, North Carolina",United States,28277-8182,35.2238,-80.8411,#442c5c
Sona Med Spa-Greensboro,Accent,628 Green Valley Road Suite 408,"Greensboro, North Carolina",United States,27408,36.08,-79.8194,#442c5c
Sona Med Spa-Lake Norman-Huntersville,Accent,10710 Sikes Place - Suite #120,"Charlotte, North Carolina",United States,28277,35.2238,-80.8411,#442c5c
Sona Medspa - Memphis,Accent,6075 Poplar Ave.,"Memphis, Tennessee",United States,38119,35.1174,-89.9711,#442c5c
Sona MedSpa- Coral Gables,Accent,6 Aragon Ave,"Coral Gables, Florida",United States,33134,25.75,-80.2711,#442c5c
Sona MedSpa- The Woodlands,Accent,10710 Sikes Place #120,"Charlotte, North Carolina",United States,28211,35.2238,-80.8411,#442c5c
Sona MedSpa-Grapevine,Accent,"1235 S. Main Street, Suite 150","Grapevine, Texas",United States,76051-7547,32.935,-97.0858,#442c5c
Sono GioventÃ¹ Medical Spa,Accent,329 East Main Street,"Smithtown, New York",United States,11787,40.8628,-73.2153,#442c5c
Sounsan Medspa,Accent,3231 Audley,Houston,United States,77098,29.7628,-95.3831,#442c5c
SourceMD: Integrated Wellness Solutions,Accent,345 Saxony Road,"Encinitas, California",United States,92024,33.0444,-117.2717,#442c5c
South Carolina Surgical,Accent,3045 St. Matthews Rd,"Orangeburg, South Carolina",United States,29118,33.4874,-80.8639,#442c5c
South Coast Dermatology,Accent,"90 Libbey Industrial Parkway, Suite #200","Weymouth, Massachusetts",United States,02189-3157,42.2208,-70.9403,#442c5c
South Florida Dermatology (Coral Gables),Accent,401 Miracle Mile,"Coral Gables, Florida",United States,33134,25.75,-80.2711,#442c5c
South Lake Medical Center,Accent,1950 Hospital View Way,"Clermont, Florida",United States,34711,28.5475,-81.7494,#442c5c
South Shore Laser Inc.,Accent,98 East Main Street,"Babylon, New York",United States,11702,40.6944,-73.3294,#442c5c
South Texas Family Medicine and Urgent Care,Accent,"10223 McAllister Fwy",San Antonio,United States,78216-4664,29.4167,-98.5,#442c5c
Southeastern Dermatology Consultants,Accent,1930 Pinnacle Pointe Way,"Knoxville, Tennessee",United States,37922,35.9626,-83.9167,#442c5c
Southern Beauty Aesthetics,Accent,3322 Highway 153,"Piedmont, South Carolina",United States,29673,34.7012,-82.4653,#442c5c
Southern California Eye Physicians And Surgeons,Accent,2840 Long Beach Blvd Suite 330,"Long Beach, California",United States,90806,33.7683,-118.1956,#442c5c
Southern Grace Pain and Regenerative Medicine,Accent,3520 Park Ave Blvd Suite 105,"Mount Pleasant, South Carolina",United States,29466,32.7904,-79.8765,#442c5c
Southern Lung Specialists,Accent,754 1st St Suite 207,"Macon, Georgia",United States,31201,32.8381,-83.6705,#442c5c
Southlake Dermatology,Accent,1170 North Carroll Avenue,"Southlake, Texas",United States,76092-5306,32.9467,-97.1453,#442c5c
Southwest Institute of Natural Aesthetics,Accent,1538 E Southern Ave,"Tempe, Arizona",United States,85282,33.4294,-111.9431,#442c5c
Spa Asteria,Accent,6443 North Business Park Loop Road,"Park City, Utah",United States,84098,40.6594,-111.4997,#442c5c
Spa at Willow Bend,Accent,6101 Chapel Hill Blvd. Suite 202,"Plano, Texas",United States,75093,33.0197,-96.6992,#442c5c
Spa Blue Orlando,Accent,7565 W Sand Lake Rd,"Orlando, Florida",United States,32819-5109,28.5383,-81.3789,#442c5c
Spa Cosmetica (Dermatology Consultant of South Florida),Accent,3971 Northwest 101st Drive,"Coral Springs, Florida",United States,33065,26.2725,-80.2542,#442c5c
Spa in the City,Accent,10119 Crestover Cir.,Dallas,United States,75229-6111,32.7758,-96.7967,#442c5c
Spa Lumina,Accent,74 Cedar Pointe Dr,Barrie,Canada,L4N 5R7,44.3893,-79.6855,#442c5c
Spa O2 dba O2 Integrateive Medicine,Accent,"1701 Legacy Drive, Suite 100","Frisco, Texas",United States,75034,33.1414,-96.8131,#442c5c
Spa Rhea,Accent,656 East 11400 South,"Draper, Utah",United States,84020,40.525,-111.8642,#442c5c
Spark MD,Accent,2402 West Jefferson Street,"Boise, Idaho",United States,83702,43.6158,-116.2016,#442c5c
Sparrow Integrative Health,Accent,9508 Fairview Avenue,"Boise, Idaho",United States,83704,43.6158,-116.2016,#442c5c
"Speight Family Medical, LLC",Accent,76 Tabb Dr. Suite E,"Munford, Tennessee",United States,38058,35.4496,-89.8172,#442c5c
Spencer Family Medicine,Accent,650 Henderson Dr,"Cartersville, Georgia",United States,30120-3760,34.1639,-84.8,#442c5c
Spero Medical LLC,Accent,"355 W. Dundee Rd., Ste 219","Buffalo Grove, Illinois",United States,60089,42.1519,-87.9668,#442c5c
Spine And Pain Medicine Center,Accent,"8811 State Road 52, Suite #21","Hudson, Florida",United States,34667,28.3611,-82.6872,#442c5c
Spitale Laser Spa Salon,Accent,59 Celebration Drive,"Rochester, New York",United States,14620-2664,43.1656,-77.6114,#442c5c
Sports and Spine Institute,Accent,"2340 Patrick Henry Parkway, Unit 150","McDonough, Georgia",United States,30253,33.447,-84.1464,#442c5c
Springer Wellpath,Accent,17 Executive Park Drive NE,Atlanta,United States,30329,33.7485,-84.3915,#442c5c
Springville Dermatology,Accent,732 North Main St,"Springville, Utah",United States,84663,40.1652,-111.6106,#442c5c
SRS Dermatology,Accent,11 Irving PLace,"Woodmere, New York",United States,11598,40.6361,-73.7194,#442c5c
St. Croix Women's Center dba St. Croix Women's Center,Accent,dba St. Croix Obstetrics & Women's Health,"Hudson, Wisconsin",United States,54016,44.9792,-92.7571,#442c5c
Starwood Med Spa,Accent,,"Frisco, Texas",United States,75034,33.1414,-96.8131,#442c5c
Starz Laser,Accent,227 B Pinehouse Dr,Saskatoon,Canada,S7K 6N9,52.1333,-106.6833,#442c5c
Stella Capri Wellness,Accent,7324 E. 6th Ave,"Scottsdale, Arizona",United States,85251,33.5,-111.9333,#442c5c
Stellar Medical Aesthetics LLC,Accent,1840 E Warner Rd Ste 135,"Tempe, Arizona",United States,85284,33.4294,-111.9431,#442c5c
"Stephen C. McNeese, M.D., Inc.",Accent,"2701 W. ALameda Ave., #602","Burbank, California",United States,91505-4411,34.1821,-118.3075,#442c5c
Stirling Skin Care,Accent,"1300 East A Street","Casper, Wyoming",United States,82601,42.8347,-106.325,#442c5c
Strauts Vein And Laser Clinic,Accent,136-1959 152nd Street,"Surrey, British Columbia",Canada,V4A 9E3,49.1046,-122.8235,#442c5c
Studio Esthetique Cosmetic Laser Center,Accent,470 Mamaromeck Ave.,"White Plains, New York",United States,10605-1830,41.04,-73.7786,#442c5c
Studio Laser,Accent,114 Bonin Street,Rayside-Balfour,Canada,P0M 1L0,46.5686,-81.1533,#442c5c
Studio Skin Restoration,Accent,2721 Quance St,"Regina, Saskatchewan",Canada,S4V 3B9,50.4547,-104.6067,#442c5c
Su Yan MD,Accent,824 N Diamond bar Blvd,"Diamond Bar, California",United States,91765,34.0017,-117.8208,#442c5c
Suburban Eyes Clinic,Accent,500 davis st,"Evanston, Illinois",United States,60201,42.0464,-87.6947,#442c5c
Suburban Healthcare,Accent,13415 S Route 59,"Plainfield, Illinois",United States,60585,41.6172,-88.2028,#442c5c
Suddenly Slimmer Med Spa,Accent,3313 E. Indian School Rd,"Phoenix, Arizona",United States,85018-5013,33.45,-112.0667,#442c5c
Summit Spa and Float,Accent,63 E 800 N,"Spanish Fork, Utah",United States,84660,40.1044,-111.64,#442c5c
"Sumrall, Arthur MD",Accent,"8803 N. Meridian Street, Suite 300",Indianapolis,United States,46260,39.791,-86.148,#442c5c
SUNMED Health and Weight Management,Accent,"5510 Ave de los Robles","Visalia, California",United States,93291,36.3301,-119.2989,#442c5c
Sunrise Family Healthcare Inc,Accent,"2035 Mesquite Ave ","Lake Havasu City, Arizona",United States,86403,34.49,-114.3089,#442c5c
Sunset Med Spa,Accent,17200 NW Corridor Ct #105,"Beaverton, Oregon",United States,97006,45.4869,-122.8036,#442c5c
"Susan M. Mathison, M.D.",Accent,2700 12th Ave SW Ste D,"Fargo, North Dakota",United States,58103,46.877,-96.7846,#442c5c
Susan Powell,Accent,1756 Picasso Ave. Ste E,"Davis, California",United States,95618,38.5539,-121.7381,#442c5c
Sylvester Medical Center Inc,Accent,"2705 S Berkley, Suite 2A","Kokomo, Indiana",United States,46902,40.4822,-86.1317,#442c5c
Symbios Medical Services,Accent,"460 William Hilton Parkway","Hilton Head Island, South Carolina",United States,29926-2497,32.1789,-80.7431,#442c5c
Symphony Med Spa,Accent,2376 N 400 E Suite 103,"Tooele, Utah",United States,84074,40.5364,-112.2978,#442c5c
Tamid Medical Group DBA NuAge Medical Spa,Accent,1105 Milwaukee Ave,"Riverwoods, Illinois",United States,60015,42.1675,-87.897,#442c5c
Tan Spa Inc.,Accent,675 Yonge Street,Toronto,Canada,M4Y 2B2,43.6519,-79.3817,#442c5c
Terrence Hack MD,Accent,166 Carmelito Ave,"Monterey, California",United States,93940,36.6,-121.9,#442c5c
"Tesoro, Leonard MD",Accent,2709 Cornerstone,"Edinburg, Texas",United States,78539,26.3042,-98.1639,#442c5c
Texas Center for Obesity,Accent,6020 W. Parker Road,"Plano, Texas",United States,75093,33.0197,-96.6992,#442c5c
Texas Institute of Dermatology,Accent,24165 West IH-10,San Antonio,United States,78257-1162,29.4167,-98.5,#442c5c
The Aesthetic Edit,Accent,1909 Stirling St,"Leander, Texas",United States,78641,30.5611,-97.8603,#442c5c
The Aesthetics and Laser Clinic,Accent,1114 Victoria Ave East,Thunder Bay,Canada,P7C 1B8,48.3822,-89.2461,#442c5c
The Aesthetics Lab,Accent,4014 West Estrella Street Suite A,"Tampa, Florida",United States,33629,27.9474,-82.4588,#442c5c
The Aurora Medical Laser and Vein Centre,Accent,3617 50th Avenue,"Red Deer, Alberta",Canada,T4N 3Y5,52.269,-113.809,#442c5c
The Beauty Beneath LLC,Accent,"505 Corporate Center Dr","Vandalia, Ohio",United States,45377-1168,39.8797,-84.1936,#442c5c
The Beauty Spot LLC,Accent,433 Vivian St,"Longmont, Colorado",United States,80501,40.1717,-105.1092,#442c5c
The Carney Center,Accent,1868 Wildwood Drive,"Washington, Virginia",United States,23454-3124,38.7135,-78.1598,#442c5c
The Center for Cosmetic Surgery,Accent,"2311 M St NW, Ste 503","Washington, Virginia",United States,20037,38.7135,-78.1598,#442c5c
The Chiro Spa,Accent,"910 Johnnie Dodds Boulevard, STE 130","Mount Pleasant, South Carolina",United States,29464,32.7904,-79.8765,#442c5c
The Clinic of Gadsden,Accent,1401 Rainbow Dr Suite B,"Gadsden, Alabama",United States,35901,34.0101,-86.0104,#442c5c
The Cosmetic Dentist of Naples,Accent,"1044 Castello Dr.","Naples, Florida",United States,34103-8981,26.15,-81.8,#442c5c
The Dermatology Clinic,Accent,901 West Main Street Suite 201,"Freehold Township, New Jersey",United States,7728,40.2358,-74.2967,#442c5c
"The Dermatology Clinic, PLLC",Accent,11295 East Taylor Rd.,"Gulfport, Mississippi",United States,39503-4197,30.3698,-89.0915,#442c5c
The Diamond Face Institute,Accent,"9400 Brighton Way, Penthouse Suite","Beverly Hills, California",United States,90210-4714,34.0803,-118.4047,#442c5c
The ENT Center of New Braunfels,Accent,,"New Braunfels, Texas",United States,78130,29.7,-98.1167,#442c5c
The Facial Place,Accent,1084 Brock Road,"Pickering, Ontario",Canada,L1W 4B6,43.8354,-79.089,#442c5c
THE FACIAL STUDIO CANADA,Accent,367 Bankside Dr,"Kitchener, Ontario",Canada,N2N 3K1,43.4498,-80.4891,#442c5c
The Fig Med Spa,Accent,8921 S Yale Ave,"Tulsa, Oklahoma",United States,74137-3515,36.1314,-95.9372,#442c5c
The First Glance Aesthetics Clinic and Surgery Centre,Accent,3680 Roblin Blvd,Winnipeg,Canada,R3R 0E1,49.8994,-97.1392,#442c5c
The Glow Medical Spa,Accent,2239 East Garvey Avenue North,"West Covina, California",United States,91791,34.0567,-117.9186,#442c5c
The Gynecology Center,Accent,598 Sterthaus Drive,"Ormond Beach, Florida",United States,32174,29.2808,-81.0827,#442c5c
The Kaga Academy of Aesthetic and Concierge Medicine,Accent,830 Broad St,"Shrewsbury, New Jersey",United States,7702,40.3261,-74.0597,#442c5c
The Laser And Cosmetic Center,Accent,652 N. Santa Cruz Ave,"Los Gatos, California",United States,95030,37.2361,-121.9617,#442c5c
The Laser Genie,Accent,215 S La Cienega Blvd,"Beverly Hills, California",United States,90211,34.0803,-118.4047,#442c5c
The Laser Spa,Accent,2240 Monroe Ave.,"Rochester, New York",United States,14618,43.1656,-77.6114,#442c5c
The Lombardi Plastic Surgery Center,Accent,32 Corbett Way,"Eatontown, New Jersey",United States,7724,40.3046,-74.0597,#442c5c
"The Martin Center, Inc",Accent,4621 Morrison Dr.,"Mobile, Alabama",United States,36609-3353,30.6889,-88.0448,#442c5c
The Medical Spa Fresno,Accent,680 W Shaw Ave Suite 101,"Fresno, California",United States,93704,36.7317,-119.7859,#442c5c
The Metropolitan Clinic LLC,Accent,7300 France Ave. South #300,"Edina, Minnesota",United States,55435-4543,44.9105,-93.3487,#442c5c
The Museum Spa and Laser Center,Accent,3633 Harden Road,"Raleigh, North Carolina",United States,27607,35.7806,-78.6389,#442c5c
The Paris Laser Clinic,Accent,10970 Bramalea Rd. Unit 11,Brampton,Canada,L6R 3X1,43.6833,-79.7667,#442c5c
The Pearl Medspa,Accent,9550 S. Eastern Ave. Suite 237,"Henderson, Nevada",United States,89123,36.0292,-115.0253,#442c5c
The Remedy,Accent,619 10th Street,"Gothenburg, Nebraska",United States,69138,40.9317,-100.1594,#442c5c
The Sanctuary,Accent,215 N Main Street,"Pennington, New Jersey",United States,8534,40.3281,-74.791,#442c5c
The Shot Shop,Accent,722 Bliss Rd,"East Longmeadow, Massachusetts",United States,1106,42.0646,-72.5129,#442c5c
The Skin  Apothecary,Accent,11104 W State St,"Star, Idaho",United States,83669-5216,43.6942,-116.4903,#442c5c
The Skin Clinic Med Spa,Accent,1603 N Riverfront Dr,"Mankato, Minnesota",United States,56001-3258,44.1667,-94,#442c5c
THE SPA AT SPRING RIDGE/ Proseperpi-Schlechter Center for Plastic Surgery,Accent,Dr. Benjamin Schlechter,"Wyomissing, Pennsylvania",United States,19610,40.3328,-75.9647,#442c5c
The Spa at West Ashley Wellness,Accent,2 Carriage Lane,"Charleston, South Carolina",United States,29407,32.7831,-79.9344,#442c5c
"The Spa Clinic, LLC",Accent,611 South Carlin Springs Rd.,"Gainesville, Virginia",United States,22204,38.7947,-77.6206,#442c5c
The Spa Club Orleans,Accent,2211 St. Joesph Blvd,Ottawa,Canada,K1C 7C5,45.4204,-75.6924,#442c5c
The Spa Club Oshawa,Accent,1330 Ritson Rd N,Oshawa,Canada,L1G 6Z6,43.9,-78.85,#442c5c
The Sports and Spine Center,Accent,"7654 SW Mohawk Street","Tualatin, Oregon",United States,97062,45.3795,-122.7617,#442c5c
The Ultimate Tan and Med Spa L.L.C.,Accent,21785 SW TV Highway,"Aloha, Oregon",United States,97006,45.4903,-122.8719,#442c5c
The Woodruff Institute (3rd Ave),Accent,1333 3rd Avenue South #201,"Naples, Florida",United States,34102,26.15,-81.8,#442c5c
The Woodruff Institute (Venetian Ct),Accent,2235 Venetian Court,"Naples, Florida",United States,34109,26.15,-81.8,#442c5c
Thermae Advanced Aesthetics,Accent,14B 22 Richard Way SW,Calgary,Canada,T3E 7M9,51.0473,-114.058,#442c5c
Thirst IV Hyrdation,Accent,4233 South 175th St,"Omaha, Nebraska",United States,68135,41.25,-96,#442c5c
Three Lakes Medical Aesthetics,Accent,211 Saint Clair Street,Chatham-Kent,Canada,N7L 3J4,42.4,-82.1833,#442c5c
Thrive Med Spa & Wellness,Accent,1177 Queen St,Honolulu,United States,96814,21.3099,-157.8582,#442c5c
Thrive Medical Spa,Accent,3000 N. Halsted,Chicago,United States,60657-5188,41.8832,-87.6324,#442c5c
Timarron Family Medicine,Accent,200 Pecan Creek,"Southlake, Texas",United States,76092,32.9467,-97.1453,#442c5c
Timeless Age Medical,Accent,800 East Hallandale Beach Boulevard #15,"Hallandale Beach, Florida",United States,33009,25.9867,-80.1461,#442c5c
Timeless Beauty,Accent,1211 East Broward Boulevard,"Fort Lauderdale, Florida",United States,33301,26.1242,-80.1436,#442c5c
Tina Singh,Accent,23 Observatory Lane TH234,"Richmond Hill, Ontario",Canada,L4C 0A5,43.8849,-79.4304,#442c5c
Titan Medical Aesthetics,Accent,"21 Highland Ave., Ste 9","Newburyport, Massachusetts",United States,1950,42.8097,-70.8767,#442c5c
Tonic Salon Spa,Accent,3613 Boulevard Saint-Laurent,Montreal,Canada,H2X 2V5,45.5091,-73.5534,#442c5c
Total Body Solutions,Accent,5128 East 88th Court,"Tulsa, Oklahoma",United States,74137,36.1314,-95.9372,#442c5c
"Total Primary Care, LLC",Accent,"5701 West 119th St, STE 150","Overland Park, Kansas",United States,66209,38.9822,-94.6708,#442c5c
Total Skin Management,Accent,1039 W Sterlington Pl,"Apex, North Carolina",United States,27502,35.7319,-78.8528,#442c5c
Totally Spoiled,Accent,240 W 28th St,Houston,United States,77008,29.7628,-95.3831,#442c5c
"Tranquil Waters Med Spa, PLLC",Accent,6510 S. Higley Rd,"Gilbert, Arizona",United States,85298,33.35,-111.7892,#442c5c
Transcend Medi Spa,Accent,131 Carmichael Rd. #204,"Hudson, Wisconsin",United States,54016-8271,44.9792,-92.7571,#442c5c
Transformations Skin Care Center,Accent,416 McCullough Drive,"Charlotte, North Carolina",United States,28262,35.2238,-80.8411,#442c5c
Transforming Image LLC,Accent,"2901 West St. Isabel Street, Suite D","Tampa, Florida",United States,33607,27.9474,-82.4588,#442c5c
Tri Cities Skin And Cancer - Greeneville,Accent,1404 Tusculum BlvdSTE 1100,"Greeneville, Tennessee",United States,37745,36.1622,-82.8315,#442c5c
Tri Valley Medical Center,Accent,1081 Market PL #200,"San Ramon, California",United States,94583,37.78,-121.9781,#442c5c
Triangle Laser and Aesthetics,Accent,9700 Brimhall Rd,"Bakersfield, California",United States,93312,35.3667,-119.0167,#442c5c
Tri-city Family Care,Accent,100 NW 16th Street,"Newcastle, Oklahoma",United States,73065,35.2403,-97.5914,#442c5c
Trikhos by Sergio Cardona,Accent,Forest Hills B1 Calle 25,"Bayamón, Puerto Rico",United States,959,18.38,-66.1633,#442c5c
Trilogy Medical Center,Accent,7001 900 E #100,"Midvale, Utah",United States,84047,40.6139,-111.8883,#442c5c
Trilogy Medical Inc.,Accent,"4105 Soquel Drive, Suite A","Soquel, California",United States,95073,36.9881,-121.9574,#442c5c
Trim Care,Accent,5052 S Jones Blv STE 145,Las Vegas,United States,89118,36.1691,-115.1406,#442c5c
Trina Raes Laser And Aesthetics,Accent,1480 E. Bethany Home Rd. Suite 230,"Phoenix, Arizona",United States,85014,33.45,-112.0667,#442c5c
Trinity Aesthetics and Laser LLP,Accent,P.O. Box 171013,"Arlington, Texas",United States,76003,32.7356,-97.1071,#442c5c
"Trio Equipment, LLC dba Trio Med Spa",Accent,4812 Lakeland Dr.,"Flowood, Mississippi",United States,39232-8694,32.3167,-90.1147,#442c5c
Tru Health Clinic & Med spa,Accent,2707 parkland boulevard #3,"Pleasant View, Utah",United States,84404,41.3217,-111.9983,#442c5c
Truex Bluex Salon And Spa,Accent,2038 West Division,Chicago,United States,60622,41.8832,-87.6324,#442c5c
Truly You Hair Solution Centre Inc.,Accent,"1225 Queensway East,  Unit 34",Mississauga,Canada,L4Y 0G4,43.6,-79.65,#442c5c
"Tuan Anh Tran MD, MBA",Accent,10760 Warner AveSte 201,"Fountain Valley, California",United States,92708,33.7107,-117.9457,#442c5c
U Cosmetic Inc.,Accent,1324 Princess Street,"Kingston, Ontario",Canada,K7M 3E2,44.2305,-76.4812,#442c5c
Ultimate Natural Beauty and Skin Care,Accent,#119 2030 Marine Dr,North Vancouver,Canada,v7p1v7,49.3167,-123.0667,#442c5c
Unger Medical PC,Accent,710 Park Avenue Suite 1A,New York City,United States,10021,40.713,-74.0072,#442c5c
Uniprix,Accent,914 Maloney Est,Gatineau,Canada,J8P 1H5,45.491,-75.6592,#442c5c
Unique Laser And Skin Care Clinic,Accent,8857 Credit View Road,Brampton,Canada,L6Y 2X8,43.6833,-79.7667,#442c5c
Unity Med Spa,Accent,1130 East Fairview Avenue,"Meridian, Idaho",United States,83642,43.6142,-116.3989,#442c5c
Unity Medical Clinic,Accent,2055 s. Pacheco St #300,"Santa Fe, New Mexico",United States,87505,35.6672,-105.9644,#442c5c
Univ. of Pennsylvania,Accent,3600 Spruce St 2 Maloney Bldg.,Philadelphia,United States,19104,39.95,-75.1667,#442c5c
Upstream Medical Care LLC,Accent,212 Johnny Mercer Blvd,"Savannah, Georgia",United States,31410,32.0167,-81.1167,#442c5c
"Urban Dermatology, PLLC",Accent,"594 Broadway, Suite #310",New York City,United States,10012,40.713,-74.0072,#442c5c
Valerie A. Stern,Accent,2135 E. 7th Place,Los Angeles,United States,90021,34.0522,-118.2433,#442c5c
Valley Rehab And EMG,Accent,1414 N Vercler #3,"Spokane, Washington",United States,99216,47.6589,-117.425,#442c5c
Valorie Ammann MD,Accent,4819 Kilauea Ave #6,Honolulu,United States,96816,21.3099,-157.8582,#442c5c
"Vancouver Laser and Skin Care Centre, Inc.",Accent,1128 West Georgia #5204,Vancouver,Canada,V6E 0A8,49.2636,-123.1386,#442c5c
VanderVeer LLC,Accent,6650 SW Redwood Lane Suite 150,"Portland, Oregon",United States,97224,45.52,-122.6819,#442c5c
Vania Frade,Accent,105 Rockledge Terrace,"Haledon, New Jersey",United States,7508,40.937,-74.1889,#442c5c
Vanishing Lasers Esthetics Inc.,Accent,1611-15th. Avenue,"Prince George, British Columbia",Canada,V2L3X2,53.9169,-122.7494,#442c5c
Vanishing Veins,Accent,1 Barnard Ln. Suite 201,"Bloomfield, Connecticut",United States,6002,41.85,-72.7333,#442c5c
Vanishings,Accent,111-9719 98 Avenue,Grande Prairie,Canada,T8V 8K6,55.1708,-118.7947,#442c5c
"Vanishings Laser Aesthetics (ALTA), Inc.",Accent,#111 - 9719 98th Avenue,Grande Prairie,Canada,T8V 8K6,55.1708,-118.7947,#442c5c
"Varitex Clinic, Inc.",Accent,613 N O'Connor Road. #27,"Irving, Texas",United States,75061-7566,32.8117,-96.9508,#442c5c
Vascular Institute of the Midwest,Accent,"3385 Dexter Court","Davenport, Iowa",United States,52807,41.5431,-90.5908,#442c5c
Vaughan Association of Obstetrics And Gynocology,Accent,210 S. Broad St,"Cedar Hill, Texas",United States,75104,32.5883,-96.9472,#442c5c
Vaughan Laser Beautique,Accent,145 Hawkview Blvd Unit 5,"Woodbridge, Ontario",Canada,L4H 3T7,43.7791,-79.5961,#442c5c
Vein Center of Tampa Bay,Accent,3001 North Rocky Point Drive E. Suite 125,"Tampa, Florida",United States,33607-5508,27.9474,-82.4588,#442c5c
Venus Cosmetic Surgery Arcadia Inc.,Accent,1245 West Huntington Drive,"Arcadia, California",United States,91007,34.1328,-118.0364,#442c5c
Venus Cosmetic Surgery Arcadia Inc.,Accent,1661 Hanover road,"City of Industry, California",United States,91748,34.0167,-117.95,#442c5c
Village Laser and Skin Care,Accent,945 South Collegiate,"Paris, Texas",United States,75460,33.6625,-95.5477,#442c5c
Vincent Surgical Arts,Accent,6710 Blackstone Rd #201,"Cottonwood Heights, Utah",United States,84121,40.6163,-111.8105,#442c5c
VIP Medical Centre,Accent,3300 Rutherford Rd Unit B2,Vaughan,Canada,L4K 5Z2,43.8333,-79.5,#442c5c
Visage Laser and Skincare,Accent,5636 La Palma Ave Suite C,"Anaheim, California",United States,92807,33.8345,-117.9156,#442c5c
Vita Health Medical Clinic,Accent,2117 N. Kelly Ave.,"Edmond, Oklahoma",United States,73003,35.65,-97.4667,#442c5c
Vital Aesthetics,Accent,18800 Preston Rd STE 310,Dallas,United States,75252,32.7758,-96.7967,#442c5c
Vitality MD's,Accent,8415 N. Pima Road,"Scottsdale, Arizona",United States,85258,33.5,-111.9333,#442c5c
Vitality Medical Spa,Accent,5740 NW 135th Street,Oklahoma City,United States,73142,35.4822,-97.535,#442c5c
Vixen Aesthetics,Accent,52095 Van Dyke Ave,Detroit,United States,48316,42.3329,-83.0478,#442c5c
VMediSpa,Accent,1919 Sirocco Dr SW #100,Calgary,Canada,T3H 2Y3,51.0473,-114.058,#442c5c
Vortex Esthetique,Accent,8627 rue du Tisserand,"Mirabel, Quebec",Canada,J7N 3C8,45.65,-74.0833,#442c5c
Wake Health Medical Group,Accent,13200 New Falls of Neuse Unit 113,"Raleigh, North Carolina",United States,27614,35.7806,-78.6389,#442c5c
Walla Walla Skin Care,Accent,6515 W. Clearwater Ave,"Kennewick, Washington",United States,99336,46.2026,-119.117,#442c5c
Walter Jones III MD Inc,Accent,"33423 Yucaipa Boulevard, Suite #D","Yucaipa, California",United States,92399,34.0336,-117.0431,#442c5c
"Wanda Quon, MD",Accent,300 E Main Street,"Alhambra, California",United States,91801,34.0819,-118.135,#442c5c
Wang Plastic Surgery and Med Spa,Accent,"76 North Hudson Avenue","Pasadena, California",United States,91101,34.1561,-118.1319,#442c5c
Washington Bariatric Med Center,Accent,19011 w. Valley Hwy Suite A-103,"Washington, California",United States,97225,39.3594,-120.7981,#442c5c
Weight loss And Wellness Clinic - Clemmons,Accent,2554 Lewisville Clemmons Rd #109,"Clemmons, North Carolina",United States,27012,36.0253,-80.3864,#442c5c
Weight Loss And Wellness Clinic - South Charlotte,Accent,10512 Park Road,"Charlotte, North Carolina",United States,28210,35.2238,-80.8411,#442c5c
Weight Loss And Wellness Clinic - Statesville,Accent,1893 East Broad Street,"Statesville, North Carolina",United States,28625,35.7828,-80.8874,#442c5c
Weight Loss Wellness Clinic,Accent,16507-F Northcross Drive,"Huntersville, North Carolina",United States,28078,35.4094,-80.8636,#442c5c
"Well Aging Med, Inc.",Accent,"508 Gibson Dr","Roseville, California",United States,95678,38.7525,-121.2894,#442c5c
Wellife Center,Accent,"1117 Perimeter Center W, N316","Sandy Springs, Georgia",United States,30338,33.9241,-84.3791,#442c5c
Wellspring Integrative Medicine,Accent,50 S Kyrene Rd,"Chandler, Arizona",United States,85226,33.3023,-111.8401,#442c5c
Wellspring Medical Spa and Aesthetics,Accent,115 Seward Street,"Thomasville, Georgia",United States,31792-5528,30.8364,-83.9783,#442c5c
West Coast Wellness,Accent,400 Camarillo Ranch Road,"Camarillo, California",United States,93012,34.2333,-119.0333,#442c5c
West Hudson Medical Group,Accent,816 Kearny Ave.,"Kearny, New Jersey",United States,7032,40.7537,-74.1209,#442c5c
West Texas Dermatology Center,Accent,8141 Dorado Dr.,"Odessa, Texas",United States,79765,31.8633,-102.3656,#442c5c
Weston Medical Clinic,Accent,17120 Royal Palm Boulevard,"Weston, Florida",United States,33326,26.1075,-80.3881,#442c5c
Westover Hills Dermatology,Accent,9018 Culebra Road Suite 104,San Antonio,United States,78251,29.4167,-98.5,#442c5c
Westside Laser And Light,Accent,152-30 Springborough Boulevard Southwest,Calgary,Canada,T3H ON9,51.0473,-114.058,#442c5c
Whitcomb Clinic,Accent,2801 Osler Dr.,"Grand Prairie, Texas",United States,75051,32.7455,-97.0035,#442c5c
White Orchid Spa Retreat,Accent,3500 Ocean Drive,"Vero Beach, Florida",United States,32963,27.65,-80.3833,#442c5c
Whitefish Plastic Surgery,Accent,5850 Highway 93 S,"Whitefish, Montana",United States,59937-8414,48.4117,-114.34,#442c5c
Wholesome Health Intergrated Medicine and Aesthetics,Accent,1849 Foothill Rd,"Ammon, Idaho",United States,83401-5945,43.4764,-111.9681,#442c5c
Wigwam Dental,Accent,2649 Wigwam Pkwy # 106,"Henderson, Nevada",United States,89074,36.0292,-115.0253,#442c5c
Wild Strawberry Salon Laser Clinic,Accent,3-9301 Bathurst Street,"Richmond Hill, Ontario",Canada,L4C 9S2,43.8849,-79.4304,#442c5c
Will Surgical Arts,Accent,3280 Urbana Pike #201,"Ijamsville, Maryland",United States,21754,39.3606,-77.3233,#442c5c
William Middleton,Accent,120 Spadina Road,Toronto,Canada,M5R 2T8,43.6519,-79.3817,#442c5c
"Willys Silvers, MD",Accent,PO Box 610287,"Newton, Massachusetts",United States,2461,42.3369,-71.2097,#442c5c
Winters Skin Excellence,Accent,10031 S Yale Street,"Tulsa, Oklahoma",United States,74137,36.1314,-95.9372,#442c5c
Winx Laser and Skin Care Inc.,Accent,11 Cirillo  St,Brampton,Canada,L6X 3C4,43.6833,-79.7667,#442c5c
Winyah Surgical Specialists,Accent,PO Box 868,"Pawleys Island, South Carolina",United States,29585,33.4258,-79.125,#442c5c
Wisconsin Vein Center and MediSpa,Accent,1231 George Towne Drive,"Pewaukee, Wisconsin",United States,53072-2756,43.067,-88.25,#442c5c
"Womens Healthcare Connection, Inc",Accent,"7111 Winnetka Ave., Suite 6",Los Angeles,United States,91306,34.0522,-118.2433,#442c5c
Womens Own OBGYN,Accent,180 Grand Avenue,"Englewood, New Jersey",United States,7631,40.8912,-73.9725,#442c5c
Women's Wellness Clinic,Accent,"249 E NC Highway 54","Durham, North Carolina",United States,27713,35.9886,-78.9072,#442c5c
Xanadu Med Spa,Accent,"2244 East Harmony Road ","Fort Collins, Colorado",United States,80528,40.5592,-105.0781,#442c5c
Xpressive Beauty And Co.,Accent,89 Valley Creek Drive,Brampton,Canada,L6T 2C9,43.6833,-79.7667,#442c5c
"Yakov Levy M.D., PC",Accent,"70-31 A 108 Street","Forest Hills, Queens",United States,11375,40.7161,-73.85,#442c5c
"Yee, Suzanne MD",Accent,12600 Cantrell Rd suite 100,"Little Rock, Arkansas",United States,72223-1604,34.7361,-92.3311,#442c5c
York Vein  Laser Clinic,Accent,647 Davis Drive,"Newmarket, Ontario",Canada,L3Y 2R2,44.0602,-79.4558,#442c5c
Young Skin Dermatology,Accent,123 High Ridge Rd,"Stamford, Connecticut",United States,06905-3811,41.0519,-73.5395,#442c5c
Your Laser Center,Accent,565 Greenfield Rd. Suite 101,"Lancaster, Pennsylvania",United States,19601,40.0394,-76.3071,#442c5c
Yuva Aesthetics And Wellness,Accent,27 Stadbrooke Way SW,Calgary,Canada,T3H 1Y2,51.0473,-114.058,#442c5c
Yves Hebert,Accent,451 Mountain Avenue,Westmount,Canada,H3Y3G1,45.4843,-73.6013,#442c5c
"Zein Obagi, MD, Inc",Accent,270 North Canon Drive STE 100,"Beverly Hills, California",United States,90210,34.0803,-118.4047,#442c5c
ZenSations Spa,Accent,26800 S Tamiami Trail,"Bonita Springs, Florida",United States,34134,26.3497,-81.7908,#442c5c
"Zimmerman, Edward M., M.D. PC",Accent,8930 W. Sunset Rd. Suite #140,Las Vegas,United States,89148-5008,36.1691,-115.1406,#442c5c
Zinnia Aesthetics,Accent,"9862 Main Street","Washington, Virginia",United States,22031,38.7135,-78.1598,#442c5c
Zodiac Spa & Wellness,Accent,5147 West Ryegate Drive,"Herriman, Utah",United States,84096,40.5067,-112.0308,#442c5c
"Kovak Medical Services, Inc. DBA Midwest Dermatologic Laser And Vein Centre",Accent/vShape Family,"1200 S. York Road, Ste 4180","Elmhurst, Illinois",United States,60126,41.9021,-87.94,#442c5c
Rochon And Racicot,Accent/vShape Family,381 Kent Street Suite 508,Ottawa,Canada,K2P 2A8,45.4204,-75.6924,#442c5c
