Account Name,Product Family,Billing Address Line 1,Billing City/State,Billing Country,Billing Zip/Postal Code,Latitude,Longitude
1033940 Alberta Ltd DBA Century Wellness,Opus,4624 16 Ave NW Unit 3,Calgary,Canada,T3B 0M8,51.0473,-114.0580
2208362 Ontario Inc. O/A Wardenwood Health Centre Inc,Opus,549 Bur Oak Ave.,"Markham, Ontario",Canada,L6C 3E5,43.8833,-79.2500
413 Medical Aesthetics,Opus,413 Codrington St,Barrie,Canada,L4M 1S9,44.3893,-79.6855
457 Bayfront Aesthetics,Opus,1729 Heritage Trail #904,"Naples, Florida",United States,34112,26.1500,-81.8000
615 Aesthetics LLC,Opus,"615 Bakers Bridge Avenue, Ste 145","Franklin, Tennessee",United States,37067,35.9292,-86.8575
805 Dentistry,Opus,361 E. Thousand Oaks Blvd,"Thousand Oaks, California",United States,91360,34.1894,-118.8750
A Beautiful You Medical Spa,Opus,6750 Poplar Ave Suite 202,"Memphis, Tennessee",United States,38138-7414,35.1174,-89.9711
A E and SNY Center,Opus,"5781 Bridge St","East Syracuse, New York",United States,13057-2944,43.0644,-76.0703
About Face Aesthetic Boutique,Opus,1313 Clove Rd,Staten Island,United States,10301,40.5808,-74.1528
About Faces Cosmetic Surgery,Opus,5940 N La Cholla Blvd,"Tucson, Arizona",United States,85741-3535,32.2217,-110.9264
"Abraham Eskenazi, MD",Opus,3229 Erie Street,San Diego,United States,92117,32.7150,-117.1625
Abraham Eye Associates,Opus,795 East Lancaster Avenue STE 3B,"Villanova, Pennsylvania",United States,19085,40.0380,-75.3444
Absolute Aesthetics,Opus,8619 Reseda Boulevard Suite 104,Los Angeles,United States,91324,34.0522,-118.2433
Absolute Aesthetics,Opus,16517 Spruce Way,"Lynnwood, Washington",United States,98037,47.8240,-122.2924
Access Medspa Rejuvenate,Opus,9470 Annapolis Rd,"Lanham, Maryland",United States,20706,38.9669,-76.8619
AcuCare Total Health,Opus,750 Fletcher Dr,"Elgin, Illinois",United States,60123,42.0406,-88.2551
AcuLaser Body Contouring,Opus,441 S Independence Blvd #6,"Washington, Virginia",United States,23452-1126,38.7135,-78.1598
Advanced Body And Laser Center,Opus,115 N Akers Street,"Visalia, California",United States,93291-5122,36.3301,-119.2989
Advanced Health of Oakbrook,Opus,17W705 Butterfield Rd,"Oakbrook Terrace, Illinois",United States,60181-4363,41.8536,-87.9683
Advanced Integrative Medical,Opus,6965 South Union Park Center,"Cottonwood Heights, Utah",United States,84047,40.6163,-111.8105
Advanced Skin Care and Laser Center PC,Opus,120 West Park Dr,"Grand Junction, Colorado",United States,81505,39.0667,-108.5667
Aesthetic FX,Opus,12021 Dallas Parkway Suite 600,"Frisco, Texas",United States,75033-3605,33.1414,-96.8131
Aesthetica Med LLC,Opus,114 N Elizabeth St,Chicago,United States,60607-1666,41.8832,-87.6324
Aesthetica Medical Spa,Opus,1865 W Pleasant Grove Blvd Suite A,"Pleasant Grove, Utah",United States,84062,40.3703,-111.7314
Aesthetique Medical,Opus,1710 S Wells Ave Suite 110,"Meridian, Idaho",United States,83642,43.6142,-116.3989
Ageless Medical Aesthetics,Opus,1620 E Pershing Blvd,"Cheyenne, Wyoming",United States,82001-3238,41.1402,-104.8188
Ageless Skin and Laser Center,Opus,222 E Oak Ridge Dr Suite 1700,"Hagerstown, Maryland",United States,21740-7882,39.6396,-77.7189
Aglow Aesthetics,Opus,16152 Beach Boulevard East,"Huntington Beach, California",United States,92647-3864,33.6598,-117.9993
Ajanamjot K Grewal md (Glotox MD),Opus,11710 E Santa Ana Ave,"Clovis, California",United States,93619-9488,36.8253,-119.7031
AJC Medical Aesthetics,Opus,"1611 Jones Franklin Road, STE 105","Raleigh, North Carolina",United States,27606-3376,35.7806,-78.6389
Alainn Medical Aesthetics,Opus,"18 North Rd., #2D","Bedford, Massachusetts",United States,01730,42.4906,-71.2767
Albert Chan M.D.,Opus,2301 Maple Ave,"South Plainfield, New Jersey",United States,07080,40.5744,-74.4148
Albuquerque Vein and Laser Institute PC,Opus,5110 Masthead st. NE suite C,"Albuquerque, New Mexico",United States,87109,35.1107,-106.6100
Alchemy MedSpa and Wellness Center,Opus,"200 Manufacturers Rd","Chattanooga, Tennessee",United States,37405,35.0456,-85.2672
Alkhalifa Group- Dr. Dawood,Opus,3990 Valley BLVD,"Walnut, California",United States,91789,34.0333,-117.8667
All About Beautiful Smiles,Opus,8665 W Flamingo Rd Ste 104,Las Vegas,United States,89147,36.1691,-115.1406
All About You Solutions,Opus,23 Village Inn Road,"Westminster, Massachusetts",United States,01473,42.5458,-71.9111
Allegra Family Clinic,Opus,1116 Mitt Lary Road,"Northport, Alabama",United States,35475,33.2343,-87.5767
Alliance Family Dentistry,Opus,8801 Tamiami Trail North,"Naples, Florida",United States,34108,26.1500,-81.8000
Allurant Regenerative Medical Spa,Opus,"3860 Valley Centre Dr.",San Diego,United States,92130,32.7150,-117.1625
Allure Laser and Med Spa,Opus,7151 183rd St.,"Tinley Park, Illinois",United States,60477,41.5739,-87.8039
Allure Med Spa,Opus,400 S Miller Ave,"Gillette, Wyoming",United States,82716,44.2828,-105.5053
Alma Inc,Opus,485 Half Day Road,"Buffalo Grove, Illinois",United States,60089,42.1519,-87.9668
Alpha Lan Medspa,Opus,11800 Northfall Lane,"Alpharetta, Georgia",United States,30009-7976,34.0733,-84.2811
Alpine Dermatology Clinic,Opus,1049 Summers Drive,"Rexburg, Idaho",United States,83440,43.8167,-111.7833
"Alpine Health and Wellness Clinic MT, LLC",Opus,1825 U.S. 93 S Ste A,"Kalispell, Montana",United States,59901,48.1978,-114.3161
Alpine Laser Clinic,Opus,205 E. Chambers Avenue,"Eagle, Colorado",United States,81631,39.6543,-106.8236
Alpine Plastic Surgery,Opus,5405 S Adams Ave Pkwy,"Ogden, Utah",United States,84405,41.2228,-111.9704
Alvorada Dentistry,Opus,13922 Estate Manor Dr,"Gainesville, Virginia",United States,20155-5951,38.7947,-77.6206
Amanda Family Dental,Opus,145 West Main Street,"Amanda, Ohio",United States,43102,39.6509,-82.7513
Amanda Family Dental,Opus,128 east 2nd street,"Powell, Wyoming",United States,82435,44.7589,-108.7583
Amazing Skin Care,Opus,,"Allentown, Pennsylvania",United States,18103,40.6028,-75.4698
"Amour Medical David G. Alonso, MD",Opus,564 Rio Lindo Ave Suite 100,"Chino, California",United States,95926-1852,34.0178,-117.6900
Amplify Aesthetics,Opus,116 Morefield Way,"Mechanicsburg, Pennsylvania",United States,17050,40.2133,-77.0080
Anantuni Family Dental,Opus,5590 W. Chandler Blvd. #1,"Chandler, Arizona",United States,85226,33.3023,-111.8401
Andrew Marlowe MD,Opus,5432 Bee Ridge Rd,"Sarasota, Florida",United States,34233,27.3372,-82.5353
Anti Aging LYFE Solutions LLC,Opus,3726 Roswell Rd NE,Atlanta,United States,30342,33.7485,-84.3915
ApexDentistry - Charles J. Boettcher DDS,Opus,520 W Leota Street,"North Platte, Nebraska",United States,69101,41.1325,-100.7640
APOLLO HEALTH PLLC,Opus,5401 32nd Avenue,"Gig Harbor, Washington",United States,98335,47.3351,-122.5828
"Apollo Wellness Group, LLC dba Back to Health",Opus,5005 E Stop 11 Rd,Indianapolis,United States,46237-9447,39.7910,-86.1480
Ardalan Keshtkar DDS INC,Opus,2104 Heritage Drive,"Roseville, California",United States,95678,38.7525,-121.2894
Ardsley Dental Spa,Opus,"1053 Saw Mill River Rd., #107","Ardsley, New York",United States,10502,41.0086,-73.8412
Arizona Facial Plastics,Opus,3102 E Indian School Rd SUITE 140,"Phoenix, Arizona",United States,85016,33.4500,-112.0667
"Arkansas Progressive Medicine, PLLC",Opus,"1000 East Matthews Avenue, STE E","Jonesboro, Arkansas",United States,72401,35.8384,-90.7105
Artistic Spa,Opus,492 Upper Queen St.,"London, Ontario",Canada,N6C 3T9,42.9837,-81.2497
Arvada Dental Excellence,Opus,15530 West 64th Avenue,"Arvada, Colorado",United States,80007,39.8200,-105.1111
Asa Medical,Opus,235 E Washington Ave,"Ashburn, Georgia",United States,31714-5224,31.7044,-83.6539
Asia Pacific Plastic Surgery Inc.,Opus,1401 South Beretania Street,Honolulu,United States,96814,21.3099,-157.8582
Aspen Luxe,Opus,319 Aspen Airport Business Center #D,"Aspen, Colorado",United States,81611,39.1922,-106.8244
Aspire Aesthetics,Opus,1151 Southwest 30th Street,"Palm City, Florida",United States,34990,27.1711,-80.2786
Aspire Dental Spa,Opus,"24300 Chagrin Blvd","Beachwood, Ohio",United States,44122-5629,41.4793,-81.4978
Associated Dermatology,Opus,50 S Last Chance Gulch St.,"Helena, Montana",United States,59601,46.5958,-112.0270
Avalon Medical Spa,Opus,77 Wolcott Ave,"Dartmouth, Massachusetts",United States,02747-2459,41.6144,-70.9697
Avery Dental,Opus,8200 Avery Road,"Broadview Heights, Ohio",United States,44147,41.3216,-81.6870
Awaken Aesthetics,Opus,"120 S White Horse Pike","Hammonton, New Jersey",United States,08037-1804,39.6366,-74.8027
Awaken Functional Medicine,Opus,2600 Partin Drive North,"Niceville, Florida",United States,32578,30.5161,-86.4717
Azul Aesthetics and Wellness Boutique,Opus,"120 E. Washington St., Ste 527","Syracuse, New York",United States,13202,43.0469,-76.1444
"Baban Mahal, DDS",Opus,5280 Douglas Blvd #100,"Granite Bay, California",United States,95746,38.7486,-121.1797
Balance Hormone Center,Opus,3530 S Val Vista Dr #214,"Gilbert, Arizona",United States,85297,33.3500,-111.7892
Balanced Beauty,Opus,460 South 200 West Suite 2,"Bountiful, Utah",United States,84010,40.8797,-111.8717
Ball Dentistry,Opus,2935 E. 96th St.,Indianapolis,United States,46240,39.7910,-86.1480
Bamboo Leaf Spa,Opus,510 North 13th Avenue,"Upland, California",United States,91786-4973,34.0999,-117.6470
Be Well Clinic,Opus,1206 E. 6th. St,"Weslaco, Texas",United States,78596-6420,26.1592,-97.9875
Be You Wellness and Med Spa,Opus,14785 W 101st Ave,"Dyer, Indiana",United States,46311,41.5003,-87.5122
Beata Styka MD,Opus,12130 S Harlem Ave ,"Palos Heights, Illinois",United States,60463,41.6653,-87.7972
Beaumont Health and Wellness Clinic,Opus,"229 Dowlen Rd., Suite 13B","Beaumont, Texas",United States,77706-1905,30.0800,-94.1267
Beautiful Me Skin Boutique,Opus,7800 SW 57th Ave,Miami,United States,33143-5543,25.7751,-80.1947
Beautiful U,Opus,495 W Main St,"Lehi, Utah",United States,84043,40.3879,-111.8492
Beautique Barrie Inc.,Opus,89 Collier St,Barrie,Canada,L4M 1H2,44.3893,-79.6855
Beauty by Blume,Opus,"14074 Trade Center Dr, STE 226","Fishers, Indiana",United States,46038,39.9561,-86.0128
Beauty Loft Med Spa,Opus,116 E Sugarland Hwy,"Clewiston, Florida",United States,33440,26.7493,-80.9469
Beauty Medica,Opus,2616 Westgate Street,Houston,United States,77098-3023,29.7628,-95.3831
Beauty Park Medical Spa,Opus,140 S. Barrington Pl.,Los Angeles,United States,90049,34.0522,-118.2433
Beleza MedSpa PLLC,Opus,16000 Park Valley Dr #120,"Round Rock, Texas",United States,78681,30.5088,-97.6800
Bella Rose Medispa,Opus,1395 Liberty St. SE,"Salem, Oregon",United States,97302,44.9390,-123.0393
Bella Sol Medspa,Opus,13768 Roswell Ave,"Chino, California",United States,91710-1407,34.0178,-117.6900
Bella Tu Medical,Opus,1490 East Foremaster DR STE 100,"St. George, Utah",United States,84770,37.0953,-113.5781
Bella Vida Laser,Opus,36 N 100 E Suite D,"American Fork, Utah",United States,84003,40.3768,-111.7959
Belladerma Cosmetic Surgery And Skin Care Center,Opus,4520 Executive Dr #105,San Diego,United States,92122,32.7150,-117.1625
Benessere Age Management and Aesthetics,Opus,195 Capitol Ave,"Lander, Wyoming",United States,82520,42.8331,-108.7325
Bergstrom Eye and Laser Clinic,Opus,2601 S University Dr.,"Fargo, North Dakota",United States,58103,46.8770,-96.7846
Beverly Hills Cosmetic Surgical Group,Opus,"8500 Wilshire Boulevard, Suite 1020","Beverly Hills, California",United States,90211,34.0803,-118.4047
Beyond Aesthetics,Opus,7617 Little River Turnpike #900,"Annandale, Virginia",United States,22003,38.8342,-77.2114
Beyond Beauty Brow Bar,Opus,"16564 Cleveland St","Redmond, Washington",United States,98052,47.6749,-122.1240
Beyond Esthetics,Opus,2021 Park Ave West,"Ontario, Ohio",United States,44906-2259,40.7603,-82.6414
BioBalance Health,Opus,851 North Spoede Road Suite 100,"Creve Coeur, Missouri",United States,63141,38.6672,-90.4425
Biz Medspa,Opus,42650 Christy Street #200,"Fremont, California",United States,94538,37.5483,-121.9886
Blissful Dental Spa,Opus,6672 Thomasville Road,"Tallahassee, Florida",United States,32312,30.4407,-84.2783
Bloom Aesthetics,Opus,278 Autumn Sage Court,"Riverside, California",United States,92506,33.9465,-117.3832
Bloom Beauty and Wellness Boutique,Opus,320 W Cedar St #101,San Diego,United States,92101,32.7150,-117.1625
Bloom Med Spa,Opus,21855 52nd St NE,"New London, Minnesota",United States,56273,45.3011,-94.9442
Blue Lotus Med Spa,Opus,25222 Northwest FWY APT 247,Houston,United States,77069,29.7628,-95.3831
Bluegrass Aesthetics,Opus,996 Wilkinson Trace Ste A5,"Bowling Green, Kentucky",United States,42103,36.9817,-86.4444
Body del Sol,Opus,1648 E Herndon Ave,"Fresno, California",United States,93720,36.7317,-119.7859
Body Therapy and Hair Spa,Opus,15001 N. Hayden Rd STE 114,"Scottsdale, Arizona",United States,85260,33.5000,-111.9333
"Boeke and Associates, P.A.",Opus,4624 Lakeview Pkwy,"Rowlett, Texas",United States,75088-4027,32.9027,-96.5693
Boheme Aesthetics,Opus,"350 Pine Street ","Beaumont, Texas",United States,77701-2419,30.0800,-94.1267
Boho Chic Clinique,Opus,"204 W Washington Ave ","Effingham, Illinois",United States,62401-2355,39.1208,-88.5458
Boston Direct Health,Opus,"18 Newbury St., 5th Floor",Boston,United States,02116,42.3581,-71.0636
Boudreau Dental Studio,Opus,11333 Springfield Pike,Cincinnati,United States,45246-4201,39.1037,-84.5136
Boulder Family Vision,Opus,805 South Broadway,"Boulder, Colorado",United States,80305,40.0176,-105.2797
Bradford Lockhart DDS - - DBA Create Smiles,Opus,1254 Irvine Blvd,"Tustin, California",United States,92780,33.7397,-117.8136
Brengle Family Medicine,Opus,8803 N Meridian St Suite 350,Indianapolis,United States,46260-5386,39.7910,-86.1480
"BRENT CALL, DMD, LLC",Opus,"8147 E Evans Rd","Scottsdale, Arizona",United States,85260,33.5000,-111.9333
Bright Young Smiles,Opus,1930 NE 34th Court,"Lighthouse Point, Florida",United States,33064-7520,26.2743,-80.0916
Brunswick Ear Nose and Throat,Opus,900 N Howe St,"Southport, North Carolina",United States,28461,33.9244,-78.0206
"Brunswick Medical Aesthetics, LLC",Opus,"331 Maine St., Ste 6","Brunswick, Maine",United States,04011,43.9524,-69.8738
Buch Edward D MD,Opus,611 Courtyard Dr #600,"Hillsborough Township, New Jersey",United States,08844-4256,40.4977,-74.6705
Buckhead Plastic Surgery,Opus,183 Mystic Pl NE,Atlanta,United States,30342-2520,33.7485,-84.3915
Burlington Medical Aesthetics,Opus,"1900 Appleby Line","Burlington, Ontario",Canada,L7L 0B7,43.3250,-79.8000
Calabasas Dental Spa,Opus,4937 Las Virgenes Rd # 203,"Calabasas, California",United States,91302,34.1512,-118.6498
California Cosmetic Medical Institute,Opus,"27725 Santa Margarita Pkwy","Mission Viejo, California",United States,92691,33.6128,-117.6561
Calla Genics,Opus,12794 W Forest Hill Blvd Suite 9-10,"Wellington, Florida",United States,33414-4769,26.6550,-80.2542
"Calvert Enterprises, Inc.",Opus,1048 Irvine Avenue,"Newport Beach, California",United States,92660-4602,33.6167,-117.8975
Canyon View ENT,Opus,1251 N Northfield Rd,"Cedar City, Utah",United States,84721-8623,37.6825,-113.0744
Capstone Vision,Opus,691 North Squirrel Road STE 202,"Auburn Hills, Michigan",United States,48326,42.6875,-83.2342
Cardinal Age Management Medicine Institute,Opus,4721 D Sunset Blvd,"Lexington, South Carolina",United States,29072,33.9811,-81.2308
Cardiovascular Institute of the Shoals,Opus,2095 Florence Boulevard,"Florence, Alabama",United States,35630,34.8203,-87.6628
Caring Family Dentistry,Opus,327 Loudon Rd.,"Concord, New Hampshire",United States,03301,43.2067,-71.5381
Carolina Family Care,Opus,707 West King Street,"Kings Mountain, North Carolina",United States,28086-2707,35.2442,-81.3425
Cascade wellness,Opus,"2140 E Bidwell St, Folsom, CA 95630","Folsom, California",United States,95630,38.6722,-121.1578
CC Medical Aesthetics,Opus,500 Montauk Highway,"West Islip, New York",United States,11795-4418,40.7150,-73.2978
Celebrating Women Center,Opus,1801 Solar Drive #155,"Oxnard, California",United States,93030,34.1977,-119.1759
Center For True Harmony Wellness & Medicine,Opus,2152 S Vineyard STE,"Mesa, Arizona",United States,85210,33.4152,-111.8315
Center Plaza Dentistry,Opus,10688 Los Alamitos Boulevard,"Los Alamitos, California",United States,90720,33.8022,-118.0644
Central Park South Dermatology,Opus,200 Central Park South #108,New York City,United States,10019,40.7130,-74.0072
Centro Clinico,Opus,32 Hine Street Suite 103,"Paterson, New Jersey",United States,07503,40.9147,-74.1628
Chad Daines DDS Inc- Open Wide La Jolla,Opus,7509 Draper Avenue,La Jolla,United States,92037,32.8400,-117.2769
Chamnong Family Medicine,Opus,8300 Crossland Loop,"Montgomery, Alabama",United States,36117,32.3617,-86.2792
Charlie Chen MD,Opus,3399 1st Avenue,San Diego,United States,92103,32.7150,-117.1625
"Charlotte Mitchell, MD",Opus,"20303 Crawford Ave ","Olympia Fields, Illinois",United States,60461-1173,41.5135,-87.7084
Cheeky Medspa,Opus,47635 Mark Hall Ct,"Soldotna, Alaska",United States,99669,60.4867,-151.0753
Chelan Valley Skincare,Opus,131 South Apple Blossom Drive,"Chelan, Washington",United States,98816,47.8428,-120.0214
"Chemical Dependency Treatment Associates, Inc",Opus,805 University Avenue,"Sacramento, California",United States,95825,38.5556,-121.4689
Chikodiri Gibson LLC,Opus,720 Forest Ave,Staten Island,United States,10312,40.5808,-74.1528
Choice Dental,Opus,29645 Rancho California Road  #126.,"Temecula, California",United States,92591,33.5033,-117.1236
Chroma Optics,Opus,370 Shelburne Road,"Burlington, Vermont",United States,05401,44.4758,-73.2119
Ciao Bella Skincare,Opus,496 B Merrimac St.,"Newburyport, Massachusetts",United States,01950,42.8097,-70.8767
Clark Family Dentistry,Opus,1331 Village Dr,"St. Joseph, Missouri",United States,64506,39.7581,-94.8367
Cleopatra Lasermed and Massage,Opus,152 Cleopatra Dr,Ottawa,Canada,K2G 5X2,45.4204,-75.6924
Cloud la MedSpa,Opus,"6 Plaza Road, 2nd Floor","Fair Lawn, New Jersey",United States,07410,40.9358,-74.1175
Clovis Laser Center,Opus,255 W. Bullard Ave,"Clovis, California",United States,93612-0861,36.8253,-119.7031
Coastal Aesthetics,Opus,1537 US Route 1,"Cape Neddick, Maine",United States,03902-7432,43.1735,-70.6121
Colair Beauty Lounge and Medspa,Opus,1440 S Higley Rd,"Gilbert, Arizona",United States,85296,33.3500,-111.7892
Colleen Hickle DDS,Opus,"3690 Orange Place","Beachwood, Ohio",United States,44122-4475,41.4793,-81.4978
Community Eye Care of Indiana,Opus,"1400 N Ritter Ave",Indianapolis,United States,46219-3046,39.7910,-86.1480
Compass Cellular Healing,Opus,4525 Harding Pike,"Nashville, Tennessee",United States,37205-2120,36.1667,-86.7833
Compass Dermatopathology Inc. - Lanoi Cosmetic Dermatology,Opus,6605 Nancy Ridge Drive,San Diego,United States,92121,32.7150,-117.1625
Complexion Aesthetics,Opus,968 East Chambers Street,"South Ogden, Utah",United States,84403,41.1747,-111.9575
Comprehensive Health Center,Opus,41 East 8th Streat,Chicago,United States,60605,41.8832,-87.6324
Contoured LLC,Opus,100 Ridge Road  Suite 17,"Chadds Ford Township, Delaware County, Pennsylvania",United States,19317,39.8747,-75.5542
Contours Laserspa,Opus,40 W Chesapeake Ave Suite TN2,"Towson, Maryland",United States,21204,39.3931,-76.6094
Cool River Aesthetic Center for Skin Rejuvenation,Opus,125 East Elm Street Suite 260,"Conshohocken, Pennsylvania",United States,19428-4155,40.0772,-75.3019
Cosmedics Med Spa,Opus,3397 N 1200 E,"Lehi, Utah",United States,84043,40.3879,-111.8492
Cosmetic and Family Dentistry,Opus,580 Mac Arthur Boulevard,"Bourne, Massachusetts",United States,02532-3839,41.7410,-70.5987
Country Club Med Spa,Opus,8041 North Mesa Suite B2,"El Paso, Texas",United States,79912,31.7903,-106.4233
Creating Beautiful Smiles,Opus,4425 Taylor Ave,"Racine, Wisconsin",United States,53405-4625,42.7261,-87.8058
Cross Timbers ENT,Opus,400 Arbrook Blvd,"Arlington, Texas",United States,76014-3180,32.7356,-97.1071
Crystal Canyon Ent and Facial PL,Opus,1340 N. Rim Dr.,"Flagstaff, Arizona",United States,86001,35.1992,-111.6311
Crystal Skin Care,Opus,1698 Angels Way,"Kaysville, Utah",United States,84037,41.0331,-111.9361
Customized Wellness,Opus,131 W. Center Ave.,"Sebring, Florida",United States,33870-3104,27.4956,-81.4444
"D Balder, MD PLLC DBA Mississippi Institute of Weight Loss",Opus,11070 David St,"Gulfport, Mississippi",United States,39503,30.3698,-89.0915
Dana Dental Arts - Rapid City,Opus,1306 Main St,"Spearfish, South Dakota",United States,57783,44.4830,-103.8504
Dana Gingell MD,Opus,746 W Shinava Dr,"Ivins, Utah",United States,84738,37.1683,-113.6819
D'Angelo/Hoffman/Olson La Jolla Dentistry,Opus,1111 Torrey Pines Road STE 101,San Diego,United States,92037,32.7150,-117.1625
Daniels Group,Opus,33 Overlook Rd Ste 403,"Summit, New Jersey",United States,07901,40.7156,-74.3647
Danyo and Gillespie Plastic Surgery,Opus,4001  Kennett Pike Ste 234,"Greenville, Delaware",United States,19807,39.7750,-75.5967
Dao Medical Group- Dep Aesthetics Institute,Opus,9191 Westminster Avenue Suite 203,"Garden Grove, California",United States,92844,33.7789,-117.9603
"David E. Krause, MD, Ltd",Opus,"475 Brown Blvd","Bourbonnais, Illinois",United States,60914-2325,41.1616,-87.8908
David Rosenberg Plastic Surgeon,Opus,145 N Robertson Blvd,"Beverly Hills, California",United States,90211-2103,34.0803,-118.4047
Davidson and Burr: Total Dental Care of Lake Norman,Opus,"317 Alcove Rd","Mooresville, North Carolina",United States,28117-7632,35.5844,-80.8203
DCW Aesthetics,Opus,300 W 1400 S,"Garland, Utah",United States,84312,41.7328,-112.1617
Dearborn Vein Center,Opus,22190 Garrison St,"Dearborn, Michigan",United States,48124,42.3221,-83.1759
Decatur Internal Medicine and Aesthetics,Opus,2506 Danville Rd SW Suite 101,"Decatur, Alabama",United States,35603,34.6058,-86.9833
"Delaware Valley Plastic Surgery, P.A.",Opus,1734 Route 70 East,"Cherry Hill, New Jersey",United States,8003,39.9046,-74.9970
Della Porta EyeCare,Opus,156 Farmington Ave,"Bristol, Connecticut",United States,06010,41.6811,-72.9406
Dennis E. Robinson DO dba Marshfield Family Clinic,Opus,487 Pomme De Terre Dr.,"Marshfield, Missouri",United States,65706-2386,37.3373,-92.9063
Dental 32,Opus,"16 Northeast 2nd Street, Suite B",Oklahoma City,United States,73104,35.4822,-97.5350
Dental Professionals of Fair Lawn,Opus,10-06 Saddle River Rd,"Fair Lawn, New Jersey",United States,07410,40.9358,-74.1175
"Dent-Al Smiles, L.L.C.",Opus,"1115 Hicks Blvd","Fairfield, Ohio",United States,45014,39.3312,-84.5428
Derma Naissance,Opus,Suite 200 116 Rue Principale,"Granby, Quebec",Canada,J2G 2V2,45.3985,-72.7231
DermaContour,Opus,"1181 Hunt Club Rd",Ottawa,Canada,K1V 8S4,45.4204,-75.6924
Dermagnify,Opus,"100 Executive Way","Ponte Vedra Beach, Florida",United States,32082,30.2428,-81.3828
Dermatology and Laser Center Encino,Opus,16260 Ventura Boulevard #140,"Encino, Los Angeles",United States,91436,34.1588,-118.4994
Dermatology and Laser Center of Oklahoma,Opus,9306 S Toledo Ct,"Tulsa, Oklahoma",United States,74137-2746,36.1314,-95.9372
Dermatology Associates of Oxford,Opus,705 Sisk Ave,"Oxford, Mississippi",United States,38655-3413,34.3597,-89.5261
Dermatology Associates of Tampa Bay,Opus,6001 Memorial Highway,"Tampa, Florida",United States,33615,27.9474,-82.4588
Dermatology Care of Alabama,Opus,4960 Rice Mine Rd Ne,"Tuscaloosa, Alabama",United States,35404,33.2065,-87.5346
Dermbar Medspa,Opus,85 Declaration Drive,"Chico, California",United States,95973,39.7400,-121.8356
DermNurse,Opus,"#110, 358-58ave SW",Calgary,Canada,T2H 2M5,51.0473,-114.0580
Desert Lily Health and Wellness,Opus,4850 E. Baseline Rd Unit 118,"Mesa, Arizona",United States,85206,33.4152,-111.8315
Divine IV and Wellness,Opus,2231 E Pecos Rd #4,"Chandler, Arizona",United States,85225,33.3023,-111.8401
DM Studio,Opus,"101 East Expressway 83, STE 180","McAllen, Texas",United States,78501,26.1967,-98.2357
DMA Eye Associates,Opus,2565 Morris Ave,"Union Township, Union County, New Jersey",United States,07083,40.6964,-74.2699
Dolly's Eyebrow Threading Studio,Opus,4423 S Meridian,"Puyallup, Washington",United States,98374,47.1758,-122.2936
Dominion MedSpa and Salon,Opus,23103 IH 10 W STE 111,San Antonio,United States,78257-1766,29.4167,-98.5000
Don Davis MD,Opus,"135 W. Dimond Blvd.","Anchorage, Alaska",United States,99515,61.2166,-149.8996
"Douglas J Snyder DDS, PC",Opus,427 Waterfall Dr,"Elkhart, Indiana",United States,46516-3660,41.6874,-85.9735
Dr Beri DDS Pllc,Opus,46169 Westlake Dr.,"Sterling, Virginia",United States,20165,39.0061,-77.4286
Dr Joshua Beer MD,Opus,205 West End Ave,New York City,United States,10023,40.7130,-74.0072
Dr Thomas Bellavia,Opus,288 Boulevard,"Hasbrouck Heights, New Jersey",United States,07604,40.8628,-74.0752
Dr. Cait Smiles,Opus,4910 Tamiami Trail North #210,"Naples, Florida",United States,34103,26.1500,-81.8000
Dr. Christie Inc - Curated Beauty Rx,Opus,1441 Avocado Avenue,"Newport Beach, California",United States,92660,33.6167,-117.8975
Dr. Claude Resil,Opus,599 Pleasant Street,"Brockton, Massachusetts",United States,02301,42.0833,-71.0189
Dr. Happe Medical Aesthetics,Opus,15 Homestead Street,"Waban, Massachusetts",United States,02468,42.3278,-71.2272
Dr. Hilla Steinberg MD PLLC,Opus,127 West 79th St,New York City,United States,10024-6416,40.7130,-74.0072
Dr. John Farella,Opus,666 Lexington Avenue,"Mount Kisco, New York",United States,10549-3638,41.2078,-73.7272
Dr. John McGoff dba Med Spa 121,Opus,"121 Monument Circle",Indianapolis,United States,46204-2921,39.7910,-86.1480
"Dr. Jon Hendrickson, DDS Inc. DBA Dental Beauty Wellness",Opus,245 N State Road 135,"Trafalgar, Indiana",United States,46181-8663,39.4142,-86.1533
Dr. Junior DeFreitas ENT,Opus,3324 Colorado blvd STE 103,"Denton, Texas",United States,76210-6891,33.2164,-97.1292
Dr. K Beauty in LV,Opus,"7710 W Sahara Ave",Las Vegas,United States,89117,36.1691,-115.1406
Dr. Katayoun Motlagh's Health Clinics,Opus,833 Auto Center Drive,"Palmdale, California",United States,93551,34.5811,-118.1006
"Dr. Kelly McKerahan, D.O. A Professional Medical Corp.",Opus,25095 Jefferson Ave.,"Murrieta, California",United States,92562,33.5598,-117.2208
Dr. Leif Rogers,Opus,333 S Arroyo Pkwy,"Pasadena, California",United States,91105,34.1561,-118.1319
"Dr. Lynn Burford, Optometrist",Opus,"10485 N Pennsylvania St",Indianapolis,United States,46280-2012,39.7910,-86.1480
"Dr. Mimi Sato-Re, MD",Opus,1216 Suncast Ln #1,"El Dorado Hills, California",United States,95762,38.7025,-121.0824
Dr. Monica Gobran and Associates,Opus,11 Harvard Street,"Worcester, Massachusetts",United States,01609,42.2667,-71.8000
Dr. Paul Glat,Opus,191 Presidential Blvd,"Bala Cynwyd, Pennsylvania",United States,19004,40.0093,-75.2309
DuPage Medical Group,Opus,1100 W 31st Street,"Downers Grove, Illinois",United States,60515-5512,41.7947,-88.0169
Duren and Marsh Dental,Opus,25 Myrtle Street,"Belmont, North Carolina",United States,28012,35.2444,-81.0356
DVSP Management Inc.,Opus,17 Main St17 Main St,"Robbinsville (CDP), New Jersey",United States,08691,40.2183,-74.6280
Dy Dermatology Center,Opus,"at Carillon Square","Glenview, Illinois",United States,60025,42.0794,-87.8156
Eagle Oral Surgery,Opus,197 W State Street,"Eagle, Idaho",United States,83616,43.6931,-116.3464
East County Internal Medicine,Opus,6050 State Road 70 East,"Bradenton, Florida",United States,34203,27.4890,-82.5628
Easton Family Dental,Opus,127 N. West St.,"Easton, Maryland",United States,21601,38.7717,-76.0706
Edina Skin Care Specialists,Opus,7450 France Ave S.,"Edina, Minnesota",United States,55435-4787,44.9105,-93.3487
Elan Med Spa,Opus,"1795 N Hwy 77 ","Waxahachie, Texas",United States,75165-7878,32.3997,-96.8472
Elan Vital,Opus,"1576 W Deer Crest St ","Meridian, Idaho",United States,83646,43.6142,-116.3989
Elegantly Ageless,Opus,65 7th Ave S Suite 3,"Hopkins, Minnesota",United States,55343,44.9308,-93.4017
Eleganz Medical Spa,Opus,3970 W 24th St. #203,"Yuma, Arizona",United States,85364,32.7223,-114.6209
Elevate Medical Aesthetics and Wellness,Opus,413 Howard St,"Petoskey, Michigan",United States,49770,45.3733,-84.9553
Elite Family Medical Center,Opus,1183 E Foothill Blvd STE 135,"Upland, California",United States,91786,34.0999,-117.6470
"Elite Medicine, LLC",Opus,8240 Beckett Park Drive STE A,"West Chester Township, Butler County, Ohio",United States,45069,39.3451,-84.3957
Elite Medspa (formerly Beverly Hills Rejuvenation Center),Opus,7001 N Scottsdale Rd #164,"Scottsdale, Arizona",United States,85253,33.5000,-111.9333
Ellen Burov MD,Opus,"1317 3rd Ave",New York City,United States,10021,40.7130,-74.0072
Ellis Dentistry Co,Opus,"617 E Riverside Dr","St. George, Utah",United States,84790,37.0953,-113.5781
Elysium Aesthetics And Vein Care,Opus,184 Beechwood Road,"Oradell, New Jersey",United States,07649,40.9534,-74.0318
Empire Medicine and Rehabilitation,Opus,33 Hillside Ave.,"Williston Park, New York",United States,11596-2304,40.7609,-73.6460
Endres Gateway Dentistry,Opus,9380 Montgomery Rd #204,"Montgomery, Ohio",United States,45242-7756,39.2472,-84.3475
Engineered Aesthetics Plastic Surgery Institute,Opus,880 Seven Hills Drive,"Henderson, Nevada",United States,89052,36.0292,-115.0253
"ENHANCE AESTHETICS & WELLNESS, P.L.L.C",Opus,324 S Main St,"Yuma, Arizona",United States,85364,32.7223,-114.6209
Enhanced Beauty & Wellness Clinic,Opus,102 North 21st Street,"Purcellville, Virginia",United States,20132,39.1344,-77.7111
Enhanced Dermatology,Opus,17601 17th St #110,"Tustin, California",United States,92780,33.7397,-117.8136
Esprit Health and Wellness,Opus,309 S Central Ave,"Sidney, Montana",United States,59270,47.7125,-104.1614
Essence Aesthetics and Health,Opus,99 E Bremer Ave,"Waverly, Iowa",United States,50677-3317,42.7257,-92.4756
Esthetic Advisor Laser Academy,Opus,"13402 N. Scottsdale Road","Scottsdale, Arizona",United States,85254,33.5000,-111.9333
Esthetique Faceforward,Opus,151 Rue de la Rotonde Unit 1203,"Verdun, Quebec",Canada,H3E 0E1,45.4619,-73.5671
Esthetique Jade,Opus,11325 7e Av,"Saint-Georges, Quebec",Canada,G5Y 1J9,46.1202,-70.6732
Eternal Medical Spa,Opus,825 Riverview Dr 2nd Floor,"Totowa, New Jersey",United States,07512,40.9033,-74.2214
"ETown Wax, Lash, and Skin Bar",Opus,"112 Dixie Highway East, Suite 210","Elizabethtown, Kentucky",United States,42701,37.7000,-85.8667
Everest Medspa,Opus,1010 W Chester Pike,"Havertown, Pennsylvania",United States,19083,39.9763,-75.3117
Evergreen Laser Inc,Opus,3230 W 95th Street,"Evergreen Park, Illinois",United States,60805-2314,41.7226,-87.7031
Evergreen Wellness Clinic,Opus,2975 Silverland Dr,"San Jose, California",United States,95135,37.3333,-121.9000
Evolve Tattoo Removal,Opus,3044 Harding St,"Carlsbad, California",United States,92008,33.1219,-117.2969
Express Med Urgent Care PLLC,Opus,19725 West 12 Mile Rd,"Southfield, Michigan",United States,48076,42.4733,-83.2219
Eye and Facial Plastic Specialists,Opus,"4114 Pond Hill Drive, Suite 100",San Antonio,United States,78231-1273,29.4167,-98.5000
Eye and Vision Care of South Riding,Opus,25055 Riding Plaza,"Chantilly, Virginia",United States,20182,38.8750,-77.4025
"Eye Clinics of Illinois dba Ophthalmology Consultants of Illinois, SC",Opus,11845 SW Hwy Unit 12,"Palos Heights, Illinois",United States,60463,41.6653,-87.7972
Eye Physicians and Surgeons,Opus,7000 Stonewood Dr.,"Wexford, Pennsylvania",United States,15090-7376,40.6222,-80.0593
FACE Med Spa,Opus,"31350 Telegraph Rd.","Bingham Farms, Michigan",United States,48025-4366,42.5175,-83.2778
Faces Dermatology,Opus,23206 Lyons Ave Ste 104,"Santa Clarita, California",United States,91321,34.4167,-118.5064
Families First Medical Group,Opus,11555 Central Pkwy,"Jacksonville, Florida",United States,32224-2695,30.3369,-81.6614
Family Allergy Asthma Clinic,Opus,"7105 N. Chestnut Ave, Suite 103","Fresno, California",United States,93720,36.7317,-119.7859
Family Care Partners Inc,Opus,9133 S Stony Island,Chicago,United States,60617,41.8832,-87.6324
Family Health PC,Opus,"4000 Medical Center Dr., Ste 403","Fayetteville, New York",United States,13066,43.0286,-76.0042
Family Healthcare of Atlanta,Opus,1935 Howell Mill Rd. N.W.,Atlanta,United States,30318,33.7485,-84.3915
FamilyMed Center PC,Opus,5700 W Cermak Ave,"Cicero, Illinois",United States,60804-2128,41.8444,-87.7592
Fearfully and Wonderfully Made Inc,Opus,"10760 W 143rd St","Orland Park, Illinois",United States,60462-1916,41.6072,-87.8617
Fedok Plastic Surgery,Opus,113 E Fern Ave,"Foley, Alabama",United States,36535-2806,30.4056,-87.6815
Feel Ideal 360 - Dr Angela Straface,Opus,170 Players Circle,"Southlake, Texas",United States,76092-6948,32.9467,-97.1453
Feelgood Fascia,Opus,"3300 N Running Creek Way","Lehi, Utah",United States,84043,40.3879,-111.8492
FemCare Health and Beauty Burbank,Opus,851 North Hollywood Way,"Burbank, California",United States,91505,34.1821,-118.3075
FIELDS FAMILY CARE,Opus,96 Tara Commons Drive,"Loganville, Georgia",United States,30052,33.8389,-83.8981
Fine Arts Skin and Laser Facial Plastic Surgery,Opus,335 Oxford St,"Dover, Ohio",United States,44622-1970,40.5267,-81.4778
Flatirons Aesthetics LLC,Opus,5214 E. 119th Way,"Thornton, Colorado",United States,80233,39.9031,-104.9544
Flawless Face Aesthetics,Opus,5423 W Vliet St,Milwaukee,United States,53208-2118,43.0500,-87.9500
Flawless Salon and Medical Spa,Opus,4655 Harrison Avenue,"Butte, Montana",United States,59701-6966,46.0128,-112.5356
Flora Kim Dermatology,Opus,4300 MacArthur Blvd Suite 100,Dallas,United States,75209-6544,32.7758,-96.7967
Forever Young Med Spa,Opus,75 State Route 27,"Iselin, New Jersey",United States,08830,40.5693,-74.3211
Forever Young Medspa,Opus,471 Lake Cook Rd Deerfield Park Plaza,"Deerfield, Illinois",United States,60015,42.1683,-87.8514
Forever Young Solutions,Opus,13 Rockingham Road,"Windham, New Hampshire",United States,03087,42.8209,-71.2997
Fort Loramie Dental,Opus,20 South Main St,"Fort Loramie, Ohio",United States,45845-9770,40.3481,-84.3706
Four Bridges Dermatology and Cosmetics,Opus,"1247 Riverfront Parkway, STE 205","Chattanooga, Tennessee",United States,37402,35.0456,-85.2672
FOY MED SPA,Opus,"18161 W 13 Mile Road, Suite C","Southfield, Michigan",United States,48976,42.4733,-83.2219
Fresno Smile Makeovers,Opus,7770 N. Fresno St Suite 105,"Fresno, California",United States,93720,36.7317,-119.7859
Full Spectrum Dermatology,Opus,333 W Bastanchury Rd,"Fullerton, California",United States,92835-3433,33.8703,-117.9243
"Gary Karakashian, MD",Opus,9 Ben Circle,"Goffstown, New Hampshire",United States,03045-1930,43.0203,-71.6003
Genuine Smiles,Opus,"2240 TX-114, STE 650","Trophy Club, Texas",United States,76262,33.0006,-97.1931
Georgetown Advanced Dentistry,Opus,"5185 MacArthur Blvd, #200","Washington, Virginia",United States,20016,38.7135,-78.1598
Georgia Skin and Cancer Clinic,Opus,"900 Mohawk Street","Savannah, Georgia",United States,31419,32.0167,-81.1167
Gillespie Plastic and Reconstructive Surgery,Opus,"2383 Limestone Rd, 2nd floor","Wilmington, Delaware",United States,19808,39.7458,-75.5467
Glanz Aesthetics,Opus,2000 Northwest 87th Avenue,"Doral, Florida",United States,33172,25.8081,-80.3533
Glo Skin Spa,Opus,5800 Eastman Ave Ste 200,"Midland, Michigan",United States,48640-6829,43.6156,-84.2472
Global Smiles,Opus,1801 Professional Dr,"Sacramento, California",United States,95825,38.5556,-121.4689
"Goodnight, James, M.D.",Opus,"505 Goffle Rd","Ridgewood, New Jersey",United States,07450-4027,40.9816,-74.1135
"Gordon Dixon, MD",Opus,1441 Parkway Dr,"Blackfoot, Idaho",United States,83221,43.1900,-112.3461
Grace Medical Aesthetics,Opus,3501 S Clarkson St,"Englewood, Colorado",United States,80113,39.6494,-104.9889
Grace Medical Aesthetics -CT,Opus,"800 Main Street South, STE 112","Southbury, Connecticut",United States,06488,41.4736,-73.2342
Grand Med Spa,Opus,610 CR 55,"Hot Sulphur Springs, Colorado",United States,80451,40.0733,-106.1014
Granite Bay Cosmetic Surgery,Opus,5220 Douglas Blvd,"Granite Bay, California",United States,95746,38.7486,-121.1797
Graves-Gilbert Clinic,Opus,PO Box 90007,"Bowling Green, Kentucky",United States,42101-9007,36.9817,-86.4444
Greeg Family Health care,Opus,1557 Monte Vista Ave,"Las Cruces, New Mexico",United States,88001,32.3144,-106.7789
"Gregory Gorman, DMD",Opus,1190 Bookcliff Ave Suite #201,"Grand Junction, Colorado",United States,81501,39.0667,-108.5667
"Gregory K. Louie DDS, PC",Opus,520 La Gonda Way,"Danville, California",United States,94526,37.8217,-122.0000
Guru Dentistry,Opus,2500 Alton Parkway,"Irvine, California",United States,92606,33.6694,-117.8231
Hackensack Primary Care,Opus,344 Prospect Ave.,"Hackensack, New Jersey",United States,07601,40.8894,-74.0457
Hallmark Dentistry,Opus,307 Elizabeth Street Northeast,"Cullman, Alabama",United States,35055,34.1738,-86.8430
Halo Salon Aesthetics and Boutique,Opus,1215 Commerce Avenue,"Longview, Washington",United States,98632,46.1427,-122.9556
Harold A. Lancer M.D. FAAD A Medical Corp.,Opus,440 N. Rodeo Drive,"Beverly Hills, California",United States,90210-4502,34.0803,-118.4047
Healing Arts and Aesthetics,Opus,1482 E. Valley Rd #114,"Santa Barbara, California",United States,93108,34.4209,-119.6983
Healing Wounds Ltd. dba Maya Family Clinic,Opus,3530 W 159th St,"Markham, Illinois",United States,60428,41.5975,-87.6917
Health and Wellness of Carmel LLC,Opus,11900 N Pensylvania St,"Carmel, Indiana",United States,46032-4694,39.9667,-86.1000
Health Expressions,Opus,1708 Shilling Lane,"Silver Spring, Maryland",United States,20906,38.9977,-77.0270
Healthcare at the Grove,Opus,"8840 Cypress Waters Blvd, Ste 150","Coppell, Texas",United States,75019,32.9612,-96.9935
Healthydermis MedSpa and Laser Clinic,Opus,2944 Hunter Mill Rd #201,"Oakton, Virginia",United States,22124,38.8831,-77.2900
Heart Care Consultants,Opus,5600 Chestnut Street,Philadelphia,United States,19139,39.9500,-75.1667
"Heba Farag, MD, Inc.",Opus,27725 Santa Margarita Parkway #141,"Mission Viejo, California",United States,92691,33.6128,-117.6561
Heriberto Fernandez MD,Opus,7500 Northwest 25th Street,"Doral, Florida",United States,33122,25.8081,-80.3533
"Heritage Family Dentist, PA",Opus,5110 Heritage Ave,"Colleyville, Texas",United States,76034-5910,32.8850,-97.1492
Hlavaty Dental Arts,Opus,737 Garden St,"Santa Barbara, California",United States,93101,34.4209,-119.6983
Honolulu Elite,Opus,1441 Kapiolani Blvd,Honolulu,United States,96814,21.3099,-157.8582
Honu Nani,Opus,1524 MCHENRY AVE STE 100,"Modesto, California",United States,95350,37.6614,-120.9944
Hootan Zandifar MD,Opus,8920 Wilshire Blvd #604,"Beverly Hills, California",United States,90211-2006,34.0803,-118.4047
Horizon Medical Center,Opus,1301 N Plum Grove Rd,"Schaumburg, Illinois",United States,60173-4547,42.0303,-88.0839
Horizons Medical Care,Opus,8045 Hwy 72 W,"Madison, Alabama",United States,35758-9564,34.7151,-86.7396
Horvath Aesthetics,Opus,216 Mall Boulevard,"King of Prussia, Pennsylvania",United States,19406,40.1000,-75.3833
Hotchandani Laser Aesthetic Center,Opus,2771 Ramada Way,"Green Bay, Wisconsin",United States,54304-5759,44.5133,-88.0133
"Human Artist, MD",Opus,231 Washington Ave,"Garden City, New York",United States,11530,40.7281,-73.6351
Hush Medical Aesthetics,Opus,PO Box 125,"Buckingham, Pennsylvania",United States,18912,40.3230,-75.0600
IC Laser Eye Care,Opus,2301 E Allegheny Ave,"Bensalem Township, Pennsylvania",United States,19134,40.1103,-74.9429
Idaho Spine and Pain,Opus,1859 S TOPAZ WAY,"Meridian, Idaho",United States,83642,43.6142,-116.3989
Ideally You Weight Loss Center,Opus,4279 Haines Rd,"Hermantown, Minnesota",United States,55811,46.8069,-92.2383
Illuminate Real Beauty,Opus,3674 W South Jordan Pkwy #235,"South Jordan, Utah",United States,84095,40.5617,-111.9608
Illuminations Laser Clinic,Opus,107 Berrywood Dr,"Columbia, Tennessee",United States,38401-6409,35.6162,-87.0488
Imber Medical LLC,Opus,1620 Frederica Rd,"St. Simons, Georgia",United States,31522,31.1369,-81.3954
In Focus Vision Center,Opus,"1100 Centennial Ave, Suite 204","Piscataway, New Jersey",United States,08854,40.5757,-74.4544
Infinity Dental and Laser Center,Opus,2101 Green Acres Rd,"Fayetteville, Arkansas",United States,72703,36.0764,-94.1608
Infinity Dental Associates,Opus,"2600 S Douglas Rd","Coral Gables, Florida",United States,33134-6142,25.7500,-80.2711
Infocus Urgent Care,Opus,100 Campus Town Circle,"Ewing Township, New Jersey",United States,08638,40.2627,-74.7983
Infuse Aesthetics and Wellness,Opus,721 East Shotwell Street,"Bainbridge, Georgia",United States,39819,30.9052,-84.5756
Infusion Center of NJ,Opus,842 Clifton Avenue,"Clifton, New Jersey",United States,07013-1800,40.8654,-74.1610
Ingleside Family Dental,Opus,,"North Charleston, South Carolina",United States,29456,32.8853,-80.0169
"Ingrid E. Trenkle, MD",Opus,124 E Olive Ave,"Redlands, California",United States,92373,34.0547,-117.1825
Injecting Confidence,Opus,8200 S Quebec St  a14,"Centennial, Colorado",United States,80112,39.5964,-104.8439
Injection Gal,Opus,4600 Aberfeldy Rd,"Reno, Nevada",United States,89519-0944,39.5272,-119.8219
Injectology Aesthetics,Opus,"1408 LIVE OAK BLVD","Yuba City, California",United States,95991,39.1347,-121.6261
Inlet Eye Associates,Opus,640 Morse Avenue,"Murrells Inlet, South Carolina",United States,29576,33.5518,-79.0484
Innovative Eye Care/Eastside Optical,Opus,PO Box 117,"Renton, Washington",United States,98057,47.4867,-122.1953
Innovative MedSpa,Opus,"1241 N Milwaukee Ave",Chicago,United States,60622,41.8832,-87.6324
Innovative Wellness LLC,Opus,7100 N High St STE 201,"Worthington, Ohio",United States,43085-2370,40.0914,-83.0208
Inovo Medical,Opus,1328 Labrie Ave,"Gloucester, Ontario",Canada,K1B 3M1,45.4353,-75.6092
INSPIRE WELLNESS AND AESTHETICS,Opus,1825 Georgia 34E,"Newnan, Georgia",United States,30265,33.3764,-84.7886
Institute Beaute - Suzanne M Levine,Opus,885 Park Ave Ste 103,New York City,United States,10075,40.7130,-74.0072
Institute for Wellness,Opus,218 SW Atlanta Avenue,"Stuart, Florida",United States,34994,27.1922,-80.2431
Integrative Rejuvenation,Opus,4001 E Baseline Rd Suite 104,"Gilbert, Arizona",United States,85234,33.3500,-111.7892
Invigorate Skincare Solutions,Opus,216 North Main Street,"Rutherfordton, North Carolina",United States,28139,35.3671,-81.9573
Inward Beauty Medspa LLC,Opus,"14603 Huebner Rd, Bldg #9",San Antonio,United States,78230,29.4167,-98.5000
Issa Institute For Holistic Health,Opus,128 Thunderbird Dr,"El Paso, Texas",United States,79912,31.7903,-106.4233
It is Just Us LLC,Opus,320 E Main St.,"Lebanon, Indiana",United States,46052,40.0522,-86.4717
Ivory Dental Centre,Opus,"920 Massachusetts Ave NW Suite G10A,","Washington, Virginia",United States,20001,38.7135,-78.1598
Ivy Aesthetics Med Spa LLC,Opus,2681 W. 78th Street,"Chanhassen, Minnesota",United States,55317,44.8630,-93.5401
J Flair Wellness LLC,Opus,1400 29th St,"Great Falls, Montana",United States,59405,47.5036,-111.2864
J. Gabriel Guajardo MD,Opus,"100 E. Alton Gloor Blvd.","Brownsville, Texas",United States,78526,25.9303,-97.4844
"James Jenista, DDS Cosmetic & General Dentistry - Scottsdale AZ",Opus,10715 N Frank Lloyd Wright Blvd. #102,"Scottsdale, Arizona",United States,87259,33.5000,-111.9333
James T Rickman IV DDS,Opus,5937 Harbour Park Dr.,"Midlothian, Virginia",United States,23112,37.5061,-77.6492
James Watt Medical Center,Opus,"11331 James Watt Rd, Bldg 100","El Paso, Texas",United States,79936-6410,31.7903,-106.4233
Jasmine Yun,Opus,12403 Ventura Court,Los Angeles,United States,91604,34.0522,-118.2433
"Jeffrey E Goldberg, MD, PC",Opus,3925 Johns Creek CT,Atlanta,United States,30024,33.7485,-84.3915
JN OBGYN,Opus,370A Market Street,"Saddle Brook, New Jersey",United States,07663,40.9030,-74.1011
Joanna Claustro DMD and Associates,Opus,20745 Williamsport Place suite 300,"Ashburn, Virginia",United States,20147,39.0436,-77.4875
John F Burnett MD INC,Opus,7065 N Chestnut Ave Suite 103,"Fresno, California",United States,93720-0355,36.7317,-119.7859
Joplin Smile Center,Opus,"2819 E 29th St.","Joplin, Missouri",United States,64804-3270,37.0842,-94.5131
"Joseph Stoll, DDS, PC",Opus,10345 PARKGLENN WAY STE 200,"Parker, Colorado",United States,80138,39.5194,-104.7658
Joseph W. Jensen DO PC,Opus,1580 West Antelope Drive,"Layton, Utah",United States,84041,41.0781,-111.9553
Judy Mejido DMD PA,Opus,9560 Southwest 107th Avenue,Miami,United States,33176,25.7751,-80.1947
Just for Grins,Opus,11876 STAPLETON DR,"Peyton, Colorado",United States,80831,39.0264,-104.4785
Juvanni Medspa,Opus,984 N. Broadway #415,"Yonkers, New York",United States,10701,40.9308,-73.8983
JW Sanders PLLC DBA Rejuvenate Austin,Opus,"1301 W. 5th Street","Austin, Texas",United States,78703-5393,30.2650,-97.7466
Kaceli Dental Aesthetics,Opus,1400 Centre St Ste 102,"Newton, Massachusetts",United States,02459,42.3369,-71.2097
Kaga Enterprises Inc.,Opus,15 N Main St,"Marlboro Township, New Jersey",United States,07746,40.3429,-74.2572
"Karan Dhir, MD",Opus,433 N Camden dr #780,"Beverly Hills, California",United States,90210,34.0803,-118.4047
Karee Hays Aesthetics,Opus,"2309 Crestmoor Rd","Nashville, Tennessee",United States,37215,36.1667,-86.7833
Karen Kennedy MD,Opus,1118 Gulf Breeze Parkway,"Gulf Breeze, Florida",United States,32561-7803,30.4433,-87.2114
Katmai Eye and Vision Center,Opus,12570 Old Seward Hwy,"Anchorage, Alaska",United States,99515,61.2166,-149.8996
Keamy Eye and Laser Center,Opus,24 Lyman St,"Westborough, Massachusetts",United States,01581-1482,42.2694,-71.6167
Keene Dentistry and Implants,Opus,19 Elm Street,"Keene, New Hampshire",United States,03431,42.9336,-72.2781
Kefi - Advanced Laser and Skin,Opus,3377 S Price Road,"Chandler, Arizona",United States,85248,33.3023,-111.8401
Kevin Noreika DMD,Opus,131 Watchung Avenue,"Montclair, New Jersey",United States,07043,40.8244,-74.2124
Keystone Family Dentistry,Opus,5426 N Keystone Ave,Indianapolis,United States,46220,39.7910,-86.1480
Kimberly Cockerham MD,Opus,801 Orange Ave,"Coronado, California",United States,92118,32.6781,-117.1725
Kimberly Uhles Hurvitz MD,Opus,2421 castillo st,"Santa Barbara, California",United States,93105-3376,34.4209,-119.6983
Kinzy,Opus,3950 Valley Boulevard,"Walnut, California",United States,91789,34.0333,-117.8667
Kohll's Pharmacy and Homecare,Opus,12741 Q Street,"Omaha, Nebraska",United States,68154,41.2500,-96.0000
Kojjem Group Inc.,Opus,26350 Woodmont Dr S,"Des Moines, Washington",United States,98198,47.3916,-122.3116
Kotary Implant Center And Oral Surgery/Essential Aesthetics,Opus,"1014 St. Andrews Blvd,","Charleston, South Carolina",United States,29407-7139,32.7831,-79.9344
Kreuzer Family Dentistry,Opus,300 Browns Hill Ct,"Midlothian, Virginia",United States,23114,37.5061,-77.6492
K-Sculpt,Opus,"2300 Leslie Court, Unit B","Round Rock, Texas",United States,78681,30.5088,-97.6800
La Fleur Aesthetics,Opus,300 South Main Street  Suite 132  Room 3,"Holly Springs, North Carolina",United States,27540,35.6566,-78.8376
La Peau spa,Opus,7550 N Palm Ave,"Fresno, California",United States,93711,36.7317,-119.7859
LA Touche Elite Aesthetics,Opus,"10780 Kings Road","Myrtle Beach, South Carolina",United States,29572-6073,33.7167,-78.8833
Laguna Dental And Orthodontics (CHEEMA),Opus,5466 Quashnick Rd,"Stockton, California",United States,95212-2522,37.9575,-121.2925
Lakeside Dermatology LLC,Opus,801 York Street,"Manitowoc, Wisconsin",United States,54220,44.0888,-87.6578
Lancaster Gals,Opus,6 North Penryn Rd.,"Manheim, Pennsylvania",United States,17545,40.1625,-76.3964
Landy Headache and Esthetics LLC,Opus,311 S Gloster Street,"Tupelo, Mississippi",United States,38801-4747,34.2597,-88.7258
Laser Beauty and Medspa Center,Opus,8731 Indianapolis Blvd,"Highland, Lake County, Indiana",United States,46322-1551,41.5497,-87.4581
Laser Ely,Opus,758 place de l'Alouette,Saint-Lin–Laurentides,Canada,J5M 0J4,45.8500,-73.7667
Laser Remedy Skin Solutions,Opus,8577 East Arapahoe Road Suite C,"Greenwood Village, Colorado",United States,80112,39.6169,-104.9505
Laser Skin and Wellness,Opus,"4270 Design Center Drive","Palm Beach Gardens, Florida",United States,33410-4329,26.8098,-80.1363
Laser Skin Couture,Opus,265 N Federal Street Suite 103,"Chandler, Arizona",United States,85045,33.3023,-111.8401
LaserMed Skin And Vein Clinic,Opus,"10405 Old Alabama Road Connector, Ste 201","Alpharetta, Georgia",United States,30022-1121,34.0733,-84.2811
Laurie Dresser D O INC,Opus,2128 North Quincy Ct,"Visalia, California",United States,93291,36.3301,-119.2989
Lazur La Vie,Opus,267 A Main Street,"Nyack, New York",United States,10960,41.0925,-73.9225
Leawood Family Care,Opus,11301 Ash St,"Leawood, Kansas",United States,66211,38.9124,-94.6267
"Legacy Eye Care, LLC",Opus,315 Furr St.,"South Hill, Virginia",United States,23970,36.7267,-78.1306
Legacy Family Dental,Opus,2863 Old Fort Pkwy. Ste. C,"Murfreesboro, Tennessee",United States,37128,35.8461,-86.3921
Lejeune Aethetics,Opus,2078 Woodruff Rd.,"Greenville, South Carolina",United States,29607,34.8444,-82.3856
Leonard Johnson DDS,Opus,"507 Bishop St., NW Apt. 3606",Atlanta,United States,30318,33.7485,-84.3915
Level Up Beauty And Wellness,Opus,323 North Prairie Ave Suite 334,"Inglewood, California",United States,90301,33.9618,-118.3533
Life Time Fitness Omaha,Opus,2902 Corporate Place,"Chanhassen, Minnesota",United States,55317-4560,44.8630,-93.5401
Life Tree Women Care,Opus,5500 Blanding Blvd,"Jacksonville, Florida",United States,32444,30.3369,-81.6614
Lifecare for Women,Opus,4001 E Baseline Rd Suite 208,"Gilbert, Arizona",United States,85234,33.3500,-111.7892
LifeHope Healing Med Spa,Opus,"3333 Old Milton Pkwy, Ste 100","Alpharetta, Georgia",United States,30005,34.0733,-84.2811
Lisa Siddall DDS,Opus,147 S Saint Joseph Street,"Lake Leelanau, Michigan",United States,49653-8428,44.9808,-85.7150
Liu Plastic Surgery,Opus,"955 Queen St E","Sault Ste. Marie, Ontario",Canada,P6A 2C3,46.5333,-84.3500
Living True Wellness,Opus,175 King St.,"Chappaqua, New York",United States,10514,41.1589,-73.7722
"Livingston Dental Arts, LLC",Opus,"22 Old Short Hills Rd., Ste 211","Livingston, New Jersey",United States,07039,40.7858,-74.3291
Llanell Vararaj Dental Inc,Opus,102 South Walnut Avenue,"Ripon, California",United States,95366,37.7406,-121.1283
Locust Grove Family Medicine,Opus,3778 Georgia 42,"Locust Grove, Georgia",United States,30248,33.3434,-84.1068
Lolia Lash and Spa,Opus,1240 Paris Pike,"Georgetown, Kentucky",United States,40324-9701,38.2097,-84.5600
Lolla Spa,Opus,811 Southeast 8th Avenue #209,"Deerfield Beach, Florida",United States,33441,26.3181,-80.0997
Lone Star State Dermatology,Opus,11101 Toepperwein Road,San Antonio,United States,78233,29.4167,-98.5000
Longevity Integrative Wellness,Opus,780 Kipling St,"Lakewood, Colorado",United States,80215,39.7064,-105.1028
Lotus Eye Care dba Wicker Park Eye Center,Opus,2222 W Division St,Chicago,United States,60622-2967,41.8832,-87.6324
Lotus Family Wellness and Aesthetics,Opus,1240 Highway 138 Southwest,"Riverdale, Georgia",United States,30296,33.5726,-84.4125
Lotus Laser and Spa,Opus,"1551 116th Avenue Northeast, #2","Bellevue, Washington",United States,98004,47.6137,-122.1909
Louis A Brown Jr MD,Opus,6326 Rising Sun Avenue,Philadelphia,United States,19111,39.9500,-75.1667
Love My Skin Laser,Opus,5090 PGA Blvd,"Palm Beach Gardens, Florida",United States,33418,26.8098,-80.1363
Luma Renu,Opus,1029  E Tallinn St.,"Meridian, Idaho",United States,83646-6643,43.6142,-116.3989
Lume Medical Aesthetics-,Opus,"281 S Main St","Centerville, Utah",United States,84014-2292,40.9215,-111.8790
Luminary MD,Opus,"62 Corporate Park, #245","Irvine, California",United States,92606,33.6694,-117.8231
"Lumins Aesthetic Wellness, Inc",Opus,13139 Brookhurst Street,"Garden Grove, California",United States,92843,33.7789,-117.9603
Lush Dental Co,Opus,10907 Alpine HWY Suite 201,"Highland, Utah",United States,84043,40.4189,-111.7922
Lush Laser Spa Inc.,Opus,128 Larkspur Rd,Brampton,Canada,L6R 2C5,43.6833,-79.7667
Lux Diagnostics,Opus,13 Corporate Boulevard Northeast,Atlanta,United States,30329,33.7485,-84.3915
Luxe Nova Medical Aesthetics,Opus,26 Meetinghouse Hill Rd,"Deerfield, New Hampshire",United States,03037,43.1461,-71.2164
Luxx Med Spa,Opus,41 E 300 N,"Spanish Fork, Utah",United States,84660-1882,40.1044,-111.6400
Lynch Vein and Aesthetics,Opus,"26900 North Lake Pleasant Pkwy, Suite 209","Phoenix, Arizona",United States,85383,33.4500,-112.0667
"Lyssa A Reed, DDS, Inc.",Opus,870 West Onstott Frontage Road,"Yuba City, California",United States,95991,39.1347,-121.6261
Maeven Aesthetics LLC,Opus,605 Hillcrest Ave #200,"Owatonna, Minnesota",United States,55060,44.0843,-93.2260
Magic Mirror Med Spa,Opus,"1871 South 22nd Ave, 2b","Bozeman, Montana",United States,59718,45.6793,-111.0466
Magnolia Family Urgent Care,Opus,1490 S Magnolia Extension,"Ocala, Florida",United States,34471,29.1878,-82.1306
Main Line Institute of Plastic Surgery,Opus,100 East Lancaster Ave.,"Wynnewood, Pennsylvania",United States,19096,40.0007,-75.2750
Main Street Medical Center,Opus,369 N Main St,"Crestview, Florida",United States,32503,30.7542,-86.5728
Majid Sabour MD,Opus,1125 S. Beverly Dr. Suite 420,Los Angeles,United States,90035,34.0522,-118.2433
Manhattan Oculoplastics,Opus,"110 E 40 St, Ste 404",New York City,United States,10016,40.7130,-74.0072
"Mannheim Medical Associates, LTD dba Modern Day Med Spa",Opus,2930 N Mannheim Rd,"Franklin Park, Illinois",United States,60131-2265,41.9368,-87.8645
Maria Flora G. Trimor-Tamoria MD,Opus,"502 Euclid Ave., #103","National City, California",United States,91950,32.6712,-117.1063
Maria Villa MD,Opus,655 Saturn Boulevard Suite J,San Diego,United States,92154,32.7150,-117.1625
Mariah’s Med Spa,Opus,"901 W Warren Ave, STE 1001","Longwood, Florida",United States,32750,28.7046,-81.3527
Marino Health and Wellness,Opus,50 Nashua Road,"Londonderry, New Hampshire",United States,03053-3422,42.8650,-71.3739
Maroon Dentistry,Opus,344 E H Street STE 1409,"Chula Vista, California",United States,91910,32.6401,-117.0840
"Mary Jo Massaro, D.M.D., PLLC",Opus,1552 McDaniel Dr,"West Chester, Pennsylvania",United States,19380,39.9586,-75.6050
Maryland Eye and Face,Opus,"9110 Philadelphia Road","Rosedale, Maryland",United States,21237,39.3210,-76.5162
"Matthew Wimmer, DMD",Opus,5290 E Arapahoe Rd.,"Centennial, Colorado",United States,80122,39.5964,-104.8439
"Maui Cosmetic Laser and Medical Spa, LLC",Opus,40 Kupaoa St b 101,"Makawao, Hawaii",United States,96768,20.8536,-156.3169
MD Cosmedx,Opus,1220 Ashley Circle,"Bowling Green, Kentucky",United States,42104,36.9817,-86.4444
Med Aesthetics,Opus,"12721 Newport Ave","Tustin, California",United States,92780,33.7397,-117.8136
Medical Cosmetics LLC,Opus,805 Estelle Drive Suite 214,"Lancaster, Pennsylvania",United States,17601,40.0394,-76.3071
Medical Golden Clinic,Opus,4365 Hunters Park Lane,"Orlando, Florida",United States,32837,28.5383,-81.3789
Medical Procedures of Wisconsin,Opus,6649 Odana Rd,"Madison, Wisconsin",United States,53719,43.0670,-89.4000
Medical Skin Care,Opus,"2546 E 2nd St ","Casper, Wyoming",United States,82609,42.8347,-106.3250
Medical Skin Treatment LLC,Opus,33991 Dumontier Rd,"Arlee, Montana",United States,59821-9060,47.1692,-114.0900
Medical Surgical Wellness Center,Opus,8127 Merrillville Rd Suite 3,"Merrillville, Indiana",United States,46410-6306,41.4856,-87.3353
Medical Tattoo Centers of America,Opus,11724 Ulysses St. NE,"Blaine, Minnesota",United States,55434-4195,45.1576,-93.2609
MediSpa Solutions,Opus,39 Bolivar St,Staten Island,United States,10314,40.5808,-74.1528
MedSuite,Opus,"1790 King Arthur Blvd","Carrollton, Texas",United States,75010-2041,32.9900,-96.8933
Mega Bite Dental,Opus,6325 N Topanga Canyon Blvd,"Woodland Hills, Los Angeles",United States,91367,34.1676,-118.6045
Mehran Moussavian MD- Cardiovascular Institute of San Diego,Opus,955 Boardwalk Suite 100,"San Marcos, California",United States,92078,33.1395,-117.1612
Melissa Med Spa,Opus,"2615 Sentinel Way, STE 300","Melissa, Texas",United States,75454,33.2836,-96.5719
Metro Vein and Aesthetic Center,Opus,"4915 Broadway, Suite 1-O",New York City,United States,10034,40.7130,-74.0072
Metrolina Medical Associates,Opus,"2670 Mills Park Drive","Rock Hill, South Carolina",United States,29732-8599,34.9381,-81.0261
MI Skin Center PLLC,Opus,"133 W Main Street, STE 251","Northville, Michigan",United States,48167,42.4311,-83.4832
"MI Skin Dermatology, Isaac, Melda, M.D., P.C.",Opus,1133 21st Street NW,"Washington, Virginia",United States,20036,38.7135,-78.1598
MIA Dental,Opus,407 Lincoln Road #700,"Miami Beach, Florida",United States,33139,25.8130,-80.1341
Michael Couris MD Inc.,Opus,3969 4th Ave.,San Diego,United States,92103,32.7150,-117.1625
"Michael F. Alspaugh, D.D.S., P.C",Opus,610 S Kelly Ave Suite N.,"Edmond, Oklahoma",United States,73003,35.6500,-97.4667
Michelle Esthetics,Opus,605 West Wiltshire Dr.,"Wallingford, Pennsylvania",United States,19086,39.8908,-75.3631
Midnight Sun General Medicine,Opus,"91-3633 Kauluakoko Street, #406",Honolulu,United States,96706,21.3099,-157.8582
Miles of Smiles,Opus,26800 South Tamiami Trail,"Bonita Springs, Florida",United States,34134,26.3497,-81.7908
Miller Dermatology,Opus,14911 National ave suite 5,"Los Gatos, California",United States,95032,37.2361,-121.9617
Miller Family Dental,Opus,505 N Sanders St,"Helena, Montana",United States,59601,46.5958,-112.0270
Milton K Wong PC,Opus,8321 Fullmoon Maple Ave,Las Vegas,United States,89117,36.1691,-115.1406
Mimms Functional Rehabilitation PC,Opus,6447 South East Street,Indianapolis,United States,46227,39.7910,-86.1480
Minarets Medical Group,Opus,1840 West Herndon Avenue,"Fresno, California",United States,93711,36.7317,-119.7859
"MIND AND BODY PERFORMANCE, LLC",Opus,810 SHEPARD LN STE 400,"Farmington, Utah",United States,84025,40.9867,-111.8992
Mind Body Infusion Medspa,Opus,28532 La Madrid Drive Suite C,"Santa Clarita, California",United States,91350,34.4167,-118.5064
Mint Dental Group,Opus,2095 Lincoln Avenue #201,"Altadena, California",United States,91001,34.1886,-118.1347
"Mississippi Periodontics, Implants and Esthetics",Opus,599 Steed Road,"Ridgeland, Mississippi",United States,39157,32.4189,-90.1250
Modéle aesthetics and Medical Spa,Opus,8906 San Bernardino Road,"Rancho Cucamonga, California",United States,91730,34.1233,-117.5794
Modern Gynecology And Reproductive Health,Opus,"1407 Union Avenue, Suite 1401","Memphis, Tennessee",United States,38104,35.1174,-89.9711
MODERN INTERNAL MEDICINE,Opus,575 Pharr Road Northeast #550971,Atlanta,United States,30355,33.7485,-84.3915
Modern Optometry,Opus,"3300 Grant Ave",Philadelphia,United States,19114-2632,39.9500,-75.1667
Mohamad Yaghi- Clinica De Los Angeles Medical Group,Opus,4301 S Figueroa Street,Los Angeles,United States,90037,34.0522,-118.2433
Monmouth County Aesthetics,Opus,71 Hawthorne Ave,"Holmdel Township, New Jersey",United States,07733,40.3750,-74.1738
"Morgan Vision Care, PC",Opus,"2020 S. Independence Blvd.","Washington, Virginia",United States,23453-4776,38.7135,-78.1598
Mount Nittany Physician Group,Opus,P.O. Box 570,"Lemont, Pennsylvania",United States,16851,40.8100,-77.8181
Mount Royal Dental,Opus,1624 Woodland Avenue,"Duluth, Minnesota",United States,55803,46.8000,-92.1000
Mountain Point Midwives,Opus,394 West Main Street Suite 208,"Lehi, Utah",United States,84043,40.3879,-111.8492
"Mountain View Dermatology, Ltd.",Opus,"Mountain View Dermatology, Ltd.","Tucson, Arizona",United States,85712,32.2217,-110.9264
Mountain West Medical Services,Opus,1067 S Wells St Suite 110,"Meridian, Idaho",United States,83642-7997,43.6142,-116.3989
My Face and Body Aesthetics,Opus,"5803 NW 151st Street","Miami Lakes, Florida",United States,33014-2473,25.9117,-80.3250
Mylissa Medical Boutique,Opus,1441 S Congress Ave,"Delray Beach, Florida",United States,33445-6380,26.4592,-80.0831
Nadomi Medspa,Opus,40 Church Avenue,"Wareham, Massachusetts",United States,02571,41.7625,-70.7222
Nakatsui DermaSurgery Centre,Opus,200 9670 142 st NW,Edmonton,Canada,T5N 2R2,53.5445,-113.4909
Namaste Med Spa Dr. Babaie,Opus,23817 Garland Court,"Valencia, Santa Clarita, California",United States,91354,34.4545,-118.5712
Nancy H. Coles MD,Opus,"125 E. 72nd Street, #1C",New York City,United States,10021,40.7130,-74.0072
Naples Vision of Beauty,Opus,2400 Vanderbilt Beach Road #106,"Naples, Florida",United States,34109,26.1500,-81.8000
Nashua Eye Associates,Opus,5 Coliseum Avenue,"Nashua, New Hampshire",United States,03063,42.7575,-71.4644
"NATALIE K. PROVENZANO, D.D.S., INC",Opus,6020 HELLYER AVE STE 100,"San Jose, California",United States,95138,37.3333,-121.9000
Natural Results Plastic Surgery,Opus,7930 E. Thompson Peak Pkwy,"Scottsdale, Arizona",United States,85255,33.5000,-111.9333
Natural State Aesthetics,Opus,158 E Sunbridge Drive,"Fayetteville, Arkansas",United States,72703,36.0764,-94.1608
Nature Derma,Opus,180 Willowdale Ave,Toronto,Canada,M2N 4Y9,43.6519,-79.3817
Nevada Family Care and Wellness Center,Opus,"861 Coronado Center Drive, Suite 220","Henderson, Nevada",United States,89052,36.0292,-115.0253
New Body Aesthetics,Opus,4004 Harrison Avenue,Cincinnati,United States,45211-4627,39.1037,-84.5136
New Creation MediCosmetic Centre,Opus,3531 Portage Road,"Niagara Falls, Ontario",Canada,L2J 2K5,43.1167,-79.0667
New England Aesthetics & Medical Spa,Opus,711 West Center Street,"West Bridgewater, Massachusetts",United States,02379,42.0189,-71.0083
New Tampa Interventional Pain and Sports Medicine,Opus,2321 Crestover Lane,"Wesley Chapel, Florida",United States,32544,28.1814,-82.3512
New York Laser Vision,Opus,"2464 Coney Island Avenue, 3rd Floor",Brooklyn,United States,11223,40.6925,-73.9910
Next Health,Opus,44121 Harry Byrd Highway - Suite 115,"Ashburn, Virginia",United States,20147,39.0436,-77.4875
NHD Regenerative Medicine,Opus,"839 E. Winding Creek Dr.","Eagle, Idaho",United States,83616,43.6931,-116.3464
Nicole Frontera Beauty,Opus,104-02 Rockaway Beach Boulevard,"Rockaway Park, Queens",United States,11694,40.5786,-73.8410
Nima Nagshineh MD,Opus,50 Bellefontaine Street,"Pasadena, California",United States,91105-3132,34.1561,-118.1319
North Atlanta Plastic Surgery,Opus,11877 Douglas Road,"Johns Creek, Georgia",United States,30005,34.0289,-84.1986
Northshore Rejuvenation,Opus,"2306 Front Street ","Slidell, Louisiana",United States,70458-3664,30.2792,-89.7778
Northwestern Indiana Eye And Laser Center,Opus,851 Eastport Center Dr.,"Valparaiso, Indiana",United States,46383-2909,41.4761,-87.0569
NoSweat Fort Wayne,Opus,7314 Oak Lane,"Fort Wayne, Indiana",United States,46809,41.0775,-85.1375
Nova Derm Institute,Opus,19450 Deerfield Ave #325,"Leesburg, Virginia",United States,20176,39.1167,-77.5500
NU YU Laser Hair,Opus,6387 Central Ave,"St. Petersburg, Florida",United States,33710,27.7731,-82.6400
NuLife Wellness,Opus,759 Roosevelt Trail,"Windham, Maine",United States,04062-5341,43.8106,-70.4169
Nume Aesthetics,Opus,10564 5th Ave NE Suite 401,Seattle,United States,98125,47.6032,-122.3303
Nu-Reflections Med Spa,Opus,103 E 42nd St,"Loveland, Colorado",United States,80538,40.3944,-105.0706
Nuvida Medical Aesthetics and Wellness,Opus,341 S 500 E,"American Fork, Utah",United States,84003,40.3768,-111.7959
NuYou Aesthetics and Weight Loss,Opus,1845 E. Main ST,"Onalaska, Wisconsin",United States,54650-8668,43.8881,-91.2186
NuYou Beauty,Opus,320 Middletown Blvd Suite 303,"Langhorne, Pennsylvania",United States,19047,40.1768,-74.9170
Oak Dermatology,Opus,"550 E Devon Ave, Ste 200","Itasca, Illinois",United States,60143,41.9747,-88.0186
Oasis Esthetics,Opus,"6965 Piazza Grande Avenue, Ste 218","Orlando, Florida",United States,32835,28.5383,-81.3789
Oasis Med Spa,Opus,151 W Galvani Dr,"Meridian, Idaho",United States,83642,43.6142,-116.3989
OC Medical Tustin,Opus,14642 Newport Avenue,"Tustin, California",United States,92780,33.7397,-117.8136
Ocala Eye,Opus,1500 S Magnolia Ave Suite 102,"Ocala, Florida",United States,34471,29.1878,-82.1306
Oculoplastic Surgeons of Oklahoma,Opus,16315 N. May Ave,"Edmond, Oklahoma",United States,73013-8892,35.6500,-97.4667
Ohana Medical Spa,Opus,1765 East 2nd Street,"Scotch Plains, New Jersey",United States,7076,40.6330,-74.3729
Ohio Laser and Wellness Centers,Opus,"4774 Munson St. N.W.","Canton, Ohio",United States,44718,40.7974,-81.3770
Ohio Rejuv and Laser Center,Opus,580 Office Pkwy Suite 110,"Westerville, Ohio",United States,43082-8645,40.1236,-82.9214
Okoboji Skin Care,Opus,1008 East View Ave Suite #1,"Okoboji, Iowa",United States,51355,43.3875,-95.1381
Olivo Medspa,Opus,2550 W Fullerton Ave,Chicago,United States,60647,41.8832,-87.6324
Omaha Laser Dentistry,Opus,2723 S 87th Ave,"Omaha, Nebraska",United States,68124,41.2500,-96.0000
Ophthalmology Associates of Osborne,Opus,1099 Ohio River Blvd,"Sewickley, Pennsylvania",United States,15143,40.5364,-80.1844
Ottawa Derm Centre,Opus,460 West Hunt Club,Ottawa,Canada,K2E 0B8,45.4204,-75.6924
Oxford Dental Center,Opus,5279 Morning Sun Road,"Oxford, Ohio",United States,45056-9558,39.5075,-84.7467
Palmetto Medicine and Aesthetics,Opus,148 waterloo street sw suite 3,"Aiken, South Carolina",United States,29801,33.5639,-81.7162
Park City Medesthetix,Opus,1441 W Ute Blvd #160,"Park City, Utah",United States,84098-7637,40.6594,-111.4997
"Patrick Yassini M.D., Inc.",Opus,"131 Orange Avenue","Coronado, California",United States,92118-1408,32.6781,-117.1725
Peace Love Beautiful Med Spa,Opus,252 1/2 Front Street,"Marietta, Ohio",United States,45750-2908,39.4167,-81.4500
Pearl Aesthetics and Wellness,Opus,664 East Main Street,"Lancaster, Ohio",United States,43130-3906,39.7193,-82.6053
Peko MD,Opus,7634 W. Central Ave.,"Toledo, Ohio",United States,43617-1526,41.6656,-83.5753
Pele Aesthetics,Opus,5875 Branch Valley Way,"Cumming, Georgia",United States,30040,34.2083,-84.1375
Perfect Smiles of Reston,Opus,12040 South Lakes Dr Ste 200,"Reston, Virginia",United States,20191,38.9544,-77.3464
Perfectly Bare Laser,Opus,4710 N Habana Ave Suite 405,"Tampa, Florida",United States,33614,27.9474,-82.4588
Philly Med Beauty,Opus,3939 Conshohocken Avenue,Philadelphia,United States,19131,39.9500,-75.1667
Physician's Body Sculpting,Opus,315 E Strawbridge Avenue,"Melbourne, Florida",United States,32901-4573,28.0799,-80.6035
Plainfield Eye Care,Opus,900 Edwards Dr.,"Plainfield, Indiana",United States,46168-5680,39.6975,-86.3847
Plainsboro Princeton Medical Associates,Opus,666 Plainsboro Road,"Plainsboro Township, New Jersey",United States,08536,40.3341,-74.5946
Platte Valley Dental Clinic,Opus,3915 4th Avenue,"Kearney, Nebraska",United States,68845,40.7008,-99.0811
Posh Salon and Med Spa,Opus,250 Crummer Ln,"Reno, Nevada",United States,89502,39.5272,-119.8219
Prairie Dental,Opus,1200 NW 192nd Street,"Edmond, Oklahoma",United States,73012,35.6500,-97.4667
Precision Esthetic Services LLC,Opus,4795 N Summit Way,"Meridian, Idaho",United States,83646-6699,43.6142,-116.3989
Premier Aesthetics,Opus,"1725 32nd Ave S., Suite D","Grand Forks, North Dakota",United States,58201,47.9257,-97.0361
Premier ENT,Opus,255 Terracina Blvd,"Redlands, California",United States,92373-4870,34.0547,-117.1825
Premier Family Medical PA,Opus,6800 Alma Drive #100,"Plano, Texas",United States,75023-0002,33.0197,-96.6992
Premier Healthcare of California,Opus,405 South Street Suite F,"Redding, California",United States,96001,40.5833,-122.3667
Premier Services LLC,Opus,110 N. Water Street,"Henderson, Kentucky",United States,42420-3142,37.8356,-87.5808
Premier Vein and Body by Schwartz,Opus,"1300 East 104th St.","Kansas City, Missouri",United States,64131,39.0997,-94.5783
Premier Wellness Associates,Opus,"8550 United Plaza Boulevard ","Baton Rouge, Louisiana",United States,70809-0200,30.4495,-91.0934
"Prestige Med Spa and Wellness Center, P.C",Opus,"9112 SOUTH TRYON","Charlotte, North Carolina",United States,28273,35.2238,-80.8411
Pristine Naturopathic Medicine,Opus,2469 North Country Club Road,"Tucson, Arizona",United States,85716,32.2217,-110.9264
Profiles Laser and Medical Aesthetics,Opus,1184 Nashville Pike,"Gallatin, Tennessee",United States,37066,36.3816,-86.4438
Promising Dental Care,Opus,5973 W Hillsboro Blvd,"Parkland, Florida",United States,33067,26.3107,-80.2335
Proskin Associate LLC,Opus,37-12 Prince St #2C,"Flushing, Queens",United States,11354-4649,40.7615,-73.8311
Prosperity Spa,Opus,1250 East Hallandale Beach Boulevard,"Hallandale Beach, Florida",United States,33009,25.9867,-80.1461
Providence Medical Center,Opus,119 North Gaston Ave,"Somerville, New Jersey",United States,08876,40.5698,-74.6077
Pure Dermatology,Opus,501 South Cherry Street,"Glendale, Colorado",United States,80246,39.7043,-104.9341
Pure Dermatology,Opus,2233 W Kagy Blvd,"Bozeman, Montana",United States,59718,45.6793,-111.0466
Pure Skin Dermatology,Opus,"7932 W Sand Lake Rd, Ste 206","Orlando, Florida",United States,32819,28.5383,-81.3789
Purity Medical Spa,Opus,117 15th Ave SE,"Puyallup, Washington",United States,98372,47.1758,-122.2936
R3VIVE,Opus,31 SE 4th St.,"Delray Beach, Florida",United States,33487,26.4592,-80.0831
Radiant Aesthetics Nursing,Opus,330 Alabama Street Suite D,"Redlands, California",United States,92373,34.0547,-117.1825
Radiant By MD,Opus,25 Kilmer Dr.,"Morganville, New Jersey",United States,07751-1561,40.3754,-74.2568
Raines Family Medicine,Opus,190 Independent Drive,"Rainbow City, Alabama",United States,35906,33.9440,-86.0615
"RAJU DHARIWAL, DDS, INC.",Opus,9170 Elk Grove Florin Road,"Elk Grove, California",United States,95624,38.4383,-121.3819
Rancho OBGYN,Opus,25395 Hancock Avenue,"Murrieta, California",United States,92562,33.5598,-117.2208
Ready 2 Smile,Opus,40140 Winchester Road,"Temecula, California",United States,92591,33.5033,-117.1236
Reborn Skin Care,Opus,555 Passaic Ave,"West Caldwell, New Jersey",United States,07006,40.8491,-74.2916
ReDivine Clinic,Opus,"18 Rean Dr, STE 620",Toronto,Canada,M2K 0C7,43.6519,-79.3817
"Refine Aesthetics and Surgery, PLLC",Opus,713 W 14th St,"Austin, Texas",United States,78701-1707,30.2650,-97.7466
Refined Aesthetics,Opus,"1594 N 160 W","North Logan, Utah",United States,84341,41.7720,-111.8134
Reform ABQ,Opus,"200 Oak St NE","Albuquerque, New Mexico",United States,87106,35.1107,-106.6100
Refresh Aesthetics,Opus,70 North 200 East,"Roosevelt, Utah",United States,84066,40.3021,-109.9952
Regenerate Laser Med Spa,Opus,4900 W Expy 83 #300,"McAllen, Texas",United States,78501-3056,26.1967,-98.2357
Regenerative Health Institute P.C.,Opus,"20 Executive Dr","Carmel, Indiana",United States,46032-2988,39.9667,-86.1000
Regenesis Stem Cell,Opus,"4601 Whitesburg Dr. ","Huntsville, Alabama",United States,35802,34.7295,-86.5853
Reis Wellness,Opus,"839 E. Winding Creek Dr","Eagle, Idaho",United States,83616,43.6931,-116.3464
RejuLi Aesthetics,Opus,"2 Oakwood Boulevard","Hollywood, Florida",United States,33020-1962,26.0118,-80.1391
Rejuv Medspa,Opus,1631 S Wells Avenue,"Meridian, Idaho",United States,83642-5040,43.6142,-116.3989
Rejuvenation Healthcare,Opus,307 TOWNEPARK CIR STE 100,"Louisville, Kentucky",United States,40243-2331,38.2500,-85.7667
RejuvUrSkin Medical Spa,Opus,5016 E FM 1518 N,"Selma, Texas",United States,78154-1360,29.5872,-98.3158
Renew Laser And Aesthetic Medicine,Opus,803 Hopeton Road,"Wilmington, Delaware",United States,19807,39.7458,-75.5467
Renew MD Medical Spa,Opus,961 Matley Ln,"Reno, Nevada",United States,89502,39.5272,-119.8219
Renew MedSpa,Opus,2121 Cliff Drive Suite 115,"Eagan, Minnesota",United States,55122,44.8178,-93.1669
Renew Wellness and Aesthetics,Opus,7206 N western Ave,Oklahoma City,United States,73116,35.4822,-97.5350
Renew Wellness Center,Opus,210 Century Square Blvd,"Sugar Land, Texas",United States,77478-3796,29.5971,-95.6210
ReNew You by Nurse Stephanie Inc.,Opus,7298 Mentor Avenue,"Mentor, Ohio",United States,44060,41.6911,-81.3419
Renewal Aesthetics,Opus,6686 Highland Dr,"Cottonwood Heights, Utah",United States,84121,40.6163,-111.8105
Renual Medspa,Opus,4377 N Kings Hwy Suite 113,"Myrtle Beach, South Carolina",United States,29577,33.7167,-78.8833
RenuYou Aesthetics and Medspa,Opus,1705 N. Ankeny Blvd. Suite B,"Ankeny, Iowa",United States,50023-4102,41.7267,-93.6042
Restore You,Opus,1520 N. 205th Street  Suite 101,"Elkhorn, Omaha, Nebraska",United States,68022,41.4368,-96.3962
Revitalize Aesthetics,Opus,2000 W Main St,"St. Charles, Illinois",United States,60174-1773,41.9137,-88.3109
Revival Aesthetics and Wellness,Opus,826 N 100 E,"Spanish Fork, Utah",United States,84660-1245,40.1044,-111.6400
Rheumatology Center of NJ,Opus,56 Union Ave.,"Somerville, New Jersey",United States,08876,40.5698,-74.6077
"Rhythms Spa and Wellness Center, LLC",Opus,500 East Center Street,"Lexington, North Carolina",United States,27292-4112,35.8167,-80.2586
Richter Orthodontics,Opus,6244 W 9th St,"Greeley, Colorado",United States,80634,40.4167,-104.7167
Ridgeline Medical,Opus,2470 Jafer Court,"Idaho Falls, Idaho",United States,83404,43.5000,-112.0333
River Park Dental,Opus,6605 Longshore St ,"Dublin, Ohio",United States,43017-2774,40.1092,-83.1403
Riverbend Family Dental,Opus,"241 Cleveland Ave ","Saint Paul, Minnesota",United States,55105,44.9437,-93.0943
Roddy MedSpa,Opus,"491 Maple St.","Danvers, Massachusetts",United States,01923-4025,42.5750,-70.9306
Roger Estevez MD Professional CORP,Opus,4020 PECOS MCLEOD,Las Vegas,United States,89121,36.1691,-115.1406
Ronald S. Perlman Center for Plastic Surgery,Opus,5215 Loughboro Road,"Washington, Virginia",United States,20016,38.7135,-78.1598
Root Medical,Opus,266 W 100 N STE 2,"Vernal, Utah",United States,84078,40.4556,-109.5380
Roswell Skin Center,Opus,400 N Pennsylvania Ave #920,"Roswell, New Mexico",United States,88201-4779,33.3931,-104.5228
Rudyard Smith and Associates,Opus,1514 E 87th St,Chicago,United States,60619-6525,41.8832,-87.6324
RWC Med Spa,Opus,1412 Main Ave,"Clifton, New Jersey",United States,07011,40.8654,-74.1610
Ryan Boylan DDS,Opus,1112 Laskin Road Suite B,"Washington, Virginia",United States,23541,38.7135,-78.1598
"Sahar Allure Med Spa, Inc.",Opus,1820 Fullerton Avenue,"Corona, California",United States,92881,33.8667,-117.5667
Salazar Dental of Indiana,Opus,"2015 W Washington ST, STE B2",Indianapolis,United States,46222,39.7910,-86.1480
Salina Medical Esthetics,Opus,200 S. 5th St.,"Salina, Kansas",United States,67401-3906,38.8403,-97.6114
San Diego Surgical Arts,Opus,"10672 Wexford Street, Suite 207",San Diego,United States,92131,32.7150,-117.1625
San Ramon Dental Care,Opus,21001 San Ramon Valley Boulevard,"San Ramon, California",United States,94583,37.7800,-121.9781
Sanctuary Cosmetic Center,Opus,"1650 Tysons Blvd, Suite 100","McLean, Virginia",United States,22102,38.9283,-77.1753
"Sanuka Medical Center, SC",Opus,166 Bartlett Plaza,"Bartlett, Illinois",United States,60103-4234,41.9734,-88.1837
Sarah Todd Aesthetics,Opus,"200 West Side Square, STE 725","Huntsville, Alabama",United States,35801,34.7295,-86.5853
Schaumburg Dentistry,Opus,1375 E Schaumburg Rd Suite 310,"Schaumburg, Illinois",United States,60194,42.0303,-88.0839
"Schusterman, Mark M.D.",Opus,"3355 W Alabama St",Houston,United States,77098-1722,29.7628,-95.3831
Scott Family Dental,Opus,1101 Broadway Avenue #105,"Yankton, South Dakota",United States,57078,42.8817,-97.3925
Scott Rosenfeld DDS,Opus,"8902 N Meridian St.",Indianapolis,United States,46260-5307,39.7910,-86.1480
Seacoast Rejuvenation Center,Opus,"101 Shattuck Way, Ste 1","Newington, New Hampshire",United States,03801-7876,43.1000,-70.8336
Seguritan Dental Arts,Opus,"247 3rd Avenue, Suite 504",New York City,United States,10010,40.7130,-74.0072
Seiff Center for Aesthetic and Reconstructive Surgery,Opus,200 Banning St,"Dover, Delaware",United States,19904,39.1619,-75.5267
Serendipity Luxury Wellness,Opus,343 E Parkwood Ave.,"Friendswood, Texas",United States,77546-5147,29.5285,-95.2000
Serenity Women’s Care,Opus,10615 N Hayden Rd C-100,"Scottsdale, Arizona",United States,85260,33.5000,-111.9333
Sereno Sante,Opus,360 Dardanelli Lane Ste 2G,"Los Gatos, California",United States,95032,37.2361,-121.9617
"Sheets Family Practice, P.C. Inc.",Opus,123 S McKinley Ave,"Rensselaer, Indiana",United States,47978-2949,40.9365,-87.1507
Shervin Louie DDS,Opus,321 North Larchmont Boulevard,Los Angeles,United States,90004,34.0522,-118.2433
Sigma Primary Care,Opus,"15305 Huebner Rd",San Antonio,United States,78248-0982,29.4167,-98.5000
Signature Wellness,Opus,198 S Industrial Dr. STE B,"Saline, Michigan",United States,48176-9175,42.1667,-83.7817
Silkey Skin MD,Opus,3778 Blacksmith Rd,"Park City, Utah",United States,84098,40.6594,-111.4997
Silver Care Medical Management,Opus,135 West Shaw Avenue #103,"Fresno, California",United States,93704,36.7317,-119.7859
Sioux Valley Family Health,Opus,115 E. Maple St.,"Cherokee, Iowa",United States,51012 ​,42.7500,-95.5500
Siragusa Vein And Laser,Opus,"28 White Bridge Pike, Ste 200","Nashville, Tennessee",United States,37205,36.1667,-86.7833
Skin Beauty and Beyond Inc.,Opus,318 Laundon Terrace,"Milton, Ontario",Canada,L9T 7N9,43.5135,-79.8828
Skin Deep Rejuvenation Center,Opus,8 Old Bloomfield Pike Suite 400,"Bardstown, Kentucky",United States,40004-2086,37.8156,-85.4631
Skin Essentials Medical Skin Care,Opus,2559 W Main St,"Littleton, Colorado",United States,80120,39.5997,-105.0108
Skin Med Spa,Opus,960 Warren Ave,"Downers Grove, Illinois",United States,60515-3614,41.7947,-88.0169
Skin Rehab Aesthetics,Opus,14525 MN-7,"Minnetonka, Minnesota",United States,55345-3737,44.9133,-93.5033
Skin Restoration Center,Opus,720 N Montezuma St,"Prescott, Arizona",United States,86301,34.5419,-112.4687
"Skin Science, LLC",Opus,3822 South Dale Mabry Highway,"Tampa, Florida",United States,33611,27.9474,-82.4588
Skincare By Design Medispa,Opus,11143 N. La Canada Drive Ste 121,"Oro Valley, Arizona",United States,85737,32.4211,-110.9761
Skincare Inc,Opus,6268 South 900 East,Salt Lake City,United States,84121,40.7500,-111.8833
Skinfluencers Medspa LLC,Opus,5243 Touhy Ave,"Skokie, Illinois",United States,60077-3245,42.0263,-87.7547
Smile and Co.,Opus,5270 Marathon Ave.,"Fort Worth, Texas",United States,76109,32.7499,-97.3303
Smile Arizona Dentistry,Opus,4726 E Calle Del Medio,"Phoenix, Arizona",United States,85018,33.4500,-112.0667
Smile Arts Dentistry of Potomac,Opus,7811 Montrose Rd.,"Potomac, Maryland",United States,20854-3330,39.0167,-77.2167
Smile Studio,Opus,190 North Mountain Avenue,"Upland, California",United States,91786,34.0999,-117.6470
"Smiles Leasing, LLC",Opus,2215 N Lincoln Ave,Chicago,United States,60614-3717,41.8832,-87.6324
"Smooth Body Contours dba Central Florida Health and Rehab Clinic, LLC",Opus,3975 S. Orange Blossom Trail Suite 105,"Orlando, Florida",United States,32839,28.5383,-81.3789
Soleil Dental,Opus,4807 Maple Ave #300,Dallas,United States,75219,32.7758,-96.7967
Soleil Medical Spa,Opus,7887 SW Capitol Hwy,"Portland, Oregon",United States,97219-2479,45.5200,-122.6819
Soothing Dental,Opus,"1131 George Hopper Road, Ste. 100","Midlothian, Texas",United States,76065,32.4822,-96.9945
Soundview Dental PLLC,Opus,175 East Main Street,"Huntington, New York",United States,11743,40.8778,-73.4136
SourceMD: Integrated Wellness Solutions,Opus,345 Saxony Road,"Encinitas, California",United States,92024,33.0444,-117.2717
South Center Dental,Opus,"411 Strander Blvd","Tukwila, Washington",United States,98188,47.4783,-122.2756
South Coast Dermatology,Opus,"90 Libbey Industrial Parkway, Suite #200","Weymouth, Massachusetts",United States,02189-3157,42.2208,-70.9403
Southeastern Aesthetic Surgery,Opus,465 N Belair Rd. #3f,"Evans, Georgia",United States,30809,33.5334,-82.1303
Southern Beauty Aesthetics,Opus,3322 Highway 153,"Piedmont, South Carolina",United States,29673,34.7012,-82.4653
Southern Colorado Dermatology Clinic,Opus,509 W 17th St,"Pueblo, Colorado",United States,81003,38.2654,-104.6104
Southside Dermatology,Opus,4727 Sunbeam Road,"Jacksonville, Florida",United States,32257,30.3369,-81.6614
Southwest Florida Medicine,Opus,"2902 59th Street West","Bradenton, Florida",United States,34209,27.4890,-82.5628
Southwest Urgent Care LTD,Opus,2955 W 95th St,"Evergreen Park, Illinois",United States,60805,41.7226,-87.7031
Spa Asteria,Opus,6443 North Business Park Loop Road,"Park City, Utah",United States,84098,40.6594,-111.4997
Spa Lumina,Opus,74 Cedar Pointe Dr,Barrie,Canada,L4N 5R7,44.3893,-79.6855
Spa Nala LLC,Opus,"1114 Broadway St.","Alexandria, Minnesota",United States,56308-2880,45.8852,-95.3772
Spencer Family Medicine,Opus,650 Henderson Dr,"Cartersville, Georgia",United States,30120-3760,34.1639,-84.8000
Spencer Wellness Centre,Opus,69 East Garner Road #300,"Brownsburg, Indiana",United States,46112,39.8433,-86.3980
Springville Dermatology,Opus,732 North Main St,"Springville, Utah",United States,84663,40.1652,-111.6106
Starland Dentistry,Opus,428 Arden Avenue Suite 201,"Glendale, California",United States,91203,34.1481,-118.2464
Stella Capri Wellness,Opus,7324 E. 6th Ave,"Scottsdale, Arizona",United States,85251,33.5000,-111.9333
Steve Laverson MD Inc-  Feel Beautiful Plastic Surgery,Opus,"11199 Sorrento Valley Rd",San Diego,United States,92121,32.7150,-117.1625
Suburban Eyes Clinic,Opus,500 davis st,"Evanston, Illinois",United States,60201,42.0464,-87.6947
Suburban Healthcare,Opus,13415 S Route 59,"Plainfield, Illinois",United States,60585,41.6172,-88.2028
Summerlin Vision,Opus,"900 S Pavilion Center Dr #140,",Las Vegas,United States,89144,36.1691,-115.1406
Sunrise Family Healthcare Inc,Opus,"2035 Mesquite Ave ","Lake Havasu City, Arizona",United States,86403,34.4900,-114.3089
Svetlana Dental and Esthetic Center,Opus,2100 E Hallandale Beach Blvd Suite 309,"Hallandale Beach, Florida",United States,33009-3771,25.9867,-80.1461
Symphony Med Spa,Opus,2376 N 400 E Suite 103,"Tooele, Utah",United States,84074,40.5364,-112.2978
Synergy Primary Care and Wellness,Opus,4895 MONROE ST STE 200,"Toledo, Ohio",United States,43623,41.6656,-83.5753
Taren Nicole Aesthetics,Opus,"920 Frederica Street ","Owensboro, Kentucky",United States,42301-3075,37.7727,-87.1110
Teaneck Dental,Opus,"1008 Teaneck Road","Teaneck, New Jersey",United States,07666-4516,40.8903,-74.0115
Terre Haute Healthy Smiles,Opus,3309 South 7th Street,"Terre Haute, Indiana",United States,47802,39.4696,-87.3898
Terrence Hack MD,Opus,166 Carmelito Ave,"Monterey, California",United States,93940,36.6000,-121.9000
The Aesthetic Edit,Opus,1909 Stirling St,"Leander, Texas",United States,78641,30.5611,-97.8603
The Beauty Spot LLC,Opus,433 Vivian St,"Longmont, Colorado",United States,80501,40.1717,-105.1092
The Bellevue Hospital,Opus,1400 W Main St.,"Bellevue, Ohio",United States,44811,41.2758,-82.8422
The Cosmetic Dentist of Naples,Opus,"1044 Castello Dr.","Naples, Florida",United States,34103-8981,26.1500,-81.8000
"The Dermatology Clinic, PLLC",Opus,11295 East Taylor Rd.,"Gulfport, Mississippi",United States,39503-4197,30.3698,-89.0915
The Drip Bar,Opus,"43215 Grand River","Novi, Michigan",United States,48375,42.4806,-83.4756
The Epicentre Charleston - Kenosha Gleaton MD,Opus,2048 Charlie Hall Blvd,"Charleston, South Carolina",United States,29414,32.7831,-79.9344
"The Eye Professionals, LLC",Opus,"1205 N High St,","Millville, New Jersey",United States,08332,39.3954,-75.0385
The Facial Surgery Center,Opus,1211 South Main Street,"Greensburg, Pennsylvania",United States,15601-5319,40.2978,-79.5422
The Fig Med Spa,Opus,8921 S Yale Ave,"Tulsa, Oklahoma",United States,74137-3515,36.1314,-95.9372
The Firm Medspa,Opus,8517 Sawgrass Dr.,"Lone Tree, Colorado",United States,80124-8502,39.5489,-104.8925
The Glow Medical Spa,Opus,2239 East Garvey Avenue North,"West Covina, California",United States,91791,34.0567,-117.9186
The Lombardi Plastic Surgery Center,Opus,32 Corbett Way,"Eatontown, New Jersey",United States,07724,40.3046,-74.0597
The Medical Spa Fresno,Opus,680 W Shaw Ave Suite 101,"Fresno, California",United States,93704,36.7317,-119.7859
The Oral and Facial Surgery Center of Kentucky,Opus,"1105 Mary T. Meagher Drive","Elizabethtown, Kentucky",United States,42701-7990,37.7000,-85.8667
The Painless Center,Opus,2 Dean Drive,"Tenafly, New Jersey",United States,07670,40.9272,-73.9668
The Parker Skin And Aesthetic Clinic,Opus,3737 PARK EAST DRIVE STE 109,"Beachwood, Ohio",United States,44122-4329,41.4793,-81.4978
The Refinery Aesthetics and Laser Center,Opus,2500 Sunset Point Rd,"Clearwater, Florida",United States,33765,27.9736,-82.7642
The Remedy,Opus,619 10th Street,"Gothenburg, Nebraska",United States,69138,40.9317,-100.1594
The Shot Shop,Opus,722 Bliss Rd,"East Longmeadow, Massachusetts",United States,01106,42.0646,-72.5129
The Skin Clinic Med Spa,Opus,1603 N Riverfront Dr,"Mankato, Minnesota",United States,56001-3258,44.1667,-94.0000
The Wellness Center by Dr. Mignon,Opus,1965 Capital Circle NE,"Tallahassee, Florida",United States,32308,30.4407,-84.2783
The ZMediSpa,Opus,314 Sawdust Road #119,"Spring, Texas",United States,77380,30.0542,-95.3869
Thomas J Cassidy MD LLC,Opus,3910 Park Ave,"Edison, New Jersey",United States,08820,40.5040,-74.3494
"Thomas M. Bilski, DDS And Assoc. Inc.",Opus,"6527 Brecksville Rd ","Independence, Ohio",United States,44131,41.3819,-81.6408
Tidal Wellness,Opus,6752 Rock Spring Rd #320,"Wilmington, North Carolina",United States,28405-3179,34.2233,-77.9122
"TIFFANY VU DMD, PC",Opus,5380 N FRESNO ST STE 106,"Fresno, California",United States,93770,36.7317,-119.7859
Timeless Beauty Medical and Aesthetic Center,Opus,9200 Carothers Blvd suite 103,"Franklin, Tennessee",United States,37067,35.9292,-86.8575
Timeless Medical Spa,Opus,6112 S 1550 E #103,"Ogden, Utah",United States,84405-5008,41.2228,-111.9704
Total Skin Rejuvenation,Opus,3411 Main St,"Morgantown, Pennsylvania",United States,19543-7748,40.1550,-75.8900
Treasure State Eye Care,Opus,523 9th St South,"Great Falls, Montana",United States,59405,47.5036,-111.2864
Treasure Valley Aesthetics and Wellness,Opus,5418 N Eagle Rd #120,"Boise, Idaho",United States,83713,43.6158,-116.2016
Trent Proehl MD,Opus,150 Lake St,"Tremont, Illinois",United States,61568,40.5256,-89.4906
Triangle Laser and Aesthetics,Opus,9700 Brimhall Rd,"Bakersfield, California",United States,93312,35.3667,-119.0167
Tribeca Aesthetics,Opus,50 Laight St.,New York City,United States,10013-2050,40.7130,-74.0072
Trieu Dermatology,Opus,"1525 Lapalco Blvd ","Harvey, Louisiana",United States,70058-5738,29.8911,-90.0692
Trillium Creek,Opus,5783 Wooster Pike,"Medina, Ohio",United States,44256,41.1362,-81.8640
Trim Care,Opus,5052 S Jones Blv STE 145,Las Vegas,United States,89118,36.1691,-115.1406
Tru Health Clinic & Med spa,Opus,2707 parkland boulevard #3,"Pleasant View, Utah",United States,84404,41.3217,-111.9983
True Beauty Forever,Opus,335 North 300 West STE 101,"Kaysville, Utah",United States,84037,41.0331,-111.9361
True Health Primary Care,Opus,1847 Texas 46,"New Braunfels, Texas",United States,78132,29.7000,-98.1167
Tulsa Precision Dental,Opus,5119 E. 81st St,"Tulsa, Oklahoma",United States,74137-2292,36.1314,-95.9372
United Shades of Skin,Opus,4238 Dawson Street,Burnaby,Canada,V5C 4B3,49.2432,-122.9742
Unity Med Spa,Opus,1130 East Fairview Avenue,"Meridian, Idaho",United States,83642,43.6142,-116.3989
Upstream Medical Care LLC,Opus,212 Johnny Mercer Blvd,"Savannah, Georgia",United States,31410,32.0167,-81.1167
Utah Valley Health Clinic,Opus,57 West University Parkway,"Orem, Utah",United States,84058,40.2969,-111.6945
Uzima Rejuvenation Station LLC,Opus,7743 Cox Ln,"West Chester Township, Butler County, Ohio",United States,45069,39.3451,-84.3957
Valeria Salon Spa Boutique,Opus,9620 Holly Point Dr,"Huntersville, North Carolina",United States,28078,35.4094,-80.8636
Valley Wellness Center,Opus,1300 Mable Ave Suite C,"Modesto, California",United States,95355,37.6614,-120.9944
Vibrant Med Spa LLC,Opus,1101 Satellite View,"Round Rock, Texas",United States,78665-1591,30.5088,-97.6800
Victorian Eye Care and Medical Spa,Opus,215 Legris Avenue,"West Warwick, Rhode Island",United States,02893,41.7000,-71.5167
Vilate Med Spa,Opus,1455 500 W STE E,"Bountiful, Utah",United States,84010-8188,40.8797,-111.8717
Village Dental Hudson,Opus,41 E Main St.,"Hudson, Ohio",United States,44236-3004,41.2398,-81.4408
VIP Cosmetic Surgery,Opus,10 William Pope Dr Ste 4,"Bluffton, South Carolina",United States,29909,32.2372,-80.8606
Visionary Eye Specialists LLC,Opus,"9002 N. Meridian St",Indianapolis,United States,46260-5349,39.7910,-86.1480
Vista Medical Group,Opus,14252 Schleisman Road,"Eastvale, California",United States,92880,33.9636,-117.5642
VitaBoost Wellness,Opus,20953 Devonshire St,Los Angeles,United States,91311,34.0522,-118.2433
Vital Aesthetics,Opus,18800 Preston Rd STE 310,Dallas,United States,75252,32.7758,-96.7967
Vitality MD's,Opus,8415 N. Pima Road,"Scottsdale, Arizona",United States,85258,33.5000,-111.9333
Vitality Medicine,Opus,11938 CR101,"The Villages, Florida",United States,32162-9331,28.9029,-81.9887
Vivida Dermatology,Opus,6460 Medical Center St Suite 200,Las Vegas,United States,89148,36.1691,-115.1406
Walding and Associates,Opus,444 West Pipkin Road,"Lakeland, Florida",United States,33803,28.0442,-81.9490
Walnut Creek Eye Medical group,Opus,1855 San Miguel Drive Ste 28,"Walnut Creek, California",United States,94596,37.9064,-122.0650
Walter Jones III MD Inc,Opus,"33423 Yucaipa Boulevard, Suite #D","Yucaipa, California",United States,92399,34.0336,-117.0431
WEcare Family Practice Clinic,Opus,6521 Alabama Hwy 69 S Suite M,"Tuscaloosa, Alabama",United States,35405,33.2065,-87.5346
Wellife Center,Opus,"1117 Perimeter Center W, N316","Sandy Springs, Georgia",United States,30338,33.9241,-84.3791
Wellspring Esthetics,Opus,57 Northeastern Boulevard,"Nashua, New Hampshire",United States,03062,42.7575,-71.4644
Wellspring Medical Spa and Aesthetics,Opus,115 Seward Street,"Thomasville, Georgia",United States,31792-5528,30.8364,-83.9783
Wendell Family Dentistry,Opus,3200 Wendell Blvd,"Wendell, North Carolina",United States,27591-5908,35.7822,-78.3683
West Coast Wellness,Opus,400 Camarillo Ranch Road,"Camarillo, California",United States,93012,34.2333,-119.0333
West Volusia Family and Sports Medicine,Opus,1590 South State Rd 15A ste B,"DeLand, Florida",United States,32720,29.0225,-81.2864
Westlake Family Dental Care,Opus,2255 Columbia Rd,"Westlake, Ohio",United States,44145-4102,41.4544,-81.9286
Westover Hills Dermatology,Opus,9018 Culebra Road Suite 104,San Antonio,United States,78251,29.4167,-98.5000
White Pearl Med Spa,Opus,1952 S River Rd,"Des Plaines, Illinois",United States,60018-3206,42.0339,-87.8997
White Rose Aesthetics,Opus,18 Alexander Dr.,"Hanover, Pennsylvania",United States,17331,39.8072,-76.9847
Wholistic Wellness,Opus,"1755 Coburg Road","Eugene, Oregon",United States,97401,44.0522,-123.0912
Wigwam Dental,Opus,2649 Wigwam Pkwy # 106,"Henderson, Nevada",United States,89074,36.0292,-115.0253
Wilkes Rejuvenation MD,Opus,1600 Curtis Bridge Rd,"Wilkesboro, North Carolina",United States,28697,36.1425,-81.1625
Will Surgical Arts,Opus,3280 Urbana Pike #201,"Ijamsville, Maryland",United States,21754,39.3606,-77.3233
Willlow Bend Medical Center,Opus,1787 Fort Union Blvd,"Cottonwood Heights, Utah",United States,84121,40.6163,-111.8105
Willow Day Spa,Opus,440 W. Centre Ave,"Portage, Michigan",United States,49024,42.2097,-85.5886
Wilmington Eye,Opus,"1025 Medical Center Drive","Wilmington, North Carolina",United States,28401-7355,34.2233,-77.9122
Windermere Medical Center,Opus,11600 Lakeside Village Lane,"Windermere, Florida",United States,34786-7024,28.4967,-81.5339
Wingard Urgent Care,Opus,"1325 Commerce Dr, STE 200","Peachtree City, Georgia",United States,30269-3582,33.3990,-84.5706
Winyah Surgical Specialists,Opus,PO Box 868,"Pawleys Island, South Carolina",United States,29585,33.4258,-79.1250
Wisconsin Vein Center and MediSpa,Opus,1231 George Towne Drive,"Pewaukee, Wisconsin",United States,53072-2756,43.0670,-88.2500
Woman Care Inc.,Opus,1703 Locust Ave,"Fairmont, West Virginia",United States,26554,39.4811,-80.1476
Women's Choice Aesthetics,Opus,115 Technology Dr Ste B-301,"Trumbull, Connecticut",United States,06611,41.2331,-73.2183
Woodbridge Dental Services- Dr. Jose Lomboy,Opus,4980 Barranca Parkway,"Irvine, California",United States,92604,33.6694,-117.8231
Xanadu Med Spa,Opus,"2244 East Harmony Road ","Fort Collins, Colorado",United States,80528,40.5592,-105.0781
"Yakov Levy M.D., PC",Opus,"70-31 A 108 Street","Forest Hills, Queens",United States,11375,40.7161,-73.8500
Yellow Rose Spa and Laser Clinic,Opus,347 Holmes Crescent,"Milton, Ontario",Canada,L9T 0T6,43.5135,-79.8828
Young Skin Dermatology,Opus,123 High Ridge Rd,"Stamford, Connecticut",United States,06905-3811,41.0519,-73.5395
Your Vitality,Opus,351 N SkyView St,"Flagstaff, Arizona",United States,86004,35.1992,-111.6311
"Youthfill MD - Dr. David Hopp, MD",Opus,123B Robertson Blvd,Los Angeles,United States,90048,34.0522,-118.2433
Youthful Aesthetics LLC,Opus,"320 N Wooster Avenue, STE B","Dover, Ohio",United States,44622,40.5267,-81.4778
Zand Dermatology,Opus,655 Redwood Hwy Frontage Rd Ste 246,"Mill Valley, California",United States,94941,37.9067,-122.5475
Zurich Med Spa,Opus,141 Sully's Trail,"Pittsford, New York",United States,14534,43.0897,-77.5167
ZWAHLEN AND MARSHALL FAMILY DENTISTRY,Opus,201 East Orangeburg Avenue #C,"Modesto, California",United States,95350,37.6614,-120.9944
TranquilVita Demo MedSpa & Clinic,Opus Family,3015 West 38th Street,Chicago,United States,60632,41.8832,-87.6324